{
  "type": "FeatureCollection",
  "metadata": {
    "date": "20251222",
    "source": "Directorate of Fire Emergency Services, Govt. of Goa",
    "description": "Daily GPS tracks of fire trucks",
    "lastUpdated": "2025-12-22T00:48:38.053Z",
    "count": 52
  },
  "features": [
    {
      "type": "Feature",
      "geometry": {
        "type": "LineString",
        "coordinates": [
          [
            73.8412433,
            15.457295
          ],
          [
            73.8407717,
            15.4581367
          ],
          [
            73.8407633,
            15.4581183
          ]
        ]
      },
      "properties": {
        "Vehicle_No": "GA 07 G 0680-PIL(QUICK RESPONSE VEHICLE)",
        "Vehicle_Name": "4G",
        "Branch": "Fire Station Pilerne",
        "created": "22-12-2025 05:30:32",
        "lastUpdated": "22-12-2025 06:15:02"
      }
    },
    {
      "type": "Feature",
      "geometry": {
        "type": "LineString",
        "coordinates": [
          [
            73.914062,
            15.500328
          ]
        ]
      },
      "properties": {
        "Vehicle_No": "GA07G2506 - Mid Size (Water Tender)",
        "Vehicle_Name": "TS101",
        "Branch": "Fire Station Old Goa",
        "created": "22-12-2025 05:30:25",
        "lastUpdated": "22-12-2025 05:30:25"
      }
    },
    {
      "type": "Feature",
      "geometry": {
        "type": "LineString",
        "coordinates": [
          [
            73.829643,
            15.523393
          ],
          [
            73.829315,
            15.523022
          ]
        ]
      },
      "properties": {
        "Vehicle_No": "GA 07 G 5115-POR(MINI WATER TENDER)",
        "Vehicle_Name": "TS101",
        "Branch": "Fire Station Porvorim",
        "created": "22-12-2025 05:28:54",
        "lastUpdated": "22-12-2025 05:30:52"
      }
    },
    {
      "type": "Feature",
      "geometry": {
        "type": "LineString",
        "coordinates": [
          [
            73.970253,
            15.269448
          ]
        ]
      },
      "properties": {
        "Vehicle_No": "GA 07 G 0350-MRG(WATER TENDER)",
        "Vehicle_Name": "TS101",
        "Branch": "Fire Station Margao",
        "created": "22-12-2025 05:30:13",
        "lastUpdated": "22-12-2025 05:30:13"
      }
    },
    {
      "type": "Feature",
      "geometry": {
        "type": "LineString",
        "coordinates": [
          [
            73.808624,
            15.589862
          ],
          [
            73.808754,
            15.589962
          ]
        ]
      },
      "properties": {
        "Vehicle_No": "GA 07 G 2900-MAP(MINI RESCUE TENDER)",
        "Vehicle_Name": "TS101",
        "Branch": "Fire Station Mapusa",
        "created": "22-12-2025 05:28:28",
        "lastUpdated": "22-12-2025 05:32:33"
      }
    },
    {
      "type": "Feature",
      "geometry": {
        "type": "LineString",
        "coordinates": [
          [
            73.817154,
            15.487157
          ],
          [
            73.81707,
            15.487203
          ]
        ]
      },
      "properties": {
        "Vehicle_No": "GA 07 G 7600-FFHQ(WATER BOUSER)",
        "Vehicle_Name": "TS101",
        "Branch": "Fire Force Headquarters",
        "created": "22-12-2025 05:29:04",
        "lastUpdated": "22-12-2025 05:30:59"
      }
    },
    {
      "type": "Feature",
      "geometry": {
        "type": "LineString",
        "coordinates": [
          [
            73.817322,
            15.48742
          ],
          [
            73.817322,
            15.48735
          ]
        ]
      },
      "properties": {
        "Vehicle_No": "GA 07 G 2002-FFHQ(TURN TABLE LADDER)",
        "Vehicle_Name": "TS101",
        "Branch": "Fire Force Headquarters",
        "created": "22-12-2025 05:29:58",
        "lastUpdated": "22-12-2025 05:31:59"
      }
    },
    {
      "type": "Feature",
      "geometry": {
        "type": "LineString",
        "coordinates": [
          [
            73.817184,
            15.486353
          ]
        ]
      },
      "properties": {
        "Vehicle_No": "GA 07 G 7101-FFHQ(WATER TENDER)",
        "Vehicle_Name": "TS101",
        "Branch": "Fire Force Headquarters",
        "created": "22-12-2025 05:30:15",
        "lastUpdated": "22-12-2025 05:30:15"
      }
    },
    {
      "type": "Feature",
      "geometry": {
        "type": "LineString",
        "coordinates": [
          [
            73.817238,
            15.487222
          ],
          [
            73.817177,
            15.487168
          ]
        ]
      },
      "properties": {
        "Vehicle_No": "GA 07 G 7677-FFHQ(EMERGENCY RESCUE)",
        "Vehicle_Name": "TS101",
        "Branch": "Fire Force Headquarters",
        "created": "22-12-2025 05:28:41",
        "lastUpdated": "22-12-2025 05:34:42"
      }
    },
    {
      "type": "Feature",
      "geometry": {
        "type": "LineString",
        "coordinates": [
          [
            73.817223,
            15.487125
          ],
          [
            73.817307,
            15.487238
          ],
          [
            73.81752,
            15.486733
          ],
          [
            73.817245,
            15.486328
          ],
          [
            73.8172,
            15.486377
          ],
          [
            73.817177,
            15.486778
          ],
          [
            73.817024,
            15.486902
          ]
        ]
      },
      "properties": {
        "Vehicle_No": "GA 07 G 1121-PNJ(EMERGENCY RESCUE)",
        "Vehicle_Name": "TS101",
        "Branch": "Fire Station Panaji",
        "created": "22-12-2025 05:28:50",
        "lastUpdated": "22-12-2025 06:09:07"
      }
    },
    {
      "type": "Feature",
      "geometry": {
        "type": "LineString",
        "coordinates": [
          [
            73.817444,
            15.486503
          ]
        ]
      },
      "properties": {
        "Vehicle_No": "GA 07 G 1571-FFHQ(QUICK RESPONSE)",
        "Vehicle_Name": "TS101",
        "Branch": "Fire Force Headquarters",
        "created": "22-12-2025 05:30:23",
        "lastUpdated": "22-12-2025 05:30:23"
      }
    },
    {
      "type": "Feature",
      "geometry": {
        "type": "LineString",
        "coordinates": [
          [
            73.808823,
            15.589915
          ],
          [
            73.808655,
            15.589843
          ]
        ]
      },
      "properties": {
        "Vehicle_No": "GA 07 G 8101-MAP(WATER TENDER)",
        "Vehicle_Name": "TS101",
        "Branch": "Fire Station Mapusa",
        "created": "22-12-2025 05:28:46",
        "lastUpdated": "22-12-2025 05:30:42"
      }
    },
    {
      "type": "Feature",
      "geometry": {
        "type": "LineString",
        "coordinates": [
          [
            73.9700683,
            15.2695533
          ],
          [
            73.9704833,
            15.2689316
          ],
          [
            73.9703133,
            15.2693933
          ],
          [
            73.970125,
            15.2694133
          ],
          [
            73.9700516,
            15.2696983
          ],
          [
            73.9700766,
            15.269485
          ],
          [
            73.9700283,
            15.2695616
          ],
          [
            73.97006,
            15.2694983
          ],
          [
            73.970125,
            15.2694683
          ],
          [
            73.970085,
            15.2694416
          ],
          [
            73.97019,
            15.2693916
          ],
          [
            73.9701166,
            15.2693666
          ],
          [
            73.970125,
            15.2693833
          ],
          [
            73.9700433,
            15.2694033
          ],
          [
            73.97002,
            15.2694783
          ],
          [
            73.9701416,
            15.2692683
          ],
          [
            73.9701016,
            15.2692966
          ],
          [
            73.9701416,
            15.2694583
          ],
          [
            73.97015,
            15.2693433
          ],
          [
            73.9701583,
            15.2694216
          ],
          [
            73.9703199,
            15.2694199
          ],
          [
            73.970255,
            15.269365
          ],
          [
            73.9701583,
            15.2693333
          ],
          [
            73.97015,
            15.2694033
          ],
          [
            73.9701583,
            15.269305
          ],
          [
            73.9701166,
            15.2694066
          ],
          [
            73.9700683,
            15.2694566
          ],
          [
            73.9700283,
            15.269485
          ],
          [
            73.9702466,
            15.2692999
          ],
          [
            73.9701416,
            15.269415
          ],
          [
            73.9701666,
            15.2694666
          ],
          [
            73.9701333,
            15.2693683
          ],
          [
            73.9701416,
            15.2697383
          ],
          [
            73.9700683,
            15.2694483
          ],
          [
            73.9699466,
            15.2693966
          ],
          [
            73.9700766,
            15.269425
          ],
          [
            73.9700116,
            15.2694316
          ],
          [
            73.9701416,
            15.2694166
          ],
          [
            73.9702066,
            15.2695666
          ],
          [
            73.97019,
            15.2694316
          ],
          [
            73.9700116,
            15.2694333
          ]
        ]
      },
      "properties": {
        "Vehicle_No": "GA 07 G 2317-MRG(EMERGENCY RESCUE TENDER)",
        "Vehicle_Name": "5035",
        "Branch": "Fire Station Margao",
        "created": "22-12-2025 05:30:08",
        "lastUpdated": "22-12-2025 06:17:28"
      }
    },
    {
      "type": "Feature",
      "geometry": {
        "type": "LineString",
        "coordinates": [
          [
            73.85131,
            15.388775
          ]
        ]
      },
      "properties": {
        "Vehicle_No": "GA 07 G 1570-VAS(QUICK RESPONSE FIRE TENDER)",
        "Vehicle_Name": "5035",
        "Branch": "Fire Station Vasco",
        "created": "22-12-2025 05:30:19",
        "lastUpdated": "22-12-2025 05:30:19"
      }
    },
    {
      "type": "Feature",
      "geometry": {
        "type": "LineString",
        "coordinates": [
          [
            73.85092,
            15.3890783
          ]
        ]
      },
      "properties": {
        "Vehicle_No": "GA 07 G 4101-VAS(MS WATER TENDER)",
        "Vehicle_Name": "5035",
        "Branch": "Fire Station Vasco",
        "created": "22-12-2025 05:29:53",
        "lastUpdated": "22-12-2025 05:29:53"
      }
    },
    {
      "type": "Feature",
      "geometry": {
        "type": "LineString",
        "coordinates": [
          [
            73.85127,
            15.3888617
          ]
        ]
      },
      "properties": {
        "Vehicle_No": "GA 07 G 0819-VAS(WATER/FOAM TENDER)",
        "Vehicle_Name": "4G",
        "Branch": "Fire Station Vasco",
        "created": "22-12-2025 05:30:17",
        "lastUpdated": "22-12-2025 05:30:17"
      }
    },
    {
      "type": "Feature",
      "geometry": {
        "type": "LineString",
        "coordinates": [
          [
            73.9547533,
            15.2914116
          ]
        ]
      },
      "properties": {
        "Vehicle_No": "GA 07 G 7100-MRG(WATER BOUSER)",
        "Vehicle_Name": "5035",
        "Branch": "Fire Station Margao",
        "created": "22-12-2025 05:30:16",
        "lastUpdated": "22-12-2025 05:30:16"
      }
    },
    {
      "type": "Feature",
      "geometry": {
        "type": "LineString",
        "coordinates": [
          [
            73.9706049,
            15.26938
          ]
        ]
      },
      "properties": {
        "Vehicle_No": "GA 07 G 1568-MRG(QUICK RESPONSE )",
        "Vehicle_Name": "5035",
        "Branch": "Fire Station Margao",
        "created": "22-12-2025 05:29:39",
        "lastUpdated": "22-12-2025 05:29:39"
      }
    },
    {
      "type": "Feature",
      "geometry": {
        "type": "LineString",
        "coordinates": [
          [
            73.9702883,
            15.26935
          ]
        ]
      },
      "properties": {
        "Vehicle_No": "GA 07 G 6101-MRG(WATER TENDER)",
        "Vehicle_Name": "5035",
        "Branch": "Fire Station Margao",
        "created": "22-12-2025 05:30:24",
        "lastUpdated": "22-12-2025 05:30:24"
      }
    },
    {
      "type": "Feature",
      "geometry": {
        "type": "LineString",
        "coordinates": [
          [
            73.9698966,
            15.2695
          ]
        ]
      },
      "properties": {
        "Vehicle_No": "GA 07 G 1001-MRG(AERIAL LADDER PLATFORM)",
        "Vehicle_Name": "5035",
        "Branch": "Fire Station Margao",
        "created": "22-12-2025 05:30:17",
        "lastUpdated": "22-12-2025 05:30:17"
      }
    },
    {
      "type": "Feature",
      "geometry": {
        "type": "LineString",
        "coordinates": [
          [
            74.0028694,
            15.4026967
          ],
          [
            74.0028739,
            15.402675
          ]
        ]
      },
      "properties": {
        "Vehicle_No": "GA 07 G 0820-BIC(WATER TEDNER)",
        "Vehicle_Name": "5026",
        "Branch": "Fire Station Bicholim",
        "created": "22-12-2025 05:27:45",
        "lastUpdated": "22-12-2025 05:30:55"
      }
    },
    {
      "type": "Feature",
      "geometry": {
        "type": "LineString",
        "coordinates": [
          [
            73.91403,
            15.5003066
          ]
        ]
      },
      "properties": {
        "Vehicle_No": "GA 07 G 5101-OLG(MS WATER TENDER)",
        "Vehicle_Name": "5035",
        "Branch": "Fire Station Old Goa",
        "created": "22-12-2025 05:29:53",
        "lastUpdated": "22-12-2025 05:29:53"
      }
    },
    {
      "type": "Feature",
      "geometry": {
        "type": "LineString",
        "coordinates": [
          [
            73.94672,
            15.5892783
          ],
          [
            73.94633,
            15.58939
          ],
          [
            73.946085,
            15.5892233
          ],
          [
            73.9463699,
            15.5891066
          ],
          [
            73.94602,
            15.58878
          ],
          [
            73.9462,
            15.5886633
          ],
          [
            73.9463466,
            15.589055
          ],
          [
            73.9463216,
            15.58902
          ],
          [
            73.9463133,
            15.58902
          ],
          [
            73.9465416,
            15.58901
          ],
          [
            73.9465333,
            15.5889633
          ],
          [
            73.94642,
            15.5888583
          ],
          [
            73.9464599,
            15.5888433
          ],
          [
            73.9466383,
            15.5891783
          ],
          [
            73.9467933,
            15.5895683
          ],
          [
            73.9466383,
            15.5894666
          ],
          [
            73.9468583,
            15.5897983
          ],
          [
            73.9465416,
            15.5896133
          ],
          [
            73.9466466,
            15.5894733
          ],
          [
            73.9465,
            15.5892333
          ],
          [
            73.9464433,
            15.5895066
          ],
          [
            73.9464683,
            15.5895816
          ],
          [
            73.94659,
            15.58964
          ],
          [
            73.9464933,
            15.58967
          ]
        ]
      },
      "properties": {
        "Vehicle_No": "GA 07 G 3101-BIC(MS WATER TENDER)",
        "Vehicle_Name": "5035",
        "Branch": "Fire Station Bicholim",
        "created": "22-12-2025 05:30:05",
        "lastUpdated": "22-12-2025 06:18:24"
      }
    },
    {
      "type": "Feature",
      "geometry": {
        "type": "LineString",
        "coordinates": [
          [
            73.9665933,
            15.5824466
          ]
        ]
      },
      "properties": {
        "Vehicle_No": "GA 07 G 1941-BIC(QUICK RESPONSE)",
        "Vehicle_Name": "5035",
        "Branch": "Fire Station Bicholim",
        "created": "22-12-2025 05:30:27",
        "lastUpdated": "22-12-2025 05:30:27"
      }
    },
    {
      "type": "Feature",
      "geometry": {
        "type": "LineString",
        "coordinates": [
          [
            73.8524983,
            15.3901916
          ]
        ]
      },
      "properties": {
        "Vehicle_No": "GA 07 G 2319-VAS (EMERGENCY RESCUE TENDER)",
        "Vehicle_Name": "5035",
        "Branch": "Fire Station Vasco",
        "created": "22-12-2025 05:29:47",
        "lastUpdated": "22-12-2025 05:29:47"
      }
    },
    {
      "type": "Feature",
      "geometry": {
        "type": "LineString",
        "coordinates": [
          [
            74.1387199,
            15.53099
          ]
        ]
      },
      "properties": {
        "Vehicle_No": "GA 07 G 3737-VAP(WATER TENDER)",
        "Vehicle_Name": "5035",
        "Branch": "Fire Station Valpoi",
        "created": "22-12-2025 05:29:51",
        "lastUpdated": "22-12-2025 05:29:51"
      }
    },
    {
      "type": "Feature",
      "geometry": {
        "type": "LineString",
        "coordinates": [
          [
            74.0028083,
            15.4028416
          ]
        ]
      },
      "properties": {
        "Vehicle_No": "GA 07 G 2318-PND(EMERGENCY RESCUE TENDER)",
        "Vehicle_Name": "5035",
        "Branch": "Fire Station Ponda",
        "created": "22-12-2025 05:30:02",
        "lastUpdated": "22-12-2025 05:30:02"
      }
    },
    {
      "type": "Feature",
      "geometry": {
        "type": "LineString",
        "coordinates": [
          [
            74.0768633,
            15.4151616
          ]
        ]
      },
      "properties": {
        "Vehicle_No": "GA 07 G 2004-PND(QUICK RESPONSE)",
        "Vehicle_Name": "5035",
        "Branch": "Fire Station Ponda",
        "created": "19-12-2025 08:22:15",
        "lastUpdated": "19-12-2025 08:22:15"
      }
    },
    {
      "type": "Feature",
      "geometry": {
        "type": "LineString",
        "coordinates": [
          [
            74.0030116,
            15.4026516
          ]
        ]
      },
      "properties": {
        "Vehicle_No": "GA 07 G 9101-PND(WATER TENDER)",
        "Vehicle_Name": "5035",
        "Branch": "Fire Station Ponda",
        "created": "22-12-2025 05:30:18",
        "lastUpdated": "22-12-2025 05:30:18"
      }
    },
    {
      "type": "Feature",
      "geometry": {
        "type": "LineString",
        "coordinates": [
          [
            73.97745,
            15.4140133
          ]
        ]
      },
      "properties": {
        "Vehicle_No": "GA 07 G 9797-PND(WATER BOUSER)",
        "Vehicle_Name": "5035",
        "Branch": "Fire Station Ponda",
        "created": "22-12-2025 05:30:31",
        "lastUpdated": "22-12-2025 05:30:31"
      }
    },
    {
      "type": "Feature",
      "geometry": {
        "type": "LineString",
        "coordinates": [
          [
            74.04406,
            15.02367
          ]
        ]
      },
      "properties": {
        "Vehicle_No": "GA 07 G 6363-CAN(WATER TENDER)",
        "Vehicle_Name": "5035",
        "Branch": "Fire Station Canacona",
        "created": "21-12-2025 21:03:42",
        "lastUpdated": "21-12-2025 21:03:42"
      }
    },
    {
      "type": "Feature",
      "geometry": {
        "type": "LineString",
        "coordinates": [
          [
            74.04025,
            15.017995
          ],
          [
            74.0395349,
            15.0114983
          ],
          [
            74.041935,
            15.008555
          ],
          [
            74.0488199,
            15.007125
          ],
          [
            74.056225,
            15.0066616
          ],
          [
            74.0581866,
            15.006735
          ],
          [
            74.0576583,
            15.0075483
          ],
          [
            74.0576666,
            15.0075716
          ],
          [
            74.05765,
            15.0075316
          ]
        ]
      },
      "properties": {
        "Vehicle_No": "GA 07 G 1567-CAN(QUICK RESPONSE FT)",
        "Vehicle_Name": "5035",
        "Branch": "Fire Station Canacona",
        "created": "21-12-2025 00:22:12",
        "lastUpdated": "22-12-2025 06:13:29"
      }
    },
    {
      "type": "Feature",
      "geometry": {
        "type": "LineString",
        "coordinates": [
          [
            73.9358649,
            15.3697016
          ]
        ]
      },
      "properties": {
        "Vehicle_No": "GA 07 G 1569-VRN(QUICK RESPONSE)",
        "Vehicle_Name": "5035",
        "Branch": "Fire Station Verna",
        "created": "22-12-2025 05:30:26",
        "lastUpdated": "22-12-2025 05:30:26"
      }
    },
    {
      "type": "Feature",
      "geometry": {
        "type": "LineString",
        "coordinates": [
          [
            73.9356533,
            15.3697516
          ]
        ]
      },
      "properties": {
        "Vehicle_No": "GA 07 G 9909-VRN(ADVANCE MULTI-PURPOSE)",
        "Vehicle_Name": "5035",
        "Branch": "Fire Station Verna",
        "created": "22-12-2025 05:30:06",
        "lastUpdated": "22-12-2025 05:30:06"
      }
    },
    {
      "type": "Feature",
      "geometry": {
        "type": "LineString",
        "coordinates": [
          [
            74.13877,
            15.53099
          ]
        ]
      },
      "properties": {
        "Vehicle_No": "GA 07 G 1942-VAP(QUICK RESPONSE)",
        "Vehicle_Name": "5035",
        "Branch": "Fire Station Valpoi",
        "created": "22-12-2025 05:30:08",
        "lastUpdated": "22-12-2025 05:30:08"
      }
    },
    {
      "type": "Feature",
      "geometry": {
        "type": "LineString",
        "coordinates": [
          [
            74.1038,
            15.2607583
          ]
        ]
      },
      "properties": {
        "Vehicle_No": "GA 07 G 2003-CUR(QUICK RESPONSE)",
        "Vehicle_Name": "5035",
        "Branch": "Fire Station Curchorem",
        "created": "22-12-2025 05:30:21",
        "lastUpdated": "22-12-2025 05:30:21"
      }
    },
    {
      "type": "Feature",
      "geometry": {
        "type": "LineString",
        "coordinates": [
          [
            74.1037033,
            15.26048
          ]
        ]
      },
      "properties": {
        "Vehicle_No": "GA 07 G 7447-CUR(EMERGENCY RESCUE)",
        "Vehicle_Name": "5035",
        "Branch": "Fire Station Curchorem",
        "created": "22-12-2025 05:30:01",
        "lastUpdated": "22-12-2025 05:30:01"
      }
    },
    {
      "type": "Feature",
      "geometry": {
        "type": "LineString",
        "coordinates": [
          [
            74.1034666,
            15.260435
          ]
        ]
      },
      "properties": {
        "Vehicle_No": "GA 07 G 7557-CUR(WATER TENDER)",
        "Vehicle_Name": "5035",
        "Branch": "Fire Station Curchorem",
        "created": "22-12-2025 05:30:03",
        "lastUpdated": "22-12-2025 05:30:03"
      }
    },
    {
      "type": "Feature",
      "geometry": {
        "type": "LineString",
        "coordinates": [
          [
            73.99108,
            15.1454483
          ]
        ]
      },
      "properties": {
        "Vehicle_No": "GA 07 G 7667-CUR(WATER BOUSER)",
        "Vehicle_Name": "5035",
        "Branch": "Fire Station Curchorem",
        "created": "22-12-2025 05:30:32",
        "lastUpdated": "22-12-2025 05:30:32"
      }
    },
    {
      "type": "Feature",
      "geometry": {
        "type": "LineString",
        "coordinates": [
          [
            73.972445,
            15.46321
          ],
          [
            73.97321,
            15.4633883
          ],
          [
            73.97255,
            15.463075
          ]
        ]
      },
      "properties": {
        "Vehicle_No": "GA 07 G 4989-KUN(WATER TENDER)",
        "Vehicle_Name": "G-100",
        "Branch": "Fire Station Kundaim",
        "created": "22-12-2025 05:29:20",
        "lastUpdated": "22-12-2025 06:10:21"
      }
    },
    {
      "type": "Feature",
      "geometry": {
        "type": "LineString",
        "coordinates": [
          [
            73.7939778,
            15.53307
          ],
          [
            73.7939967,
            15.5329861
          ]
        ]
      },
      "properties": {
        "Vehicle_No": "GA 07 G 2242-PIL(WATER TENDER)",
        "Vehicle_Name": "5026",
        "Branch": "Fire Station Pilerne",
        "created": "22-12-2025 05:29:03",
        "lastUpdated": "22-12-2025 05:31:01"
      }
    },
    {
      "type": "Feature",
      "geometry": {
        "type": "LineString",
        "coordinates": [
          [
            73.82657,
            15.603685
          ]
        ]
      },
      "properties": {
        "Vehicle_No": "GA 07 G 0681-MAP(QUICK RESPONSE)",
        "Vehicle_Name": "AT 5036A-4G",
        "Branch": "Fire Station Mapusa",
        "created": "22-12-2025 05:30:34",
        "lastUpdated": "22-12-2025 05:30:34"
      }
    },
    {
      "type": "Feature",
      "geometry": {
        "type": "LineString",
        "coordinates": [
          [
            73.7974239,
            15.7164939
          ]
        ]
      },
      "properties": {
        "Vehicle_No": "GA 07 G 0307-PER(QUICK RESPONSE)",
        "Vehicle_Name": "AT5032-4G",
        "Branch": "Fire Station Pernem",
        "created": "23-10-2025 15:19:09",
        "lastUpdated": "23-10-2025 15:19:09"
      }
    },
    {
      "type": "Feature",
      "geometry": {
        "type": "LineString",
        "coordinates": [
          [
            73.7975283,
            15.7164322
          ]
        ]
      },
      "properties": {
        "Vehicle_No": "GA 07 G 2101-PER(MS WATER TENDER)",
        "Vehicle_Name": "AT5032-4G",
        "Branch": "Fire Station Pernem",
        "created": "22-12-2025 05:28:39",
        "lastUpdated": "22-12-2025 05:28:39"
      }
    },
    {
      "type": "Feature",
      "geometry": {
        "type": "LineString",
        "coordinates": [
          [
            73.7973656,
            15.7167
          ]
        ]
      },
      "properties": {
        "Vehicle_No": "GA 07 G 4600-PER(MINI RESCUE TENDER)",
        "Vehicle_Name": "AT 5032-4G",
        "Branch": "Fire Station Pernem",
        "created": "22-12-2025 05:29:24",
        "lastUpdated": "22-12-2025 05:29:24"
      }
    },
    {
      "type": "Feature",
      "geometry": {
        "type": "LineString",
        "coordinates": [
          [
            73.8297583,
            15.4875789
          ],
          [
            73.8296833,
            15.48774
          ],
          [
            73.8290233,
            15.4876344
          ],
          [
            73.828815,
            15.4874517
          ],
          [
            73.825965,
            15.4877478
          ],
          [
            73.8218922,
            15.4891561
          ],
          [
            73.821845,
            15.4929028
          ],
          [
            73.8204522,
            15.4915933
          ],
          [
            73.817635,
            15.48675
          ],
          [
            73.8173617,
            15.4869717
          ]
        ]
      },
      "properties": {
        "Vehicle_No": "GA 07 G 7272-PNJ(WATER TENDER)",
        "Vehicle_Name": "AT-5032-4G",
        "Branch": "Fire Station Panaji",
        "created": "22-12-2025 05:29:21",
        "lastUpdated": "22-12-2025 05:42:15"
      }
    },
    {
      "type": "Feature",
      "geometry": {
        "type": "LineString",
        "coordinates": [
          [
            74.0209933,
            15.1862178
          ]
        ]
      },
      "properties": {
        "Vehicle_No": "GA07G2384- Cuncolim",
        "Vehicle_Name": "AT 5032-4G",
        "Branch": "Fire Station Cuncolim",
        "created": "22-12-2025 05:28:38",
        "lastUpdated": "22-12-2025 05:28:38"
      }
    },
    {
      "type": "Feature",
      "geometry": {
        "type": "LineString",
        "coordinates": [
          [
            73.7975417,
            15.7165067
          ]
        ]
      },
      "properties": {
        "Vehicle_No": "GA07G2507 - Mid Size (Water Tender)",
        "Vehicle_Name": "5035",
        "Branch": "Fire Station Pernem",
        "created": "22-12-2025 05:29:46",
        "lastUpdated": "22-12-2025 05:29:46"
      }
    },
    {
      "type": "Feature",
      "geometry": {
        "type": "LineString",
        "coordinates": [
          [
            74.13868,
            15.530985
          ]
        ]
      },
      "properties": {
        "Vehicle_No": "GA07G2505 - Mid Size (Water Tender)",
        "Vehicle_Name": "5035",
        "Branch": "Fire Station Valpoi",
        "created": "22-12-2025 05:30:26",
        "lastUpdated": "22-12-2025 05:30:26"
      }
    },
    {
      "type": "Feature",
      "geometry": {
        "type": "LineString",
        "coordinates": [
          [
            73.94677,
            15.5896233
          ]
        ]
      },
      "properties": {
        "Vehicle_No": "GA07G2504 - Mid Size (Water Tender)",
        "Vehicle_Name": "5035",
        "Branch": "Fire Station Bicholim",
        "created": "22-12-2025 05:30:11",
        "lastUpdated": "22-12-2025 05:30:11"
      }
    },
    {
      "type": "Feature",
      "geometry": {
        "type": "LineString",
        "coordinates": [
          [
            73.8086833,
            15.5900533
          ]
        ]
      },
      "properties": {
        "Vehicle_No": "GA07G2503-Mid Size (Water Tender)",
        "Vehicle_Name": "5035",
        "Branch": "Fire Station Mapusa",
        "created": "22-12-2025 05:29:43",
        "lastUpdated": "22-12-2025 05:29:43"
      }
    },
    {
      "type": "Feature",
      "geometry": {
        "type": "LineString",
        "coordinates": [
          [
            73.817025,
            15.4871
          ]
        ]
      },
      "properties": {
        "Vehicle_No": "GA07G2502 - Mid Size (Water Tender)",
        "Vehicle_Name": "5035",
        "Branch": "Fire Force Headquarters",
        "created": "22-12-2025 05:30:18",
        "lastUpdated": "22-12-2025 05:30:18"
      }
    }
  ]
}