{"type":"FeatureCollection","metadata":{"timestamp":"2026-01-03T06:24:57.334Z","source":"Directorate of Fire Emergency Services, Govt. of Goa","count":52},"features":[{"type":"Feature","geometry":{"type":"Point","coordinates":[73.794165,15.5329167]},"properties":{"Vehicle_Name":"4G","Company":"Directorate of Fire Emergency Services","Temperature":"--","heartbeat":"no","GPS":"ON","mcc":"404","cellid":"NA","lac":"","Vehicle_No":"GA 07 G 0680-PIL(QUICK RESPONSE VEHICLE)","Door1":"--","elock":"--","Door4":"--","Branch":"Fire Station Pilerne","Vehicletype":"Truck","Door2":"--","Door3":"--","course":"","GPSActualTime":"03-01-2026 11:54:31","Datetime":"03-01-2026 11:54:36","Status":"STOP","DeviceModel":"L400","Speed":"0","AC":"--","mnc":"90","Imeino":"864180052940132","gps_hdop":"NA","Odometer":"10314","POI":"At Fire Station Pilerne","Driver_Middle_Name":"--","Immobilize_State":"--","IGN":"OFF","satellite_count":0,"Driver_First_Name":"--","Angle":"0","Ibutton/RFID":"","SOS":"--","Fuel":[],"battery_percentage":"0","ExternalVolt":"--","Driver_Last_Name":"--","Power":"ON","username":"cnt-fire.goa@nic.in","Location":"At Fire Station Pilerne","Altitude":"0"}},{"type":"Feature","geometry":{"type":"Point","coordinates":[73.914108,15.500283]},"properties":{"Vehicle_Name":"TS101","Company":"Directorate of Fire Emergency Services","Temperature":"--","heartbeat":"no","GPS":"ON","mcc":"--","cellid":"NA","lac":"","Vehicle_No":"GA07G2506 - Mid Size (Water Tender)","Door1":"--","elock":"--","Door4":"--","Branch":"Fire Station Old Goa","Vehicletype":"Truck","Door2":"--","Door3":"--","course":"","GPSActualTime":"03-01-2026 11:54:04","Datetime":"03-01-2026 11:54:07","Status":"STOP","DeviceModel":"TS101","Speed":"0","AC":"--","mnc":"--","Imeino":"220717923","gps_hdop":"NA","Odometer":"0","POI":"At Fire Station Old Goa","Driver_Middle_Name":"--","Immobilize_State":"--","IGN":"OFF","satellite_count":16,"Driver_First_Name":"--","Angle":"251","Ibutton/RFID":"","SOS":"--","Fuel":[],"battery_percentage":"0","ExternalVolt":"12.62","Driver_Last_Name":"--","Power":"ON","username":"cnt-fire.goa@nic.in","Location":"At Fire Station Old Goa","Altitude":"0"}},{"type":"Feature","geometry":{"type":"Point","coordinates":[73.829269,15.523028]},"properties":{"Vehicle_Name":"TS101","Company":"Directorate of Fire Emergency Services","Temperature":"--","heartbeat":"no","GPS":"ON","mcc":"--","cellid":"NA","lac":"","Vehicle_No":"GA 07 G 5115-POR(MINI WATER TENDER)","Door1":"--","elock":"--","Door4":"--","Branch":"Fire Station Porvorim","Vehicletype":"Truck","Door2":"--","Door3":"--","course":"","GPSActualTime":"03-01-2026 11:54:02","Datetime":"03-01-2026 11:54:10","Status":"STOP","DeviceModel":"TS101","Speed":"0","AC":"--","mnc":"--","Imeino":"220718761","gps_hdop":"NA","Odometer":"0","POI":"At Porvorim Fire Station","Driver_Middle_Name":"--","Immobilize_State":"--","IGN":"OFF","satellite_count":0,"Driver_First_Name":"--","Angle":"284","Ibutton/RFID":"","SOS":"--","Fuel":[],"battery_percentage":"0","ExternalVolt":"12.64","Driver_Last_Name":"--","Power":"ON","username":"cnt-fire.goa@nic.in","Location":"At Porvorim Fire Station","Altitude":"0"}},{"type":"Feature","geometry":{"type":"Point","coordinates":[73.970596,15.269457]},"properties":{"Vehicle_Name":"TS101","Company":"Directorate of Fire Emergency Services","Temperature":"--","heartbeat":"no","GPS":"ON","mcc":"--","cellid":"NA","lac":"","Vehicle_No":"GA 07 G 0350-MRG(WATER TENDER)","Door1":"--","elock":"--","Door4":"--","Branch":"Fire Station Margao","Vehicletype":"Truck","Door2":"--","Door3":"--","course":"","GPSActualTime":"03-01-2026 11:54:33","Datetime":"03-01-2026 11:54:39","Status":"STOP","DeviceModel":"TS101","Speed":"0","AC":"--","mnc":"--","Imeino":"220718397","gps_hdop":"NA","Odometer":"0","POI":"At Fire Station Margoa","Driver_Middle_Name":"--","Immobilize_State":"--","IGN":"OFF","satellite_count":22,"Driver_First_Name":"--","Angle":"200","Ibutton/RFID":"","SOS":"--","Fuel":[],"battery_percentage":"0","ExternalVolt":"25.01","Driver_Last_Name":"--","Power":"ON","username":"cnt-fire.goa@nic.in","Location":"At Fire Station Margoa","Altitude":"0"}},{"type":"Feature","geometry":{"type":"Point","coordinates":[73.808784,15.589892]},"properties":{"Vehicle_Name":"TS101","Company":"Directorate of Fire Emergency Services","Temperature":"--","heartbeat":"no","GPS":"ON","mcc":"--","cellid":"NA","lac":"","Vehicle_No":"GA 07 G 2900-MAP(MINI RESCUE TENDER)","Door1":"--","elock":"--","Door4":"--","Branch":"Fire Station Mapusa","Vehicletype":"Truck","Door2":"--","Door3":"--","course":"","GPSActualTime":"03-01-2026 11:54:04","Datetime":"03-01-2026 11:54:08","Status":"STOP","DeviceModel":"TS101","Speed":"0","AC":"--","mnc":"--","Imeino":"220717697","gps_hdop":"NA","Odometer":"0","POI":"At Fire Station Mapusa","Driver_Middle_Name":"--","Immobilize_State":"--","IGN":"OFF","satellite_count":17,"Driver_First_Name":"--","Angle":"258","Ibutton/RFID":"","SOS":"--","Fuel":[],"battery_percentage":"0","ExternalVolt":"12.59","Driver_Last_Name":"--","Power":"ON","username":"cnt-fire.goa@nic.in","Location":"At Fire Station Mapusa","Altitude":"0"}},{"type":"Feature","geometry":{"type":"Point","coordinates":[73.817299,15.487505]},"properties":{"Vehicle_Name":"TS101","Company":"Directorate of Fire Emergency Services","Temperature":"--","heartbeat":"no","GPS":"ON","mcc":"--","cellid":"NA","lac":"","Vehicle_No":"GA 07 G 7600-FFHQ(WATER BOUSER)","Door1":"--","elock":"--","Door4":"--","Branch":"Fire Force Headquarters","Vehicletype":"Truck","Door2":"--","Door3":"--","course":"","GPSActualTime":"03-01-2026 11:51:58","Datetime":"03-01-2026 11:52:01","Status":"STOP","DeviceModel":"TS101","Speed":"0","AC":"--","mnc":"--","Imeino":"220718077","gps_hdop":"NA","Odometer":"0","POI":"0.31 km from Fire Station panaji","Driver_Middle_Name":"--","Immobilize_State":"--","IGN":"OFF","satellite_count":15,"Driver_First_Name":"--","Angle":"348","Ibutton/RFID":"","SOS":"--","Fuel":[],"battery_percentage":"0","ExternalVolt":"25.36","Driver_Last_Name":"--","Power":"ON","username":"cnt-fire.goa@nic.in","Location":"Goa College of Home Science, Dayanand Bandodkar Road, Opposite Parade Ground Campal,, Panaji, Goa (SE)","Altitude":"0"}},{"type":"Feature","geometry":{"type":"Point","coordinates":[73.817299,15.4874]},"properties":{"Vehicle_Name":"TS101","Company":"Directorate of Fire Emergency Services","Temperature":"--","heartbeat":"no","GPS":"ON","mcc":"--","cellid":"NA","lac":"","Vehicle_No":"GA 07 G 2002-FFHQ(TURN TABLE LADDER)","Door1":"--","elock":"--","Door4":"--","Branch":"Fire Force Headquarters","Vehicletype":"Truck","Door2":"--","Door3":"--","course":"","GPSActualTime":"03-01-2026 11:52:59","Datetime":"03-01-2026 11:53:07","Status":"STOP","DeviceModel":"TS101","Speed":"0","AC":"--","mnc":"--","Imeino":"220718145","gps_hdop":"NA","Odometer":"0","POI":"0.3 km from Fire Station panaji","Driver_Middle_Name":"--","Immobilize_State":"--","IGN":"OFF","satellite_count":16,"Driver_First_Name":"--","Angle":"177","Ibutton/RFID":"","SOS":"--","Fuel":[],"battery_percentage":"0","ExternalVolt":"25.17","Driver_Last_Name":"--","Power":"ON","username":"cnt-fire.goa@nic.in","Location":"Caculo Mall, 16 Shanta, St Inez Rd, Caculo Enclave, Santa Inez, Panaji, Goa (NW)","Altitude":"0"}},{"type":"Feature","geometry":{"type":"Point","coordinates":[73.817024,15.486918]},"properties":{"Vehicle_Name":"TS101","Company":"Directorate of Fire Emergency Services","Temperature":"--","heartbeat":"no","GPS":"ON","mcc":"--","cellid":"NA","lac":"","Vehicle_No":"GA 07 G 7101-FFHQ(WATER TENDER)","Door1":"--","elock":"--","Door4":"--","Branch":"Fire Force Headquarters","Vehicletype":"Truck","Door2":"--","Door3":"--","course":"","GPSActualTime":"03-01-2026 11:51:58","Datetime":"03-01-2026 11:52:01","Status":"STOP","DeviceModel":"TS101","Speed":"0","AC":"--","mnc":"--","Imeino":"220717600","gps_hdop":"NA","Odometer":"0","POI":"0.24 km from Fire Station panaji","Driver_Middle_Name":"--","Immobilize_State":"--","IGN":"OFF","satellite_count":16,"Driver_First_Name":"--","Angle":"305","Ibutton/RFID":"","SOS":"--","Fuel":[],"battery_percentage":"0","ExternalVolt":"12.73","Driver_Last_Name":"--","Power":"ON","username":"cnt-fire.goa@nic.in","Location":"Caculo Mall, 16 Shanta, St Inez Rd, Caculo Enclave, Santa Inez, Panaji, Goa (NW)","Altitude":"0"}},{"type":"Feature","geometry":{"type":"Point","coordinates":[73.817368,15.487143]},"properties":{"Vehicle_Name":"TS101","Company":"Directorate of Fire Emergency Services","Temperature":"--","heartbeat":"no","GPS":"ON","mcc":"--","cellid":"NA","lac":"","Vehicle_No":"GA 07 G 7677-FFHQ(EMERGENCY RESCUE)","Door1":"--","elock":"--","Door4":"--","Branch":"Fire Force Headquarters","Vehicletype":"Truck","Door2":"--","Door3":"--","course":"","GPSActualTime":"03-01-2026 11:53:18","Datetime":"03-01-2026 11:53:25","Status":"STOP","DeviceModel":"TS101","Speed":"0","AC":"--","mnc":"--","Imeino":"220718713","gps_hdop":"NA","Odometer":"0","POI":"0.28 km from Fire Station panaji","Driver_Middle_Name":"--","Immobilize_State":"--","IGN":"OFF","satellite_count":7,"Driver_First_Name":"--","Angle":"112","Ibutton/RFID":"","SOS":"--","Fuel":[],"battery_percentage":"0","ExternalVolt":"12.09","Driver_Last_Name":"--","Power":"ON","username":"cnt-fire.goa@nic.in","Location":"Caculo Mall, 16 Shanta, St Inez Rd, Caculo Enclave, Santa Inez, Panaji, Goa (NW)","Altitude":"0"}},{"type":"Feature","geometry":{"type":"Point","coordinates":[73.817245,15.487177]},"properties":{"Vehicle_Name":"TS101","Company":"Directorate of Fire Emergency Services","Temperature":"--","heartbeat":"no","GPS":"ON","mcc":"--","cellid":"NA","lac":"","Vehicle_No":"GA 07 G 1121-PNJ(EMERGENCY RESCUE)","Door1":"--","elock":"--","Door4":"--","Branch":"Fire Station Panaji","Vehicletype":"Truck","Door2":"--","Door3":"--","course":"","GPSActualTime":"03-01-2026 11:52:33","Datetime":"03-01-2026 11:52:36","Status":"STOP","DeviceModel":"TS101","Speed":"0","AC":"--","mnc":"--","Imeino":"220718788","gps_hdop":"NA","Odometer":"0","POI":"0.27 km from Fire Station panaji","Driver_Middle_Name":"--","Immobilize_State":"--","IGN":"OFF","satellite_count":17,"Driver_First_Name":"--","Angle":"21","Ibutton/RFID":"","SOS":"--","Fuel":[],"battery_percentage":"0","ExternalVolt":"12.63","Driver_Last_Name":"--","Power":"ON","username":"cnt-fire.goa@nic.in","Location":"Caculo Mall, 16 Shanta, St Inez Rd, Caculo Enclave, Santa Inez, Panaji, Goa (NW)","Altitude":"0"}},{"type":"Feature","geometry":{"type":"Point","coordinates":[73.826019,15.500498]},"properties":{"Vehicle_Name":"TS101","Company":"Directorate of Fire Emergency Services","Temperature":"--","heartbeat":"no","GPS":"ON","mcc":"--","cellid":"NA","lac":"","Vehicle_No":"GA 07 G 1571-FFHQ(QUICK RESPONSE)","Door1":"--","elock":"--","Door4":"--","Branch":"Fire Force Headquarters","Vehicletype":"Truck","Door2":"--","Door3":"--","course":"","GPSActualTime":"03-01-2026 11:53:20","Datetime":"03-01-2026 11:53:23","Status":"STOP","DeviceModel":"TS101","Speed":"0","AC":"--","mnc":"--","Imeino":"220717577","gps_hdop":"NA","Odometer":"0","POI":"2.03 km from Fire Station panaji","Driver_Middle_Name":"--","Immobilize_State":"--","IGN":"OFF","satellite_count":16,"Driver_First_Name":"--","Angle":"101","Ibutton/RFID":"","SOS":"--","Fuel":[],"battery_percentage":"0","ExternalVolt":"12.30","Driver_Last_Name":"--","Power":"ON","username":"cnt-fire.goa@nic.in","Location":"Mahalakshmi Building, Dr TB Cunha Rd, Panaji, Goa (SE)","Altitude":"0"}},{"type":"Feature","geometry":{"type":"Point","coordinates":[73.808716,15.58988]},"properties":{"Vehicle_Name":"TS101","Company":"Directorate of Fire Emergency Services","Temperature":"--","heartbeat":"no","GPS":"ON","mcc":"--","cellid":"NA","lac":"","Vehicle_No":"GA 07 G 8101-MAP(WATER TENDER)","Door1":"--","elock":"--","Door4":"--","Branch":"Fire Station Mapusa","Vehicletype":"Truck","Door2":"--","Door3":"--","course":"","GPSActualTime":"03-01-2026 11:53:15","Datetime":"03-01-2026 11:53:19","Status":"STOP","DeviceModel":"TS101","Speed":"0","AC":"--","mnc":"--","Imeino":"220718796","gps_hdop":"NA","Odometer":"0","POI":"At Fire Station Mapusa","Driver_Middle_Name":"--","Immobilize_State":"--","IGN":"OFF","satellite_count":17,"Driver_First_Name":"--","Angle":"296","Ibutton/RFID":"","SOS":"--","Fuel":[],"battery_percentage":"0","ExternalVolt":"12.78","Driver_Last_Name":"--","Power":"ON","username":"cnt-fire.goa@nic.in","Location":"At Fire Station Mapusa","Altitude":"0"}},{"type":"Feature","geometry":{"type":"Point","coordinates":[73.9701083,15.2694666]},"properties":{"Vehicle_Name":"5035","Company":"Directorate of Fire Emergency Services","Temperature":"--","heartbeat":"no","GPS":"ON","mcc":"404","cellid":"NA","lac":"","Vehicle_No":"GA 07 G 2317-MRG(EMERGENCY RESCUE TENDER)","Door1":"--","elock":"--","Door4":"--","Branch":"Fire Station Margao","Vehicletype":"Truck","Door2":"--","Door3":"--","course":"","GPSActualTime":"03-01-2026 11:53:34","Datetime":"03-01-2026 11:53:58","Status":"STOP","DeviceModel":"LC 100","Speed":"2","AC":"--","mnc":"90","Imeino":"863221045426044","gps_hdop":"NA","Odometer":"9121","POI":"At Fire Station Margoa","Driver_Middle_Name":"--","Immobilize_State":"--","IGN":"OFF","satellite_count":0,"Driver_First_Name":"--","Angle":"0","Ibutton/RFID":"","SOS":"--","Fuel":[],"battery_percentage":"0","ExternalVolt":"--","Driver_Last_Name":"--","Power":"ON","username":"cnt-fire.goa@nic.in","Location":"At Fire Station Margoa","Altitude":"0"}},{"type":"Feature","geometry":{"type":"Point","coordinates":[73.851335,15.3887599]},"properties":{"Vehicle_Name":"5035","Company":"Directorate of Fire Emergency Services","Temperature":"--","heartbeat":"no","GPS":"ON","mcc":"404","cellid":"NA","lac":"","Vehicle_No":"GA 07 G 1570-VAS(QUICK RESPONSE FIRE TENDER)","Door1":"--","elock":"--","Door4":"--","Branch":"Fire Station Vasco","Vehicletype":"Truck","Door2":"--","Door3":"--","course":"","GPSActualTime":"03-01-2026 11:53:56","Datetime":"03-01-2026 11:54:07","Status":"STOP","DeviceModel":"LC 100","Speed":"0","AC":"--","mnc":"90","Imeino":"863221045426499","gps_hdop":"NA","Odometer":"21942","POI":"At Fire Station Vasco","Driver_Middle_Name":"--","Immobilize_State":"--","IGN":"OFF","satellite_count":0,"Driver_First_Name":"--","Angle":"261","Ibutton/RFID":"","SOS":"--","Fuel":[],"battery_percentage":"0","ExternalVolt":"--","Driver_Last_Name":"--","Power":"ON","username":"cnt-fire.goa@nic.in","Location":"At Fire Station Vasco","Altitude":"0"}},{"type":"Feature","geometry":{"type":"Point","coordinates":[73.8512533,15.388865]},"properties":{"Vehicle_Name":"5035","Company":"Directorate of Fire Emergency Services","Temperature":"--","heartbeat":"no","GPS":"ON","mcc":"404","cellid":"NA","lac":"","Vehicle_No":"GA 07 G 4101-VAS(MS WATER TENDER)","Door1":"--","elock":"--","Door4":"--","Branch":"Fire Station Vasco","Vehicletype":"Truck","Door2":"--","Door3":"--","course":"","GPSActualTime":"03-01-2026 11:53:54","Datetime":"03-01-2026 11:54:04","Status":"STOP","DeviceModel":"LC 100","Speed":"0","AC":"--","mnc":"90","Imeino":"863221045311949","gps_hdop":"NA","Odometer":"10810","POI":"At Fire Station Vasco","Driver_Middle_Name":"--","Immobilize_State":"--","IGN":"OFF","satellite_count":0,"Driver_First_Name":"--","Angle":"27","Ibutton/RFID":"","SOS":"--","Fuel":[],"battery_percentage":"0","ExternalVolt":"--","Driver_Last_Name":"--","Power":"ON","username":"cnt-fire.goa@nic.in","Location":"At Fire Station Vasco","Altitude":"0"}},{"type":"Feature","geometry":{"type":"Point","coordinates":[73.8512783,15.3888367]},"properties":{"Vehicle_Name":"4G","Company":"Directorate of Fire Emergency Services","Temperature":"--","heartbeat":"no","GPS":"ON","mcc":"404","cellid":"NA","lac":"","Vehicle_No":"GA 07 G 0819-VAS(WATER/FOAM TENDER)","Door1":"--","elock":"--","Door4":"--","Branch":"Fire Station Vasco","Vehicletype":"Truck","Door2":"--","Door3":"--","course":"","GPSActualTime":"03-01-2026 11:54:24","Datetime":"03-01-2026 11:54:29","Status":"IDLE","DeviceModel":"L400","Speed":"0","AC":"--","mnc":"90","Imeino":"864180052940207","gps_hdop":"NA","Odometer":"5444","POI":"At Fire Station Vasco","Driver_Middle_Name":"--","Immobilize_State":"--","IGN":"ON","satellite_count":0,"Driver_First_Name":"--","Angle":"0","Ibutton/RFID":"","SOS":"--","Fuel":[],"battery_percentage":"0","ExternalVolt":"--","Driver_Last_Name":"--","Power":"ON","username":"cnt-fire.goa@nic.in","Location":"At Fire Station Vasco","Altitude":"0"}},{"type":"Feature","geometry":{"type":"Point","coordinates":[73.9700283,15.2695416]},"properties":{"Vehicle_Name":"5035","Company":"Directorate of Fire Emergency Services","Temperature":"--","heartbeat":"no","GPS":"ON","mcc":"404","cellid":"NA","lac":"","Vehicle_No":"GA 07 G 7100-MRG(WATER BOUSER)","Door1":"--","elock":"--","Door4":"--","Branch":"Fire Station Margao","Vehicletype":"Truck","Door2":"--","Door3":"--","course":"","GPSActualTime":"03-01-2026 11:53:48","Datetime":"03-01-2026 11:54:17","Status":"STOP","DeviceModel":"LC 100","Speed":"0","AC":"--","mnc":"90","Imeino":"863221045426432","gps_hdop":"NA","Odometer":"6895","POI":"At Fire Station Margoa","Driver_Middle_Name":"--","Immobilize_State":"--","IGN":"OFF","satellite_count":0,"Driver_First_Name":"--","Angle":"273","Ibutton/RFID":"","SOS":"--","Fuel":[],"battery_percentage":"0","ExternalVolt":"--","Driver_Last_Name":"--","Power":"ON","username":"cnt-fire.goa@nic.in","Location":"At Fire Station Margoa","Altitude":"0"}},{"type":"Feature","geometry":{"type":"Point","coordinates":[73.9705966,15.2693333]},"properties":{"Vehicle_Name":"5035","Company":"Directorate of Fire Emergency Services","Temperature":"--","heartbeat":"no","GPS":"ON","mcc":"404","cellid":"NA","lac":"","Vehicle_No":"GA 07 G 1568-MRG(QUICK RESPONSE )","Door1":"--","elock":"--","Door4":"--","Branch":"Fire Station Margao","Vehicletype":"Truck","Door2":"--","Door3":"--","course":"","GPSActualTime":"03-01-2026 11:53:35","Datetime":"03-01-2026 11:53:43","Status":"STOP","DeviceModel":"LC 100","Speed":"0","AC":"--","mnc":"90","Imeino":"863221045426457","gps_hdop":"NA","Odometer":"1274","POI":"At Fire Station Margoa","Driver_Middle_Name":"--","Immobilize_State":"--","IGN":"OFF","satellite_count":0,"Driver_First_Name":"--","Angle":"120","Ibutton/RFID":"","SOS":"--","Fuel":[],"battery_percentage":"0","ExternalVolt":"--","Driver_Last_Name":"--","Power":"ON","username":"cnt-fire.goa@nic.in","Location":"At Fire Station Margoa","Altitude":"0"}},{"type":"Feature","geometry":{"type":"Point","coordinates":[73.9700433,15.2693366]},"properties":{"Vehicle_Name":"5035","Company":"Directorate of Fire Emergency Services","Temperature":"--","heartbeat":"no","GPS":"ON","mcc":"404","cellid":"NA","lac":"","Vehicle_No":"GA 07 G 6101-MRG(WATER TENDER)","Door1":"--","elock":"--","Door4":"--","Branch":"Fire Station Margao","Vehicletype":"Truck","Door2":"--","Door3":"--","course":"","GPSActualTime":"03-01-2026 11:53:57","Datetime":"03-01-2026 11:54:24","Status":"STOP","DeviceModel":"LC 100","Speed":"0","AC":"--","mnc":"90","Imeino":"868805061625763","gps_hdop":"NA","Odometer":"19096","POI":"At Fire Station Margoa","Driver_Middle_Name":"--","Immobilize_State":"--","IGN":"OFF","satellite_count":0,"Driver_First_Name":"--","Angle":"270","Ibutton/RFID":"","SOS":"--","Fuel":[],"battery_percentage":"0","ExternalVolt":"--","Driver_Last_Name":"--","Power":"ON","username":"cnt-fire.goa@nic.in","Location":"At Fire Station Margoa","Altitude":"0"}},{"type":"Feature","geometry":{"type":"Point","coordinates":[73.9701416,15.2696533]},"properties":{"Vehicle_Name":"5035","Company":"Directorate of Fire Emergency Services","Temperature":"--","heartbeat":"no","GPS":"ON","mcc":"404","cellid":"NA","lac":"","Vehicle_No":"GA 07 G 1001-MRG(AERIAL LADDER PLATFORM)","Door1":"--","elock":"--","Door4":"--","Branch":"Fire Station Margao","Vehicletype":"Truck","Door2":"--","Door3":"--","course":"","GPSActualTime":"03-01-2026 11:54:22","Datetime":"03-01-2026 11:54:51","Status":"STOP","DeviceModel":"LC 100","Speed":"0","AC":"--","mnc":"90","Imeino":"863221045426671","gps_hdop":"NA","Odometer":"3221","POI":"At Fire Station Margoa","Driver_Middle_Name":"--","Immobilize_State":"--","IGN":"OFF","satellite_count":0,"Driver_First_Name":"--","Angle":"312","Ibutton/RFID":"","SOS":"--","Fuel":[],"battery_percentage":"0","ExternalVolt":"--","Driver_Last_Name":"--","Power":"ON","username":"cnt-fire.goa@nic.in","Location":"At Fire Station Margoa","Altitude":"0"}},{"type":"Feature","geometry":{"type":"Point","coordinates":[74.0028383,15.4027811]},"properties":{"Vehicle_Name":"5026","Company":"Directorate of Fire Emergency Services","Temperature":"--","heartbeat":"no","GPS":"ON","mcc":"404","cellid":"NA","lac":"","Vehicle_No":"GA 07 G 0820-BIC(WATER TEDNER)","Door1":"--","elock":"--","Door4":"--","Branch":"Fire Station Bicholim","Vehicletype":"Truck","Door2":"--","Door3":"--","course":"","GPSActualTime":"03-01-2026 11:52:25","Datetime":"03-01-2026 11:52:28","Status":"STOP","DeviceModel":"JM01","Speed":"0","AC":"--","mnc":"90","Imeino":"356218602373126","gps_hdop":"NA","Odometer":"0","POI":"At Fire Station Ponda ","Driver_Middle_Name":"--","Immobilize_State":"--","IGN":"OFF","satellite_count":10,"Driver_First_Name":"--","Angle":"0","Ibutton/RFID":"","SOS":"--","Fuel":[],"battery_percentage":0,"ExternalVolt":"614.44","Driver_Last_Name":"--","Power":"ON","username":"cnt-fire.goa@nic.in","Location":"At Fire Station Ponda ","Altitude":"0"}},{"type":"Feature","geometry":{"type":"Point","coordinates":[73.91403,15.5002916]},"properties":{"Vehicle_Name":"5035","Company":"Directorate of Fire Emergency Services","Temperature":"--","heartbeat":"no","GPS":"ON","mcc":"404","cellid":"NA","lac":"","Vehicle_No":"GA 07 G 5101-OLG(MS WATER TENDER)","Door1":"--","elock":"--","Door4":"--","Branch":"Fire Station Old Goa","Vehicletype":"Truck","Door2":"--","Door3":"--","course":"","GPSActualTime":"03-01-2026 11:54:35","Datetime":"03-01-2026 11:54:43","Status":"STOP","DeviceModel":"LC 100","Speed":"0","AC":"--","mnc":"90","Imeino":"863221045426754","gps_hdop":"NA","Odometer":"19359","POI":"At Fire Station Old Goa","Driver_Middle_Name":"--","Immobilize_State":"--","IGN":"OFF","satellite_count":0,"Driver_First_Name":"--","Angle":"0","Ibutton/RFID":"","SOS":"--","Fuel":[],"battery_percentage":"0","ExternalVolt":"--","Driver_Last_Name":"--","Power":"ON","username":"cnt-fire.goa@nic.in","Location":"At Fire Station Old Goa","Altitude":"0"}},{"type":"Feature","geometry":{"type":"Point","coordinates":[73.9462816,15.5895733]},"properties":{"Vehicle_Name":"5035","Company":"Directorate of Fire Emergency Services","Temperature":"--","heartbeat":"no","GPS":"OFF","mcc":"404","cellid":"NA","lac":"","Vehicle_No":"GA 07 G 3101-BIC(MS WATER TENDER)","Door1":"--","elock":"--","Door4":"--","Branch":"Fire Station Bicholim","Vehicletype":"Truck","Door2":"--","Door3":"--","course":"","GPSActualTime":"03-01-2026 11:53:29","Datetime":"03-01-2026 11:53:35","Status":"STOP","DeviceModel":"LC 100","Speed":"0","AC":"--","mnc":"90","Imeino":"863221045373543","gps_hdop":"NA","Odometer":"35986","POI":"At Fire Station Bicholim ","Driver_Middle_Name":"--","Immobilize_State":"--","IGN":"OFF","satellite_count":0,"Driver_First_Name":"--","Angle":"225","Ibutton/RFID":"","SOS":"--","Fuel":[],"battery_percentage":"0","ExternalVolt":"--","Driver_Last_Name":"--","Power":"ON","username":"cnt-fire.goa@nic.in","Location":"At Fire Station Bicholim ","Altitude":"0"}},{"type":"Feature","geometry":{"type":"Point","coordinates":[74.0469966,15.5479633]},"properties":{"Vehicle_Name":"5035","Company":"Directorate of Fire Emergency Services","Temperature":"--","heartbeat":"no","GPS":"ON","mcc":"404","cellid":"NA","lac":"","Vehicle_No":"GA 07 G 1941-BIC(QUICK RESPONSE)","Door1":"--","elock":"--","Door4":"--","Branch":"Fire Station Bicholim","Vehicletype":"Truck","Door2":"--","Door3":"--","course":"","GPSActualTime":"03-01-2026 11:54:41","Datetime":"03-01-2026 11:54:48","Status":"RUNNING","DeviceModel":"LC 100","Speed":"36","AC":"--","mnc":"90","Imeino":"868805061620004","gps_hdop":"NA","Odometer":"25489","POI":"--","Driver_Middle_Name":"--","Immobilize_State":"--","IGN":"ON","satellite_count":0,"Driver_First_Name":"--","Angle":"282","Ibutton/RFID":"","SOS":"--","Fuel":[],"battery_percentage":"0","ExternalVolt":"--","Driver_Last_Name":"--","Power":"ON","username":"cnt-fire.goa@nic.in","Location":"Bharat Petroleum, Petrol Pump -S N Burye (A/C Onda), ONDA MAPUSA, NORTH GOA, Goa (NW)","Altitude":"0"}},{"type":"Feature","geometry":{"type":"Point","coordinates":[73.8478433,15.3892083]},"properties":{"Vehicle_Name":"5035","Company":"Directorate of Fire Emergency Services","Temperature":"--","heartbeat":"no","GPS":"ON","mcc":"404","cellid":"NA","lac":"","Vehicle_No":"GA 07 G 2319-VAS (EMERGENCY RESCUE TENDER)","Door1":"--","elock":"--","Door4":"--","Branch":"Fire Station Vasco","Vehicletype":"Truck","Door2":"--","Door3":"--","course":"","GPSActualTime":"03-01-2026 11:54:01","Datetime":"03-01-2026 11:54:11","Status":"STOP","DeviceModel":"LC 100","Speed":"0","AC":"--","mnc":"90","Imeino":"863221045426127","gps_hdop":"NA","Odometer":"4424","POI":"0.37 km from Fire Station Vasco","Driver_Middle_Name":"--","Immobilize_State":"--","IGN":"OFF","satellite_count":0,"Driver_First_Name":"--","Angle":"0","Ibutton/RFID":"","SOS":"--","Fuel":[],"battery_percentage":"0","ExternalVolt":"--","Driver_Last_Name":"--","Power":"ON","username":"cnt-fire.goa@nic.in","Location":"155/C, near railway bridge, airport road, Alto-dabolim, Dabolim, Goa (SW)","Altitude":"0"}},{"type":"Feature","geometry":{"type":"Point","coordinates":[74.1389166,15.5310816]},"properties":{"Vehicle_Name":"5035","Company":"Directorate of Fire Emergency Services","Temperature":"--","heartbeat":"no","GPS":"ON","mcc":"404","cellid":"NA","lac":"","Vehicle_No":"GA 07 G 3737-VAP(WATER TENDER)","Door1":"--","elock":"--","Door4":"--","Branch":"Fire Station Valpoi","Vehicletype":"Truck","Door2":"--","Door3":"--","course":"","GPSActualTime":"03-01-2026 11:54:15","Datetime":"03-01-2026 11:54:26","Status":"STOP","DeviceModel":"LC 100","Speed":"0","AC":"--","mnc":"90","Imeino":"868805061619626","gps_hdop":"NA","Odometer":"22920","POI":"At Fire Station Valpoi ","Driver_Middle_Name":"--","Immobilize_State":"--","IGN":"OFF","satellite_count":0,"Driver_First_Name":"--","Angle":"0","Ibutton/RFID":"","SOS":"--","Fuel":[],"battery_percentage":"0","ExternalVolt":"--","Driver_Last_Name":"--","Power":"ON","username":"cnt-fire.goa@nic.in","Location":"At Fire Station Valpoi ","Altitude":"0"}},{"type":"Feature","geometry":{"type":"Point","coordinates":[74.0028733,15.4027283]},"properties":{"Vehicle_Name":"5035","Company":"Directorate of Fire Emergency Services","Temperature":"--","heartbeat":"no","GPS":"ON","mcc":"404","cellid":"NA","lac":"","Vehicle_No":"GA 07 G 2318-PND(EMERGENCY RESCUE TENDER)","Door1":"--","elock":"--","Door4":"--","Branch":"Fire Station Ponda","Vehicletype":"Truck","Door2":"--","Door3":"--","course":"","GPSActualTime":"03-01-2026 11:53:55","Datetime":"03-01-2026 11:54:04","Status":"STOP","DeviceModel":"LC 100","Speed":"0","AC":"--","mnc":"90","Imeino":"863221045426390","gps_hdop":"NA","Odometer":"2658","POI":"At Fire Station Ponda ","Driver_Middle_Name":"--","Immobilize_State":"--","IGN":"OFF","satellite_count":0,"Driver_First_Name":"--","Angle":"99","Ibutton/RFID":"","SOS":"--","Fuel":[],"battery_percentage":"0","ExternalVolt":"--","Driver_Last_Name":"--","Power":"ON","username":"cnt-fire.goa@nic.in","Location":"At Fire Station Ponda ","Altitude":"0"}},{"type":"Feature","geometry":{"type":"Point","coordinates":[73.9073083,15.4141016]},"properties":{"Vehicle_Name":"5035","Company":"Directorate of Fire Emergency Services","Temperature":"--","heartbeat":"no","GPS":"ON","mcc":"404","cellid":"NA","lac":"","Vehicle_No":"GA 07 G 2004-PND(QUICK RESPONSE)","Door1":"--","elock":"--","Door4":"--","Branch":"Fire Station Ponda","Vehicletype":"Truck","Door2":"--","Door3":"--","course":"","GPSActualTime":"30-12-2025 13:46:59","Datetime":"30-12-2025 13:47:09","Status":"INACTIVE","DeviceModel":"LC 100","Speed":"0","AC":"--","mnc":"90","Imeino":"863221045426028","gps_hdop":"NA","Odometer":"22209","POI":"--","Driver_Middle_Name":"--","Immobilize_State":"--","IGN":"OFF","satellite_count":0,"Driver_First_Name":"--","Angle":"333","Ibutton/RFID":"","SOS":"--","Fuel":[],"battery_percentage":"0","ExternalVolt":"--","Driver_Last_Name":"--","Power":"ON","username":"cnt-fire.goa@nic.in","Location":"Guru Hotel, Old Ferry Road, Agaçaim, Goa (SE)","Altitude":"0"}},{"type":"Feature","geometry":{"type":"Point","coordinates":[74.0027916,15.4027283]},"properties":{"Vehicle_Name":"5035","Company":"Directorate of Fire Emergency Services","Temperature":"--","heartbeat":"no","GPS":"ON","mcc":"404","cellid":"NA","lac":"","Vehicle_No":"GA 07 G 9101-PND(WATER TENDER)","Door1":"--","elock":"--","Door4":"--","Branch":"Fire Station Ponda","Vehicletype":"Truck","Door2":"--","Door3":"--","course":"","GPSActualTime":"03-01-2026 11:54:21","Datetime":"03-01-2026 11:54:30","Status":"STOP","DeviceModel":"LC 100","Speed":"0","AC":"--","mnc":"90","Imeino":"863221045426143","gps_hdop":"NA","Odometer":"18453","POI":"At Fire Station Ponda ","Driver_Middle_Name":"--","Immobilize_State":"--","IGN":"OFF","satellite_count":0,"Driver_First_Name":"--","Angle":"309","Ibutton/RFID":"","SOS":"--","Fuel":[],"battery_percentage":"0","ExternalVolt":"--","Driver_Last_Name":"--","Power":"ON","username":"cnt-fire.goa@nic.in","Location":"At Fire Station Ponda ","Altitude":"0"}},{"type":"Feature","geometry":{"type":"Point","coordinates":[74.0027433,15.4031233]},"properties":{"Vehicle_Name":"5035","Company":"Directorate of Fire Emergency Services","Temperature":"--","heartbeat":"no","GPS":"ON","mcc":"404","cellid":"NA","lac":"","Vehicle_No":"GA 07 G 9797-PND(WATER BOUSER)","Door1":"--","elock":"--","Door4":"--","Branch":"Fire Station Ponda","Vehicletype":"Truck","Door2":"--","Door3":"--","course":"","GPSActualTime":"03-01-2026 11:53:39","Datetime":"03-01-2026 11:53:44","Status":"STOP","DeviceModel":"LC 100","Speed":"0","AC":"--","mnc":"90","Imeino":"868805061625490","gps_hdop":"NA","Odometer":"10855","POI":"At Fire Station Ponda ","Driver_Middle_Name":"--","Immobilize_State":"--","IGN":"OFF","satellite_count":0,"Driver_First_Name":"--","Angle":"135","Ibutton/RFID":"","SOS":"--","Fuel":[],"battery_percentage":"0","ExternalVolt":"--","Driver_Last_Name":"--","Power":"ON","username":"cnt-fire.goa@nic.in","Location":"At Fire Station Ponda ","Altitude":"0"}},{"type":"Feature","geometry":{"type":"Point","coordinates":[74.0440266,15.0236466]},"properties":{"Vehicle_Name":"5035","Company":"Directorate of Fire Emergency Services","Temperature":"--","heartbeat":"no","GPS":"ON","mcc":"404","cellid":"NA","lac":"","Vehicle_No":"GA 07 G 6363-CAN(WATER TENDER)","Door1":"--","elock":"--","Door4":"--","Branch":"Fire Station Canacona","Vehicletype":"Truck","Door2":"--","Door3":"--","course":"","GPSActualTime":"03-01-2026 11:54:12","Datetime":"03-01-2026 11:54:22","Status":"STOP","DeviceModel":"LC 100","Speed":"0","AC":"--","mnc":"90","Imeino":"868805061810829","gps_hdop":"NA","Odometer":"24736","POI":"--","Driver_Middle_Name":"--","Immobilize_State":"--","IGN":"OFF","satellite_count":0,"Driver_First_Name":"--","Angle":"270","Ibutton/RFID":"","SOS":"--","Fuel":[],"battery_percentage":"0","ExternalVolt":"--","Driver_Last_Name":"--","Power":"ON","username":"cnt-fire.goa@nic.in","Location":"Canacona, The Lalitrajbaga ,Canacona, Canacona, Goa (NE)","Altitude":"0"}},{"type":"Feature","geometry":{"type":"Point","coordinates":[74.044075,15.02371]},"properties":{"Vehicle_Name":"5035","Company":"Directorate of Fire Emergency Services","Temperature":"--","heartbeat":"no","GPS":"ON","mcc":"404","cellid":"NA","lac":"","Vehicle_No":"GA 07 G 1567-CAN(QUICK RESPONSE FT)","Door1":"--","elock":"--","Door4":"--","Branch":"Fire Station Canacona","Vehicletype":"Truck","Door2":"--","Door3":"--","course":"","GPSActualTime":"03-01-2026 11:54:38","Datetime":"03-01-2026 11:54:46","Status":"STOP","DeviceModel":"LC 100","Speed":"0","AC":"--","mnc":"90","Imeino":"868805061619964","gps_hdop":"NA","Odometer":"15732","POI":"--","Driver_Middle_Name":"--","Immobilize_State":"--","IGN":"OFF","satellite_count":0,"Driver_First_Name":"--","Angle":"6","Ibutton/RFID":"","SOS":"--","Fuel":[],"battery_percentage":"0","ExternalVolt":"--","Driver_Last_Name":"--","Power":"ON","username":"cnt-fire.goa@nic.in","Location":"Canacona, The Lalitrajbaga ,Canacona, Canacona, Goa (NE)","Altitude":"0"}},{"type":"Feature","geometry":{"type":"Point","coordinates":[73.9493816,15.357355]},"properties":{"Vehicle_Name":"5035","Company":"Directorate of Fire Emergency Services","Temperature":"--","heartbeat":"no","GPS":"ON","mcc":"404","cellid":"NA","lac":"","Vehicle_No":"GA 07 G 1569-VRN(QUICK RESPONSE)","Door1":"--","elock":"--","Door4":"--","Branch":"Fire Station Verna","Vehicletype":"Truck","Door2":"--","Door3":"--","course":"","GPSActualTime":"03-01-2026 11:54:14","Datetime":"03-01-2026 11:54:22","Status":"STOP","DeviceModel":"LC 100","Speed":"0","AC":"--","mnc":"90","Imeino":"868805061619758","gps_hdop":"NA","Odometer":"21642","POI":"2.02 km from Fire Station Verna","Driver_Middle_Name":"--","Immobilize_State":"--","IGN":"OFF","satellite_count":0,"Driver_First_Name":"--","Angle":"204","Ibutton/RFID":"","SOS":"--","Fuel":[],"battery_percentage":"0","ExternalVolt":"--","Driver_Last_Name":"--","Power":"ON","username":"cnt-fire.goa@nic.in","Location":"Milagros, S-98, Verna Industrial Estate, Verna Industrial Estate, Verna, Goa (SE)","Altitude":"0"}},{"type":"Feature","geometry":{"type":"Point","coordinates":[73.93584,15.3697733]},"properties":{"Vehicle_Name":"5035","Company":"Directorate of Fire Emergency Services","Temperature":"--","heartbeat":"no","GPS":"ON","mcc":"404","cellid":"NA","lac":"","Vehicle_No":"GA 07 G 9909-VRN(ADVANCE MULTI-PURPOSE)","Door1":"--","elock":"--","Door4":"--","Branch":"Fire Station Verna","Vehicletype":"Truck","Door2":"--","Door3":"--","course":"","GPSActualTime":"03-01-2026 11:54:44","Datetime":"03-01-2026 11:54:51","Status":"STOP","DeviceModel":"LC 100","Speed":"0","AC":"--","mnc":"90","Imeino":"863221045372289","gps_hdop":"NA","Odometer":"15444","POI":"At Fire Station Verna","Driver_Middle_Name":"--","Immobilize_State":"--","IGN":"OFF","satellite_count":0,"Driver_First_Name":"--","Angle":"162","Ibutton/RFID":"","SOS":"--","Fuel":[],"battery_percentage":"0","ExternalVolt":"--","Driver_Last_Name":"--","Power":"ON","username":"cnt-fire.goa@nic.in","Location":"At Fire Station Verna","Altitude":"0"}},{"type":"Feature","geometry":{"type":"Point","coordinates":[74.1388583,15.5312833]},"properties":{"Vehicle_Name":"5035","Company":"Directorate of Fire Emergency Services","Temperature":"--","heartbeat":"no","GPS":"ON","mcc":"404","cellid":"NA","lac":"","Vehicle_No":"GA 07 G 1942-VAP(QUICK RESPONSE)","Door1":"--","elock":"--","Door4":"--","Branch":"Fire Station Valpoi","Vehicletype":"Truck","Door2":"--","Door3":"--","course":"","GPSActualTime":"03-01-2026 11:54:39","Datetime":"03-01-2026 11:54:47","Status":"STOP","DeviceModel":"LC 100","Speed":"0","AC":"--","mnc":"90","Imeino":"863221045426697","gps_hdop":"NA","Odometer":"24971","POI":"At Fire Station Valpoi ","Driver_Middle_Name":"--","Immobilize_State":"--","IGN":"OFF","satellite_count":0,"Driver_First_Name":"--","Angle":"153","Ibutton/RFID":"","SOS":"--","Fuel":[],"battery_percentage":"0","ExternalVolt":"--","Driver_Last_Name":"--","Power":"ON","username":"cnt-fire.goa@nic.in","Location":"At Fire Station Valpoi ","Altitude":"0"}},{"type":"Feature","geometry":{"type":"Point","coordinates":[74.1038083,15.2602716]},"properties":{"Vehicle_Name":"5035","Company":"Directorate of Fire Emergency Services","Temperature":"--","heartbeat":"no","GPS":"ON","mcc":"404","cellid":"NA","lac":"","Vehicle_No":"GA 07 G 2003-CUR(QUICK RESPONSE)","Door1":"--","elock":"--","Door4":"--","Branch":"Fire Station Curchorem","Vehicletype":"Truck","Door2":"--","Door3":"--","course":"","GPSActualTime":"03-01-2026 11:53:47","Datetime":"03-01-2026 11:54:14","Status":"STOP","DeviceModel":"LC 100","Speed":"0","AC":"--","mnc":"90","Imeino":"863221045426655","gps_hdop":"NA","Odometer":"26608","POI":"At Fire Station Curchorem","Driver_Middle_Name":"--","Immobilize_State":"--","IGN":"OFF","satellite_count":0,"Driver_First_Name":"--","Angle":"228","Ibutton/RFID":"","SOS":"--","Fuel":[],"battery_percentage":"0","ExternalVolt":"--","Driver_Last_Name":"--","Power":"ON","username":"cnt-fire.goa@nic.in","Location":"At Fire Station Curchorem","Altitude":"0"}},{"type":"Feature","geometry":{"type":"Point","coordinates":[74.103735,15.2605033]},"properties":{"Vehicle_Name":"5035","Company":"Directorate of Fire Emergency Services","Temperature":"--","heartbeat":"no","GPS":"ON","mcc":"404","cellid":"NA","lac":"","Vehicle_No":"GA 07 G 7447-CUR(EMERGENCY RESCUE)","Door1":"--","elock":"--","Door4":"--","Branch":"Fire Station Curchorem","Vehicletype":"Truck","Door2":"--","Door3":"--","course":"","GPSActualTime":"03-01-2026 11:54:44","Datetime":"03-01-2026 11:54:52","Status":"STOP","DeviceModel":"LC 100","Speed":"0","AC":"--","mnc":"90","Imeino":"868805061625177","gps_hdop":"NA","Odometer":"19836","POI":"At Fire Station Curchorem","Driver_Middle_Name":"--","Immobilize_State":"--","IGN":"OFF","satellite_count":0,"Driver_First_Name":"--","Angle":"108","Ibutton/RFID":"","SOS":"--","Fuel":[],"battery_percentage":"0","ExternalVolt":"--","Driver_Last_Name":"--","Power":"ON","username":"cnt-fire.goa@nic.in","Location":"At Fire Station Curchorem","Altitude":"0"}},{"type":"Feature","geometry":{"type":"Point","coordinates":[74.10376,15.2604466]},"properties":{"Vehicle_Name":"5035","Company":"Directorate of Fire Emergency Services","Temperature":"--","heartbeat":"no","GPS":"ON","mcc":"404","cellid":"NA","lac":"","Vehicle_No":"GA 07 G 7557-CUR(WATER TENDER)","Door1":"--","elock":"--","Door4":"--","Branch":"Fire Station Curchorem","Vehicletype":"Truck","Door2":"--","Door3":"--","course":"","GPSActualTime":"03-01-2026 11:53:59","Datetime":"03-01-2026 11:54:28","Status":"STOP","DeviceModel":"LC 100","Speed":"0","AC":"--","mnc":"90","Imeino":"863221045426630","gps_hdop":"NA","Odometer":"10285","POI":"At Fire Station Curchorem","Driver_Middle_Name":"--","Immobilize_State":"--","IGN":"OFF","satellite_count":0,"Driver_First_Name":"--","Angle":"84","Ibutton/RFID":"","SOS":"--","Fuel":[],"battery_percentage":"0","ExternalVolt":"--","Driver_Last_Name":"--","Power":"ON","username":"cnt-fire.goa@nic.in","Location":"At Fire Station Curchorem","Altitude":"0"}},{"type":"Feature","geometry":{"type":"Point","coordinates":[74.103785,15.2603416]},"properties":{"Vehicle_Name":"5035","Company":"Directorate of Fire Emergency Services","Temperature":"--","heartbeat":"no","GPS":"ON","mcc":"404","cellid":"NA","lac":"","Vehicle_No":"GA 07 G 7667-CUR(WATER BOUSER)","Door1":"--","elock":"--","Door4":"--","Branch":"Fire Station Curchorem","Vehicletype":"Truck","Door2":"--","Door3":"--","course":"","GPSActualTime":"03-01-2026 11:54:11","Datetime":"03-01-2026 11:54:19","Status":"STOP","DeviceModel":"LC 100","Speed":"0","AC":"--","mnc":"90","Imeino":"863221045431614","gps_hdop":"NA","Odometer":"7862","POI":"At Fire Station Curchorem","Driver_Middle_Name":"--","Immobilize_State":"--","IGN":"OFF","satellite_count":0,"Driver_First_Name":"--","Angle":"102","Ibutton/RFID":"","SOS":"--","Fuel":[],"battery_percentage":"0","ExternalVolt":"--","Driver_Last_Name":"--","Power":"ON","username":"cnt-fire.goa@nic.in","Location":"At Fire Station Curchorem","Altitude":"0"}},{"type":"Feature","geometry":{"type":"Point","coordinates":[73.9727617,15.4630867]},"properties":{"Vehicle_Name":"G-100","Company":"Directorate of Fire Emergency Services","Temperature":"--","heartbeat":"no","GPS":"ON","mcc":"404","cellid":"NA","lac":"","Vehicle_No":"GA 07 G 4989-KUN(WATER TENDER)","Door1":"--","elock":"--","Door4":"--","Branch":"Fire Station Kundaim","Vehicletype":"Truck","Door2":"--","Door3":"--","course":"","GPSActualTime":"03-01-2026 11:53:34","Datetime":"03-01-2026 11:53:40","Status":"STOP","DeviceModel":"G100","Speed":"0","AC":"--","mnc":"90","Imeino":"869604066433078","gps_hdop":"NA","Odometer":"25093","POI":"At Fire Station Kundaim","Driver_Middle_Name":"--","Immobilize_State":"--","IGN":"OFF","satellite_count":0,"Driver_First_Name":"--","Angle":"358","Ibutton/RFID":"","SOS":"--","Fuel":[],"battery_percentage":"0","ExternalVolt":"--","Driver_Last_Name":"--","Power":"ON","username":"cnt-fire.goa@nic.in","Location":"At Fire Station Kundaim","Altitude":"0"}},{"type":"Feature","geometry":{"type":"Point","coordinates":[73.79416,15.532975]},"properties":{"Vehicle_Name":"5026","Company":"Directorate of Fire Emergency Services","Temperature":"--","heartbeat":"yes","GPS":"ON","mcc":"404","cellid":"NA","lac":"","Vehicle_No":"GA 07 G 2242-PIL(WATER TENDER)","Door1":"--","elock":"--","Door4":"--","Branch":"Fire Station Pilerne","Vehicletype":"ECOMET","Door2":"--","Door3":"--","course":"","GPSActualTime":"03-01-2026 11:53:22","Datetime":"03-01-2026 11:53:23","Status":"STOP","DeviceModel":"JM01","Speed":"0","AC":"--","mnc":"90","Imeino":"356218602322768","gps_hdop":"NA","Odometer":"0","POI":"At Fire Station Pilerne","Driver_Middle_Name":"--","Immobilize_State":"--","IGN":"OFF","satellite_count":9,"Driver_First_Name":"--","Angle":"158","Ibutton/RFID":"","SOS":"--","Fuel":[],"battery_percentage":0,"ExternalVolt":"614.44","Driver_Last_Name":"--","Power":"ON","username":"cnt-fire.goa@nic.in","Location":"At Fire Station Pilerne","Altitude":"0"}},{"type":"Feature","geometry":{"type":"Point","coordinates":[73.8087967,15.5898133]},"properties":{"Vehicle_Name":"AT 5036A-4G","Company":"Directorate of Fire Emergency Services","Temperature":"--","heartbeat":"no","GPS":"ON","mcc":"404","cellid":"NA","lac":"","Vehicle_No":"GA 07 G 0681-MAP(QUICK RESPONSE)","Door1":"--","elock":"--","Door4":"--","Branch":"Fire Station Mapusa","Vehicletype":"ASU","Door2":"--","Door3":"--","course":"","GPSActualTime":"03-01-2026 11:54:49","Datetime":"03-01-2026 11:54:53","Status":"STOP","DeviceModel":"L400","Speed":"0","AC":"ON","mnc":"90","Imeino":"862211072172687","gps_hdop":"NA","Odometer":"7865","POI":"At Fire Station Mapusa","Driver_Middle_Name":"--","Immobilize_State":"On","IGN":"OFF","satellite_count":0,"Driver_First_Name":"--","Angle":"0","Ibutton/RFID":"","SOS":"--","Fuel":[],"battery_percentage":"0","ExternalVolt":"--","Driver_Last_Name":"--","Power":"ON","username":"cnt-fire.goa@nic.in","Location":"At Fire Station Mapusa","Altitude":"0"}},{"type":"Feature","geometry":{"type":"Point","coordinates":[73.7974239,15.7164939]},"properties":{"Vehicle_Name":"AT5032-4G","Company":"Directorate of Fire Emergency Services","Temperature":"--","heartbeat":"yes","GPS":"ON","mcc":"404","cellid":"NA","lac":"","Vehicle_No":"GA 07 G 0307-PER(QUICK RESPONSE)","Door1":"--","elock":"--","Door4":"--","Branch":"Fire Station Pernem","Vehicletype":"ASU","Door2":"--","Door3":"--","course":"","GPSActualTime":"23-10-2025 15:19:08","Datetime":"23-10-2025 15:19:09","Status":"INACTIVE","DeviceModel":"N01H","Speed":"0","AC":"--","mnc":"22","Imeino":"357803370981041","gps_hdop":"NA","Odometer":"2046","POI":"At Fire Station Pernem","Driver_Middle_Name":"--","Immobilize_State":"--","IGN":"OFF","satellite_count":13,"Driver_First_Name":"--","Angle":"283","Ibutton/RFID":"","SOS":"--","Fuel":[],"battery_percentage":17,"ExternalVolt":"--","Driver_Last_Name":"--","Power":"OFF","username":"cnt-fire.goa@nic.in","Location":"At Fire Station Pernem","Altitude":"0"}},{"type":"Feature","geometry":{"type":"Point","coordinates":[73.7975894,15.7164867]},"properties":{"Vehicle_Name":"AT5032-4G","Company":"Directorate of Fire Emergency Services","Temperature":"--","heartbeat":"no","GPS":"ON","mcc":"404","cellid":"NA","lac":"","Vehicle_No":"GA 07 G 2101-PER(MS WATER TENDER)","Door1":"--","elock":"--","Door4":"--","Branch":"Fire Station Pernem","Vehicletype":"ASU","Door2":"--","Door3":"--","course":"","GPSActualTime":"03-01-2026 11:53:08","Datetime":"03-01-2026 11:53:13","Status":"RUNNING","DeviceModel":"N01H","Speed":"0","AC":"--","mnc":"22","Imeino":"357803370980423","gps_hdop":"NA","Odometer":"5125","POI":"At Fire Station Pernem","Driver_Middle_Name":"--","Immobilize_State":"--","IGN":"ON","satellite_count":15,"Driver_First_Name":"--","Angle":"0","Ibutton/RFID":"","SOS":"--","Fuel":[],"battery_percentage":100,"ExternalVolt":"--","Driver_Last_Name":"--","Power":"ON","username":"cnt-fire.goa@nic.in","Location":"At Fire Station Pernem","Altitude":"0"}},{"type":"Feature","geometry":{"type":"Point","coordinates":[73.7974756,15.716545]},"properties":{"Vehicle_Name":"AT 5032-4G","Company":"Directorate of Fire Emergency Services","Temperature":"--","heartbeat":"no","GPS":"ON","mcc":"404","cellid":"NA","lac":"","Vehicle_No":"GA 07 G 4600-PER(MINI RESCUE TENDER)","Door1":"--","elock":"--","Door4":"--","Branch":"Fire Station Pernem","Vehicletype":"Truck","Door2":"--","Door3":"--","course":"","GPSActualTime":"03-01-2026 11:54:18","Datetime":"03-01-2026 11:54:25","Status":"STOP","DeviceModel":"N01H","Speed":"0","AC":"--","mnc":"22","Imeino":"357803370980464","gps_hdop":"NA","Odometer":"5665","POI":"At Fire Station Pernem","Driver_Middle_Name":"--","Immobilize_State":"--","IGN":"OFF","satellite_count":15,"Driver_First_Name":"--","Angle":"0","Ibutton/RFID":"","SOS":"--","Fuel":[],"battery_percentage":100,"ExternalVolt":"--","Driver_Last_Name":"--","Power":"ON","username":"cnt-fire.goa@nic.in","Location":"At Fire Station Pernem","Altitude":"0"}},{"type":"Feature","geometry":{"type":"Point","coordinates":[73.8173183,15.48731]},"properties":{"Vehicle_Name":"AT-5032-4G","Company":"Directorate of Fire Emergency Services","Temperature":"--","heartbeat":"no","GPS":"ON","mcc":"404","cellid":"NA","lac":"","Vehicle_No":"GA 07 G 7272-PNJ(WATER TENDER)","Door1":"--","elock":"--","Door4":"--","Branch":"Fire Station Panaji","Vehicletype":"ASU","Door2":"--","Door3":"--","course":"","GPSActualTime":"03-01-2026 11:52:16","Datetime":"03-01-2026 11:52:15","Status":"STOP","DeviceModel":"N01H","Speed":"0","AC":"--","mnc":"90","Imeino":"357803370980415","gps_hdop":"NA","Odometer":"0","POI":"0.29 km from Fire Station panaji","Driver_Middle_Name":"--","Immobilize_State":"--","IGN":"OFF","satellite_count":10,"Driver_First_Name":"--","Angle":"4","Ibutton/RFID":"","SOS":"--","Fuel":[],"battery_percentage":100,"ExternalVolt":"--","Driver_Last_Name":"--","Power":"ON","username":"cnt-fire.goa@nic.in","Location":"Caculo Mall, 16 Shanta, St Inez Rd, Caculo Enclave, Santa Inez, Panaji, Goa (NW)","Altitude":"0"}},{"type":"Feature","geometry":{"type":"Point","coordinates":[74.0210444,15.1863339]},"properties":{"Vehicle_Name":"AT 5032-4G","Company":"Directorate of Fire Emergency Services","Temperature":"--","heartbeat":"yes","GPS":"ON","mcc":"404","cellid":"NA","lac":"","Vehicle_No":"GA07G2384- Cuncolim","Door1":"--","elock":"--","Door4":"--","Branch":"Fire Station Cuncolim","Vehicletype":"ASU","Door2":"--","Door3":"--","course":"","GPSActualTime":"03-01-2026 11:52:33","Datetime":"03-01-2026 11:52:34","Status":"STOP","DeviceModel":"N01H","Speed":"0","AC":"--","mnc":"90","Imeino":"869671070072341","gps_hdop":"NA","Odometer":"4399195","POI":"At Fire Station Cuncolim","Driver_Middle_Name":"--","Immobilize_State":"--","IGN":"OFF","satellite_count":15,"Driver_First_Name":"--","Angle":"0","Ibutton/RFID":"","SOS":"--","Fuel":[],"battery_percentage":100,"ExternalVolt":"--","Driver_Last_Name":"--","Power":"ON","username":"cnt-fire.goa@nic.in","Location":"At Fire Station Cuncolim","Altitude":"0"}},{"type":"Feature","geometry":{"type":"Point","coordinates":[73.7977133,15.716315]},"properties":{"Vehicle_Name":"5035","Company":"Directorate of Fire Emergency Services","Temperature":"--","heartbeat":"no","GPS":"ON","mcc":"--","cellid":"NA","lac":"","Vehicle_No":"GA07G2507 - Mid Size (Water Tender)","Door1":"--","elock":"--","Door4":"--","Branch":"Fire Station Pernem","Vehicletype":"ASU","Door2":"--","Door3":"--","course":"","GPSActualTime":"03-01-2026 11:54:26","Datetime":"03-01-2026 11:54:37","Status":"STOP","DeviceModel":"LC 100","Speed":"0","AC":"--","mnc":"--","Imeino":"868805061619535","gps_hdop":"NA","Odometer":"603000","POI":"At Fire Station Pernem","Driver_Middle_Name":"--","Immobilize_State":"--","IGN":"OFF","satellite_count":0,"Driver_First_Name":"--","Angle":"105","Ibutton/RFID":"","SOS":"--","Fuel":[],"battery_percentage":100,"ExternalVolt":"--","Driver_Last_Name":"--","Power":"ON","username":"cnt-fire.goa@nic.in","Location":"At Fire Station Pernem","Altitude":"0"}},{"type":"Feature","geometry":{"type":"Point","coordinates":[74.1385983,15.5309567]},"properties":{"Vehicle_Name":"5035","Company":"Directorate of Fire Emergency Services","Temperature":"--","heartbeat":"no","GPS":"ON","mcc":"--","cellid":"NA","lac":"","Vehicle_No":"GA07G2505 - Mid Size (Water Tender)","Door1":"--","elock":"--","Door4":"--","Branch":"Fire Station Valpoi","Vehicletype":"ASU","Door2":"--","Door3":"--","course":"","GPSActualTime":"03-01-2026 11:54:16","Datetime":"03-01-2026 11:54:27","Status":"STOP","DeviceModel":"LC 100","Speed":"0","AC":"--","mnc":"--","Imeino":"863221045358098","gps_hdop":"NA","Odometer":"443000","POI":"At Fire Station Valpoi ","Driver_Middle_Name":"--","Immobilize_State":"--","IGN":"OFF","satellite_count":0,"Driver_First_Name":"--","Angle":"357","Ibutton/RFID":"","SOS":"--","Fuel":[],"battery_percentage":85,"ExternalVolt":"--","Driver_Last_Name":"--","Power":"ON","username":"cnt-fire.goa@nic.in","Location":"At Fire Station Valpoi ","Altitude":"0"}},{"type":"Feature","geometry":{"type":"Point","coordinates":[73.946745,15.589285]},"properties":{"Vehicle_Name":"5035","Company":"Directorate of Fire Emergency Services","Temperature":"--","heartbeat":"no","GPS":"ON","mcc":"--","cellid":"NA","lac":"","Vehicle_No":"GA07G2504 - Mid Size (Water Tender)","Door1":"--","elock":"--","Door4":"--","Branch":"Fire Station Bicholim","Vehicletype":"ASU","Door2":"--","Door3":"--","course":"","GPSActualTime":"03-01-2026 11:54:25","Datetime":"03-01-2026 11:54:33","Status":"STOP","DeviceModel":"LC 100","Speed":"0","AC":"--","mnc":"--","Imeino":"863221045367446","gps_hdop":"NA","Odometer":"1165000","POI":"At Fire Station Bicholim ","Driver_Middle_Name":"--","Immobilize_State":"--","IGN":"OFF","satellite_count":0,"Driver_First_Name":"--","Angle":"201","Ibutton/RFID":"","SOS":"--","Fuel":[],"battery_percentage":85,"ExternalVolt":"--","Driver_Last_Name":"--","Power":"ON","username":"cnt-fire.goa@nic.in","Location":"At Fire Station Bicholim ","Altitude":"0"}},{"type":"Feature","geometry":{"type":"Point","coordinates":[73.8087483,15.58996]},"properties":{"Vehicle_Name":"5035","Company":"Directorate of Fire Emergency Services","Temperature":"--","heartbeat":"no","GPS":"ON","mcc":"--","cellid":"NA","lac":"","Vehicle_No":"GA07G2503-Mid Size (Water Tender)","Door1":"--","elock":"--","Door4":"--","Branch":"Fire Station Mapusa","Vehicletype":"ASU","Door2":"--","Door3":"--","course":"","GPSActualTime":"03-01-2026 11:54:20","Datetime":"03-01-2026 11:54:29","Status":"STOP","DeviceModel":"LC 100","Speed":"0","AC":"--","mnc":"--","Imeino":"868805061625318","gps_hdop":"NA","Odometer":"1263000","POI":"At Fire Station Mapusa","Driver_Middle_Name":"--","Immobilize_State":"--","IGN":"OFF","satellite_count":0,"Driver_First_Name":"--","Angle":"279","Ibutton/RFID":"","SOS":"--","Fuel":[],"battery_percentage":100,"ExternalVolt":"--","Driver_Last_Name":"--","Power":"ON","username":"cnt-fire.goa@nic.in","Location":"At Fire Station Mapusa","Altitude":"0"}},{"type":"Feature","geometry":{"type":"Point","coordinates":[73.8065017,15.5845967]},"properties":{"Vehicle_Name":"5035","Company":"Directorate of Fire Emergency Services","Temperature":"--","heartbeat":"no","GPS":"ON","mcc":"--","cellid":"NA","lac":"","Vehicle_No":"GA07G2502 - Mid Size (Water Tender)","Door1":"--","elock":"--","Door4":"--","Branch":"Fire Force Headquarters","Vehicletype":"ASU","Door2":"--","Door3":"--","course":"","GPSActualTime":"03-01-2026 11:54:20","Datetime":"03-01-2026 11:54:31","Status":"STOP","DeviceModel":"LC 100","Speed":"0","AC":"--","mnc":"--","Imeino":"868805061619741","gps_hdop":"NA","Odometer":"813000","POI":"0.64 km from Fire Station Mapusa","Driver_Middle_Name":"--","Immobilize_State":"--","IGN":"--","satellite_count":0,"Driver_First_Name":"--","Angle":"0","Ibutton/RFID":"","SOS":"--","Fuel":[],"battery_percentage":100,"ExternalVolt":"--","Driver_Last_Name":"--","Power":"ON","username":"cnt-fire.goa@nic.in","Location":"Shri Dev Bodgeshwar Sansthan, Calangute - Mapusa Rd, Mapusa, Goa,, Goa (NE)","Altitude":"0"}}]}