{
  "type": "FeatureCollection",
  "metadata": {
    "date": "20260103",
    "source": "Directorate of Fire Emergency Services, Govt. of Goa",
    "description": "Daily GPS tracks of fire trucks",
    "lastUpdated": "2026-01-03T00:43:55.410Z",
    "count": 52
  },
  "features": [
    {
      "type": "Feature",
      "geometry": {
        "type": "LineString",
        "coordinates": [
          [
            73.794165,
            15.5329167
          ]
        ]
      },
      "properties": {
        "Vehicle_No": "GA 07 G 0680-PIL(QUICK RESPONSE VEHICLE)",
        "Vehicle_Name": "4G",
        "Branch": "Fire Station Pilerne",
        "created": "03-01-2026 05:30:57+05:30",
        "lastUpdated": "03-01-2026 05:30:57+05:30"
      }
    },
    {
      "type": "Feature",
      "geometry": {
        "type": "LineString",
        "coordinates": [
          [
            73.914009,
            15.500275
          ],
          [
            73.914062,
            15.500322
          ]
        ]
      },
      "properties": {
        "Vehicle_No": "GA07G2506 - Mid Size (Water Tender)",
        "Vehicle_Name": "TS101",
        "Branch": "Fire Station Old Goa",
        "created": "03-01-2026 05:30:03+05:30",
        "lastUpdated": "03-01-2026 05:32:03+05:30"
      }
    },
    {
      "type": "Feature",
      "geometry": {
        "type": "LineString",
        "coordinates": [
          [
            73.829636,
            15.522895
          ]
        ]
      },
      "properties": {
        "Vehicle_No": "GA 07 G 5115-POR(MINI WATER TENDER)",
        "Vehicle_Name": "TS101",
        "Branch": "Fire Station Porvorim",
        "created": "03-01-2026 05:30:53+05:30",
        "lastUpdated": "03-01-2026 05:30:53+05:30"
      }
    },
    {
      "type": "Feature",
      "geometry": {
        "type": "LineString",
        "coordinates": [
          [
            73.970596,
            15.269457
          ]
        ]
      },
      "properties": {
        "Vehicle_No": "GA 07 G 0350-MRG(WATER TENDER)",
        "Vehicle_Name": "TS101",
        "Branch": "Fire Station Margao",
        "created": "03-01-2026 05:30:10+05:30",
        "lastUpdated": "03-01-2026 05:30:10+05:30"
      }
    },
    {
      "type": "Feature",
      "geometry": {
        "type": "LineString",
        "coordinates": [
          [
            73.808853,
            15.589973
          ],
          [
            73.808846,
            15.590038
          ]
        ]
      },
      "properties": {
        "Vehicle_No": "GA 07 G 2900-MAP(MINI RESCUE TENDER)",
        "Vehicle_Name": "TS101",
        "Branch": "Fire Station Mapusa",
        "created": "03-01-2026 05:28:51+05:30",
        "lastUpdated": "03-01-2026 05:32:51+05:30"
      }
    },
    {
      "type": "Feature",
      "geometry": {
        "type": "LineString",
        "coordinates": [
          [
            73.817337,
            15.487212
          ]
        ]
      },
      "properties": {
        "Vehicle_No": "GA 07 G 7600-FFHQ(WATER BOUSER)",
        "Vehicle_Name": "TS101",
        "Branch": "Fire Force Headquarters",
        "created": "03-01-2026 05:30:27+05:30",
        "lastUpdated": "03-01-2026 05:30:27+05:30"
      }
    },
    {
      "type": "Feature",
      "geometry": {
        "type": "LineString",
        "coordinates": [
          [
            73.817184,
            15.487098
          ],
          [
            73.817284,
            15.487427
          ]
        ]
      },
      "properties": {
        "Vehicle_No": "GA 07 G 2002-FFHQ(TURN TABLE LADDER)",
        "Vehicle_Name": "TS101",
        "Branch": "Fire Force Headquarters",
        "created": "03-01-2026 05:29:40+05:30",
        "lastUpdated": "03-01-2026 05:31:39+05:30"
      }
    },
    {
      "type": "Feature",
      "geometry": {
        "type": "LineString",
        "coordinates": [
          [
            73.817223,
            15.486877
          ],
          [
            73.817101,
            15.48692
          ]
        ]
      },
      "properties": {
        "Vehicle_No": "GA 07 G 7101-FFHQ(WATER TENDER)",
        "Vehicle_Name": "TS101",
        "Branch": "Fire Force Headquarters",
        "created": "03-01-2026 05:29:10+05:30",
        "lastUpdated": "03-01-2026 05:33:15+05:30"
      }
    },
    {
      "type": "Feature",
      "geometry": {
        "type": "LineString",
        "coordinates": [
          [
            73.817009,
            15.48715
          ],
          [
            73.817215,
            15.487127
          ]
        ]
      },
      "properties": {
        "Vehicle_No": "GA 07 G 7677-FFHQ(EMERGENCY RESCUE)",
        "Vehicle_Name": "TS101",
        "Branch": "Fire Force Headquarters",
        "created": "03-01-2026 05:29:44+05:30",
        "lastUpdated": "03-01-2026 05:31:40+05:30"
      }
    },
    {
      "type": "Feature",
      "geometry": {
        "type": "LineString",
        "coordinates": [
          [
            73.817192,
            15.48718
          ],
          [
            73.817299,
            15.487282
          ]
        ]
      },
      "properties": {
        "Vehicle_No": "GA 07 G 1121-PNJ(EMERGENCY RESCUE)",
        "Vehicle_Name": "TS101",
        "Branch": "Fire Station Panaji",
        "created": "03-01-2026 05:28:12+05:30",
        "lastUpdated": "03-01-2026 05:32:16+05:30"
      }
    },
    {
      "type": "Feature",
      "geometry": {
        "type": "LineString",
        "coordinates": [
          [
            73.817467,
            15.486858
          ],
          [
            73.817528,
            15.486587
          ]
        ]
      },
      "properties": {
        "Vehicle_No": "GA 07 G 1571-FFHQ(QUICK RESPONSE)",
        "Vehicle_Name": "TS101",
        "Branch": "Fire Force Headquarters",
        "created": "03-01-2026 05:30:00+05:30",
        "lastUpdated": "03-01-2026 05:34:04+05:30"
      }
    },
    {
      "type": "Feature",
      "geometry": {
        "type": "LineString",
        "coordinates": [
          [
            73.808777,
            15.589887
          ],
          [
            73.808662,
            15.589887
          ]
        ]
      },
      "properties": {
        "Vehicle_No": "GA 07 G 8101-MAP(WATER TENDER)",
        "Vehicle_Name": "TS101",
        "Branch": "Fire Station Mapusa",
        "created": "03-01-2026 05:29:30+05:30",
        "lastUpdated": "03-01-2026 05:33:31+05:30"
      }
    },
    {
      "type": "Feature",
      "geometry": {
        "type": "LineString",
        "coordinates": [
          [
            73.9700283,
            15.269395
          ],
          [
            73.9701333,
            15.2693483
          ],
          [
            73.9700683,
            15.2694116
          ],
          [
            73.9700766,
            15.2693866
          ],
          [
            73.9700683,
            15.2694016
          ],
          [
            73.9701666,
            15.269315
          ],
          [
            73.97015,
            15.2694133
          ],
          [
            73.970035,
            15.2693383
          ],
          [
            73.9702066,
            15.2693583
          ],
          [
            73.9702466,
            15.2693683
          ],
          [
            73.9699866,
            15.2694266
          ],
          [
            73.9700283,
            15.2694199
          ],
          [
            73.970125,
            15.2694166
          ],
          [
            73.9701666,
            15.2693866
          ],
          [
            73.9700516,
            15.269405
          ],
          [
            73.97019,
            15.26932
          ],
          [
            73.970255,
            15.2694033
          ],
          [
            73.9701416,
            15.2697
          ],
          [
            73.97015,
            15.2694666
          ],
          [
            73.9701583,
            15.2692783
          ],
          [
            73.9706049,
            15.26971
          ],
          [
            73.9701333,
            15.2694349
          ],
          [
            73.9699866,
            15.2693916
          ],
          [
            73.9701416,
            15.2693916
          ],
          [
            73.970035,
            15.269315
          ],
          [
            73.9701666,
            15.2692683
          ],
          [
            73.9702233,
            15.26944
          ],
          [
            73.97019,
            15.2693983
          ],
          [
            73.970215,
            15.269405
          ],
          [
            73.9701666,
            15.26941
          ],
          [
            73.97015,
            15.2694016
          ],
          [
            73.9703283,
            15.269365
          ],
          [
            73.9702966,
            15.2693749
          ],
          [
            73.9701333,
            15.2698116
          ],
          [
            73.97019,
            15.269505
          ],
          [
            73.9701416,
            15.26944
          ]
        ]
      },
      "properties": {
        "Vehicle_No": "GA 07 G 2317-MRG(EMERGENCY RESCUE TENDER)",
        "Vehicle_Name": "5035",
        "Branch": "Fire Station Margao",
        "created": "03-01-2026 05:30:18+05:30",
        "lastUpdated": "03-01-2026 06:13:53+05:30"
      }
    },
    {
      "type": "Feature",
      "geometry": {
        "type": "LineString",
        "coordinates": [
          [
            73.851335,
            15.3887599
          ]
        ]
      },
      "properties": {
        "Vehicle_No": "GA 07 G 1570-VAS(QUICK RESPONSE FIRE TENDER)",
        "Vehicle_Name": "5035",
        "Branch": "Fire Station Vasco",
        "created": "03-01-2026 05:30:43+05:30",
        "lastUpdated": "03-01-2026 05:30:43+05:30"
      }
    },
    {
      "type": "Feature",
      "geometry": {
        "type": "LineString",
        "coordinates": [
          [
            73.8488683,
            15.3905866
          ]
        ]
      },
      "properties": {
        "Vehicle_No": "GA 07 G 4101-VAS(MS WATER TENDER)",
        "Vehicle_Name": "5035",
        "Branch": "Fire Station Vasco",
        "created": "03-01-2026 05:30:51+05:30",
        "lastUpdated": "03-01-2026 05:30:51+05:30"
      }
    },
    {
      "type": "Feature",
      "geometry": {
        "type": "LineString",
        "coordinates": [
          [
            73.8512617,
            15.38883
          ]
        ]
      },
      "properties": {
        "Vehicle_No": "GA 07 G 0819-VAS(WATER/FOAM TENDER)",
        "Vehicle_Name": "4G",
        "Branch": "Fire Station Vasco",
        "created": "03-01-2026 05:30:51+05:30",
        "lastUpdated": "03-01-2026 05:30:51+05:30"
      }
    },
    {
      "type": "Feature",
      "geometry": {
        "type": "LineString",
        "coordinates": [
          [
            73.9702966,
            15.26953
          ],
          [
            73.970035,
            15.2694583
          ],
          [
            73.9701583,
            15.2695
          ],
          [
            73.9700683,
            15.2695066
          ],
          [
            73.9701583,
            15.269505
          ],
          [
            73.9700683,
            15.269635
          ],
          [
            73.9701666,
            15.2694333
          ],
          [
            73.9701666,
            15.2694816
          ]
        ]
      },
      "properties": {
        "Vehicle_No": "GA 07 G 7100-MRG(WATER BOUSER)",
        "Vehicle_Name": "5035",
        "Branch": "Fire Station Margao",
        "created": "03-01-2026 05:29:45+05:30",
        "lastUpdated": "03-01-2026 06:08:00+05:30"
      }
    },
    {
      "type": "Feature",
      "geometry": {
        "type": "LineString",
        "coordinates": [
          [
            73.9705966,
            15.2693333
          ]
        ]
      },
      "properties": {
        "Vehicle_No": "GA 07 G 1568-MRG(QUICK RESPONSE )",
        "Vehicle_Name": "5035",
        "Branch": "Fire Station Margao",
        "created": "03-01-2026 05:30:59+05:30",
        "lastUpdated": "03-01-2026 05:30:59+05:30"
      }
    },
    {
      "type": "Feature",
      "geometry": {
        "type": "LineString",
        "coordinates": [
          [
            73.9700433,
            15.2693366
          ]
        ]
      },
      "properties": {
        "Vehicle_No": "GA 07 G 6101-MRG(WATER TENDER)",
        "Vehicle_Name": "5035",
        "Branch": "Fire Station Margao",
        "created": "03-01-2026 05:31:05+05:30",
        "lastUpdated": "03-01-2026 05:31:05+05:30"
      }
    },
    {
      "type": "Feature",
      "geometry": {
        "type": "LineString",
        "coordinates": [
          [
            73.9702316,
            15.2694433
          ],
          [
            73.97024,
            15.2694616
          ]
        ]
      },
      "properties": {
        "Vehicle_No": "GA 07 G 1001-MRG(AERIAL LADDER PLATFORM)",
        "Vehicle_Name": "5035",
        "Branch": "Fire Station Margao",
        "created": "03-01-2026 05:30:15+05:30",
        "lastUpdated": "03-01-2026 05:31:43+05:30"
      }
    },
    {
      "type": "Feature",
      "geometry": {
        "type": "LineString",
        "coordinates": [
          [
            74.002805,
            15.402805
          ],
          [
            74.0028383,
            15.4027811
          ]
        ]
      },
      "properties": {
        "Vehicle_No": "GA 07 G 0820-BIC(WATER TEDNER)",
        "Vehicle_Name": "5026",
        "Branch": "Fire Station Bicholim",
        "created": "03-01-2026 05:28:39+05:30",
        "lastUpdated": "03-01-2026 05:31:49+05:30"
      }
    },
    {
      "type": "Feature",
      "geometry": {
        "type": "LineString",
        "coordinates": [
          [
            73.9140866,
            15.5002916
          ]
        ]
      },
      "properties": {
        "Vehicle_No": "GA 07 G 5101-OLG(MS WATER TENDER)",
        "Vehicle_Name": "5035",
        "Branch": "Fire Station Old Goa",
        "created": "03-01-2026 05:30:39+05:30",
        "lastUpdated": "03-01-2026 05:30:39+05:30"
      }
    },
    {
      "type": "Feature",
      "geometry": {
        "type": "LineString",
        "coordinates": [
          [
            73.946395,
            15.5890316
          ],
          [
            73.946135,
            15.5889833
          ],
          [
            73.946215,
            15.5890916
          ],
          [
            73.9463133,
            15.5889683
          ],
          [
            73.946305,
            15.5889683
          ],
          [
            73.9460933,
            15.5890766
          ],
          [
            73.9464266,
            15.5890866
          ],
          [
            73.9464933,
            15.589005
          ],
          [
            73.94615,
            15.5890516
          ],
          [
            73.9461583,
            15.5890466
          ],
          [
            73.9465816,
            15.5893
          ],
          [
            73.9465333,
            15.5890416
          ],
          [
            73.9465583,
            15.5889133
          ],
          [
            73.9465649,
            15.5887666
          ],
          [
            73.9465649,
            15.5889233
          ],
          [
            73.9465983,
            15.5890466
          ],
          [
            73.94694,
            15.5891983
          ]
        ]
      },
      "properties": {
        "Vehicle_No": "GA 07 G 3101-BIC(MS WATER TENDER)",
        "Vehicle_Name": "5035",
        "Branch": "Fire Station Bicholim",
        "created": "03-01-2026 05:30:41+05:30",
        "lastUpdated": "03-01-2026 06:02:54+05:30"
      }
    },
    {
      "type": "Feature",
      "geometry": {
        "type": "LineString",
        "coordinates": [
          [
            73.9466383,
            15.5893533
          ]
        ]
      },
      "properties": {
        "Vehicle_No": "GA 07 G 1941-BIC(QUICK RESPONSE)",
        "Vehicle_Name": "5035",
        "Branch": "Fire Station Bicholim",
        "created": "03-01-2026 05:30:42+05:30",
        "lastUpdated": "03-01-2026 05:30:42+05:30"
      }
    },
    {
      "type": "Feature",
      "geometry": {
        "type": "LineString",
        "coordinates": [
          [
            73.8478433,
            15.3892083
          ]
        ]
      },
      "properties": {
        "Vehicle_No": "GA 07 G 2319-VAS (EMERGENCY RESCUE TENDER)",
        "Vehicle_Name": "5035",
        "Branch": "Fire Station Vasco",
        "created": "03-01-2026 05:30:45+05:30",
        "lastUpdated": "03-01-2026 05:30:45+05:30"
      }
    },
    {
      "type": "Feature",
      "geometry": {
        "type": "LineString",
        "coordinates": [
          [
            74.1389166,
            15.5310816
          ]
        ]
      },
      "properties": {
        "Vehicle_No": "GA 07 G 3737-VAP(WATER TENDER)",
        "Vehicle_Name": "5035",
        "Branch": "Fire Station Valpoi",
        "created": "03-01-2026 05:30:57+05:30",
        "lastUpdated": "03-01-2026 05:30:57+05:30"
      }
    },
    {
      "type": "Feature",
      "geometry": {
        "type": "LineString",
        "coordinates": [
          [
            74.0028966,
            15.402725
          ]
        ]
      },
      "properties": {
        "Vehicle_No": "GA 07 G 2318-PND(EMERGENCY RESCUE TENDER)",
        "Vehicle_Name": "5035",
        "Branch": "Fire Station Ponda",
        "created": "03-01-2026 05:30:23+05:30",
        "lastUpdated": "03-01-2026 05:30:23+05:30"
      }
    },
    {
      "type": "Feature",
      "geometry": {
        "type": "LineString",
        "coordinates": [
          [
            73.9073083,
            15.4141016
          ]
        ]
      },
      "properties": {
        "Vehicle_No": "GA 07 G 2004-PND(QUICK RESPONSE)",
        "Vehicle_Name": "5035",
        "Branch": "Fire Station Ponda",
        "created": "30-12-2025 13:47:09+05:30",
        "lastUpdated": "30-12-2025 13:47:09+05:30"
      }
    },
    {
      "type": "Feature",
      "geometry": {
        "type": "LineString",
        "coordinates": [
          [
            74.002685,
            15.4027316
          ]
        ]
      },
      "properties": {
        "Vehicle_No": "GA 07 G 9101-PND(WATER TENDER)",
        "Vehicle_Name": "5035",
        "Branch": "Fire Station Ponda",
        "created": "03-01-2026 05:31:00+05:30",
        "lastUpdated": "03-01-2026 05:31:00+05:30"
      }
    },
    {
      "type": "Feature",
      "geometry": {
        "type": "LineString",
        "coordinates": [
          [
            74.0027433,
            15.4031233
          ]
        ]
      },
      "properties": {
        "Vehicle_No": "GA 07 G 9797-PND(WATER BOUSER)",
        "Vehicle_Name": "5035",
        "Branch": "Fire Station Ponda",
        "created": "03-01-2026 05:30:53+05:30",
        "lastUpdated": "03-01-2026 05:30:53+05:30"
      }
    },
    {
      "type": "Feature",
      "geometry": {
        "type": "LineString",
        "coordinates": [
          [
            74.04401,
            15.023605
          ]
        ]
      },
      "properties": {
        "Vehicle_No": "GA 07 G 6363-CAN(WATER TENDER)",
        "Vehicle_Name": "5035",
        "Branch": "Fire Station Canacona",
        "created": "02-01-2026 18:20:50+05:30",
        "lastUpdated": "02-01-2026 18:20:50+05:30"
      }
    },
    {
      "type": "Feature",
      "geometry": {
        "type": "LineString",
        "coordinates": [
          [
            74.0440433,
            15.0236083
          ]
        ]
      },
      "properties": {
        "Vehicle_No": "GA 07 G 1567-CAN(QUICK RESPONSE FT)",
        "Vehicle_Name": "5035",
        "Branch": "Fire Station Canacona",
        "created": "02-01-2026 21:09:05+05:30",
        "lastUpdated": "02-01-2026 21:09:05+05:30"
      }
    },
    {
      "type": "Feature",
      "geometry": {
        "type": "LineString",
        "coordinates": [
          [
            73.9355383,
            15.3697516
          ],
          [
            73.93558,
            15.36974
          ]
        ]
      },
      "properties": {
        "Vehicle_No": "GA 07 G 1569-VRN(QUICK RESPONSE)",
        "Vehicle_Name": "5035",
        "Branch": "Fire Station Verna",
        "created": "03-01-2026 05:30:23+05:30",
        "lastUpdated": "03-01-2026 05:31:47+05:30"
      }
    },
    {
      "type": "Feature",
      "geometry": {
        "type": "LineString",
        "coordinates": [
          [
            73.9356849,
            15.36969
          ]
        ]
      },
      "properties": {
        "Vehicle_No": "GA 07 G 9909-VRN(ADVANCE MULTI-PURPOSE)",
        "Vehicle_Name": "5035",
        "Branch": "Fire Station Verna",
        "created": "03-01-2026 05:29:53+05:30",
        "lastUpdated": "03-01-2026 05:29:53+05:30"
      }
    },
    {
      "type": "Feature",
      "geometry": {
        "type": "LineString",
        "coordinates": [
          [
            74.138785,
            15.5310833
          ]
        ]
      },
      "properties": {
        "Vehicle_No": "GA 07 G 1942-VAP(QUICK RESPONSE)",
        "Vehicle_Name": "5035",
        "Branch": "Fire Station Valpoi",
        "created": "03-01-2026 05:30:42+05:30",
        "lastUpdated": "03-01-2026 05:30:42+05:30"
      }
    },
    {
      "type": "Feature",
      "geometry": {
        "type": "LineString",
        "coordinates": [
          [
            74.1036866,
            15.2607183
          ]
        ]
      },
      "properties": {
        "Vehicle_No": "GA 07 G 2003-CUR(QUICK RESPONSE)",
        "Vehicle_Name": "5035",
        "Branch": "Fire Station Curchorem",
        "created": "03-01-2026 05:30:16+05:30",
        "lastUpdated": "03-01-2026 05:30:16+05:30"
      }
    },
    {
      "type": "Feature",
      "geometry": {
        "type": "LineString",
        "coordinates": [
          [
            74.1037916,
            15.2604266
          ]
        ]
      },
      "properties": {
        "Vehicle_No": "GA 07 G 7447-CUR(EMERGENCY RESCUE)",
        "Vehicle_Name": "5035",
        "Branch": "Fire Station Curchorem",
        "created": "03-01-2026 05:30:56+05:30",
        "lastUpdated": "03-01-2026 05:30:56+05:30"
      }
    },
    {
      "type": "Feature",
      "geometry": {
        "type": "LineString",
        "coordinates": [
          [
            74.1038083,
            15.2604366
          ]
        ]
      },
      "properties": {
        "Vehicle_No": "GA 07 G 7557-CUR(WATER TENDER)",
        "Vehicle_Name": "5035",
        "Branch": "Fire Station Curchorem",
        "created": "03-01-2026 05:30:15+05:30",
        "lastUpdated": "03-01-2026 05:30:15+05:30"
      }
    },
    {
      "type": "Feature",
      "geometry": {
        "type": "LineString",
        "coordinates": [
          [
            74.1037183,
            15.2603216
          ]
        ]
      },
      "properties": {
        "Vehicle_No": "GA 07 G 7667-CUR(WATER BOUSER)",
        "Vehicle_Name": "5035",
        "Branch": "Fire Station Curchorem",
        "created": "03-01-2026 05:31:03+05:30",
        "lastUpdated": "03-01-2026 05:31:03+05:30"
      }
    },
    {
      "type": "Feature",
      "geometry": {
        "type": "LineString",
        "coordinates": [
          [
            73.9726883,
            15.4629233
          ],
          [
            73.9729817,
            15.4638833
          ],
          [
            73.9728517,
            15.463645
          ],
          [
            73.9723233,
            15.4628417
          ]
        ]
      },
      "properties": {
        "Vehicle_No": "GA 07 G 4989-KUN(WATER TENDER)",
        "Vehicle_Name": "G-100",
        "Branch": "Fire Station Kundaim",
        "created": "03-01-2026 05:29:42+05:30",
        "lastUpdated": "03-01-2026 05:48:41+05:30"
      }
    },
    {
      "type": "Feature",
      "geometry": {
        "type": "LineString",
        "coordinates": [
          [
            73.7940539,
            15.5329394
          ],
          [
            73.7941583,
            15.5329922
          ]
        ]
      },
      "properties": {
        "Vehicle_No": "GA 07 G 2242-PIL(WATER TENDER)",
        "Vehicle_Name": "5026",
        "Branch": "Fire Station Pilerne",
        "created": "03-01-2026 05:28:30+05:30",
        "lastUpdated": "03-01-2026 05:31:42+05:30"
      }
    },
    {
      "type": "Feature",
      "geometry": {
        "type": "LineString",
        "coordinates": [
          [
            73.8087967,
            15.5898133
          ]
        ]
      },
      "properties": {
        "Vehicle_No": "GA 07 G 0681-MAP(QUICK RESPONSE)",
        "Vehicle_Name": "AT 5036A-4G",
        "Branch": "Fire Station Mapusa",
        "created": "03-01-2026 05:31:09+05:30",
        "lastUpdated": "03-01-2026 05:31:09+05:30"
      }
    },
    {
      "type": "Feature",
      "geometry": {
        "type": "LineString",
        "coordinates": [
          [
            73.7974239,
            15.7164939
          ]
        ]
      },
      "properties": {
        "Vehicle_No": "GA 07 G 0307-PER(QUICK RESPONSE)",
        "Vehicle_Name": "AT5032-4G",
        "Branch": "Fire Station Pernem",
        "created": "23-10-2025 15:19:09+05:30",
        "lastUpdated": "23-10-2025 15:19:09+05:30"
      }
    },
    {
      "type": "Feature",
      "geometry": {
        "type": "LineString",
        "coordinates": [
          [
            73.7975033,
            15.7164994
          ]
        ]
      },
      "properties": {
        "Vehicle_No": "GA 07 G 2101-PER(MS WATER TENDER)",
        "Vehicle_Name": "AT5032-4G",
        "Branch": "Fire Station Pernem",
        "created": "03-01-2026 05:30:04+05:30",
        "lastUpdated": "03-01-2026 05:30:04+05:30"
      }
    },
    {
      "type": "Feature",
      "geometry": {
        "type": "LineString",
        "coordinates": [
          [
            73.7975294,
            15.716535
          ]
        ]
      },
      "properties": {
        "Vehicle_No": "GA 07 G 4600-PER(MINI RESCUE TENDER)",
        "Vehicle_Name": "AT 5032-4G",
        "Branch": "Fire Station Pernem",
        "created": "03-01-2026 05:30:12+05:30",
        "lastUpdated": "03-01-2026 05:30:12+05:30"
      }
    },
    {
      "type": "Feature",
      "geometry": {
        "type": "LineString",
        "coordinates": [
          [
            73.81721,
            15.4869628
          ],
          [
            73.817075,
            15.4874483
          ]
        ]
      },
      "properties": {
        "Vehicle_No": "GA 07 G 7272-PNJ(WATER TENDER)",
        "Vehicle_Name": "AT-5032-4G",
        "Branch": "Fire Station Panaji",
        "created": "03-01-2026 05:30:19+05:30",
        "lastUpdated": "03-01-2026 05:43:40+05:30"
      }
    },
    {
      "type": "Feature",
      "geometry": {
        "type": "LineString",
        "coordinates": [
          [
            74.0210956,
            15.1862683
          ]
        ]
      },
      "properties": {
        "Vehicle_No": "GA07G2384- Cuncolim",
        "Vehicle_Name": "AT 5032-4G",
        "Branch": "Fire Station Cuncolim",
        "created": "03-01-2026 05:29:33+05:30",
        "lastUpdated": "03-01-2026 05:29:33+05:30"
      }
    },
    {
      "type": "Feature",
      "geometry": {
        "type": "LineString",
        "coordinates": [
          [
            73.7977133,
            15.716315
          ]
        ]
      },
      "properties": {
        "Vehicle_No": "GA07G2507 - Mid Size (Water Tender)",
        "Vehicle_Name": "5035",
        "Branch": "Fire Station Pernem",
        "created": "03-01-2026 05:30:50+05:30",
        "lastUpdated": "03-01-2026 05:30:50+05:30"
      }
    },
    {
      "type": "Feature",
      "geometry": {
        "type": "LineString",
        "coordinates": [
          [
            74.1389967,
            15.5311
          ]
        ]
      },
      "properties": {
        "Vehicle_No": "GA07G2505 - Mid Size (Water Tender)",
        "Vehicle_Name": "5035",
        "Branch": "Fire Station Valpoi",
        "created": "03-01-2026 05:31:07+05:30",
        "lastUpdated": "03-01-2026 05:31:07+05:30"
      }
    },
    {
      "type": "Feature",
      "geometry": {
        "type": "LineString",
        "coordinates": [
          [
            73.9466633,
            15.5893633
          ]
        ]
      },
      "properties": {
        "Vehicle_No": "GA07G2504 - Mid Size (Water Tender)",
        "Vehicle_Name": "5035",
        "Branch": "Fire Station Bicholim",
        "created": "03-01-2026 05:30:43+05:30",
        "lastUpdated": "03-01-2026 05:30:43+05:30"
      }
    },
    {
      "type": "Feature",
      "geometry": {
        "type": "LineString",
        "coordinates": [
          [
            73.8087483,
            15.58996
          ]
        ]
      },
      "properties": {
        "Vehicle_No": "GA07G2503-Mid Size (Water Tender)",
        "Vehicle_Name": "5035",
        "Branch": "Fire Station Mapusa",
        "created": "03-01-2026 05:30:51+05:30",
        "lastUpdated": "03-01-2026 05:30:51+05:30"
      }
    },
    {
      "type": "Feature",
      "geometry": {
        "type": "LineString",
        "coordinates": [
          [
            73.8087817,
            15.5898133
          ]
        ]
      },
      "properties": {
        "Vehicle_No": "GA07G2502 - Mid Size (Water Tender)",
        "Vehicle_Name": "5035",
        "Branch": "Fire Force Headquarters",
        "created": "03-01-2026 05:30:30+05:30",
        "lastUpdated": "03-01-2026 05:30:30+05:30"
      }
    }
  ]
}