{
  "type": "FeatureCollection",
  "metadata": {
    "date": "20260106",
    "source": "Directorate of Fire Emergency Services, Govt. of Goa",
    "description": "Daily GPS tracks of fire trucks",
    "lastUpdated": "2026-01-06T01:32:14.544Z",
    "count": 52
  },
  "features": [
    {
      "type": "Feature",
      "geometry": {
        "type": "LineString",
        "coordinates": [
          [
            73.79401,
            15.53291
          ]
        ]
      },
      "properties": {
        "Vehicle_No": "GA 07 G 0680-PIL(QUICK RESPONSE VEHICLE)",
        "Vehicle_Name": "4G",
        "Branch": "Fire Station Pilerne",
        "created": "06-01-2026 05:30:07+05:30",
        "lastUpdated": "06-01-2026 05:30:07+05:30"
      }
    },
    {
      "type": "Feature",
      "geometry": {
        "type": "LineString",
        "coordinates": [
          [
            73.914139,
            15.500417
          ],
          [
            73.914093,
            15.500337
          ]
        ]
      },
      "properties": {
        "Vehicle_No": "GA07G2506 - Mid Size (Water Tender)",
        "Vehicle_Name": "TS101",
        "Branch": "Fire Station Old Goa",
        "created": "06-01-2026 05:28:48+05:30",
        "lastUpdated": "06-01-2026 05:30:44+05:30"
      }
    },
    {
      "type": "Feature",
      "geometry": {
        "type": "LineString",
        "coordinates": [
          [
            73.834793,
            15.514212
          ],
          [
            73.834785,
            15.514203
          ],
          [
            73.834785,
            15.514195
          ],
          [
            73.834785,
            15.514185
          ],
          [
            73.834778,
            15.514177
          ],
          [
            73.83477,
            15.514173
          ],
          [
            73.834763,
            15.514167
          ],
          [
            73.834763,
            15.51417
          ],
          [
            73.83477,
            15.514173
          ],
          [
            73.834785,
            15.514172
          ],
          [
            73.834778,
            15.514178
          ],
          [
            73.834785,
            15.514172
          ],
          [
            73.834793,
            15.514185
          ],
          [
            73.834793,
            15.514188
          ],
          [
            73.834801,
            15.514198
          ],
          [
            73.834801,
            15.514202
          ],
          [
            73.834801,
            15.514205
          ],
          [
            73.834801,
            15.514207
          ],
          [
            73.834785,
            15.51422
          ],
          [
            73.834785,
            15.514223
          ],
          [
            73.834785,
            15.514222
          ],
          [
            73.834793,
            15.514215
          ],
          [
            73.834862,
            15.514313
          ],
          [
            73.834854,
            15.514315
          ],
          [
            73.834854,
            15.514318
          ],
          [
            73.834862,
            15.514317
          ],
          [
            73.835075,
            15.5144
          ],
          [
            73.835915,
            15.514917
          ],
          [
            73.833252,
            15.51861
          ],
          [
            73.832504,
            15.520515
          ],
          [
            73.831177,
            15.522215
          ],
          [
            73.829544,
            15.522913
          ],
          [
            73.829521,
            15.522795
          ],
          [
            73.829536,
            15.522795
          ],
          [
            73.829597,
            15.522785
          ],
          [
            73.829597,
            15.52281
          ],
          [
            73.829521,
            15.52279
          ],
          [
            73.82946,
            15.522875
          ]
        ]
      },
      "properties": {
        "Vehicle_No": "GA 07 G 5115-POR(MINI WATER TENDER)",
        "Vehicle_Name": "TS101",
        "Branch": "Fire Station Porvorim",
        "created": "06-01-2026 05:30:05+05:30",
        "lastUpdated": "06-01-2026 07:02:04+05:30"
      }
    },
    {
      "type": "Feature",
      "geometry": {
        "type": "LineString",
        "coordinates": [
          [
            73.970627,
            15.269438
          ],
          [
            73.970627,
            15.26942
          ]
        ]
      },
      "properties": {
        "Vehicle_No": "GA 07 G 0350-MRG(WATER TENDER)",
        "Vehicle_Name": "TS101",
        "Branch": "Fire Station Margao",
        "created": "06-01-2026 05:28:20+05:30",
        "lastUpdated": "06-01-2026 05:30:20+05:30"
      }
    },
    {
      "type": "Feature",
      "geometry": {
        "type": "LineString",
        "coordinates": [
          [
            73.808701,
            15.590233
          ],
          [
            73.808861,
            15.589745
          ]
        ]
      },
      "properties": {
        "Vehicle_No": "GA 07 G 2900-MAP(MINI RESCUE TENDER)",
        "Vehicle_Name": "TS101",
        "Branch": "Fire Station Mapusa",
        "created": "06-01-2026 05:29:22+05:30",
        "lastUpdated": "06-01-2026 05:33:24+05:30"
      }
    },
    {
      "type": "Feature",
      "geometry": {
        "type": "LineString",
        "coordinates": [
          [
            73.834984,
            15.514413
          ],
          [
            73.834953,
            15.514422
          ],
          [
            73.834953,
            15.514423
          ],
          [
            73.83503,
            15.514453
          ],
          [
            73.835014,
            15.514448
          ],
          [
            73.835014,
            15.514425
          ],
          [
            73.835358,
            15.514065
          ],
          [
            73.83622,
            15.507912
          ],
          [
            73.837364,
            15.500208
          ],
          [
            73.838989,
            15.496132
          ],
          [
            73.832863,
            15.499848
          ],
          [
            73.830414,
            15.500827
          ],
          [
            73.826332,
            15.501105
          ],
          [
            73.819244,
            15.496847
          ],
          [
            73.815956,
            15.490912
          ],
          [
            73.816956,
            15.487422
          ],
          [
            73.817078,
            15.486872
          ],
          [
            73.817047,
            15.486892
          ],
          [
            73.817055,
            15.486897
          ],
          [
            73.817009,
            15.48682
          ],
          [
            73.817116,
            15.487115
          ],
          [
            73.817238,
            15.487182
          ]
        ]
      },
      "properties": {
        "Vehicle_No": "GA 07 G 7600-FFHQ(WATER BOUSER)",
        "Vehicle_Name": "TS101",
        "Branch": "Fire Force Headquarters",
        "created": "06-01-2026 05:29:21+05:30",
        "lastUpdated": "06-01-2026 06:28:25+05:30"
      }
    },
    {
      "type": "Feature",
      "geometry": {
        "type": "LineString",
        "coordinates": [
          [
            73.817261,
            15.487362
          ],
          [
            73.817337,
            15.487323
          ]
        ]
      },
      "properties": {
        "Vehicle_No": "GA 07 G 2002-FFHQ(TURN TABLE LADDER)",
        "Vehicle_Name": "TS101",
        "Branch": "Fire Force Headquarters",
        "created": "06-01-2026 05:29:56+05:30",
        "lastUpdated": "06-01-2026 05:31:54+05:30"
      }
    },
    {
      "type": "Feature",
      "geometry": {
        "type": "LineString",
        "coordinates": [
          [
            73.817055,
            15.486862
          ],
          [
            73.816978,
            15.486852
          ],
          [
            73.817268,
            15.486748
          ],
          [
            73.817734,
            15.48691
          ],
          [
            73.814774,
            15.489253
          ],
          [
            73.812019,
            15.486547
          ],
          [
            73.808937,
            15.483228
          ],
          [
            73.812202,
            15.486757
          ],
          [
            73.814941,
            15.489107
          ],
          [
            73.817673,
            15.486665
          ],
          [
            73.817245,
            15.486343
          ],
          [
            73.817268,
            15.486335
          ],
          [
            73.817009,
            15.486428
          ],
          [
            73.817047,
            15.486877
          ],
          [
            73.817085,
            15.486857
          ],
          [
            73.81707,
            15.486858
          ],
          [
            73.817047,
            15.486925
          ],
          [
            73.816986,
            15.486907
          ]
        ]
      },
      "properties": {
        "Vehicle_No": "GA 07 G 7101-FFHQ(WATER TENDER)",
        "Vehicle_Name": "TS101",
        "Branch": "Fire Force Headquarters",
        "created": "06-01-2026 05:30:07+05:30",
        "lastUpdated": "06-01-2026 06:58:07+05:30"
      }
    },
    {
      "type": "Feature",
      "geometry": {
        "type": "LineString",
        "coordinates": [
          [
            73.8172,
            15.487068
          ],
          [
            73.817177,
            15.487
          ]
        ]
      },
      "properties": {
        "Vehicle_No": "GA 07 G 7677-FFHQ(EMERGENCY RESCUE)",
        "Vehicle_Name": "TS101",
        "Branch": "Fire Force Headquarters",
        "created": "06-01-2026 05:28:32+05:30",
        "lastUpdated": "06-01-2026 05:30:32+05:30"
      }
    },
    {
      "type": "Feature",
      "geometry": {
        "type": "LineString",
        "coordinates": [
          [
            73.817291,
            15.487298
          ],
          [
            73.81736,
            15.487237
          ]
        ]
      },
      "properties": {
        "Vehicle_No": "GA 07 G 1121-PNJ(EMERGENCY RESCUE)",
        "Vehicle_Name": "TS101",
        "Branch": "Fire Station Panaji",
        "created": "06-01-2026 05:28:35+05:30",
        "lastUpdated": "06-01-2026 05:32:43+05:30"
      }
    },
    {
      "type": "Feature",
      "geometry": {
        "type": "LineString",
        "coordinates": [
          [
            73.817566,
            15.486582
          ],
          [
            73.81752,
            15.486585
          ]
        ]
      },
      "properties": {
        "Vehicle_No": "GA 07 G 1571-FFHQ(QUICK RESPONSE)",
        "Vehicle_Name": "TS101",
        "Branch": "Fire Force Headquarters",
        "created": "06-01-2026 05:27:50+05:30",
        "lastUpdated": "06-01-2026 05:31:52+05:30"
      }
    },
    {
      "type": "Feature",
      "geometry": {
        "type": "LineString",
        "coordinates": [
          [
            73.808723,
            15.589885
          ],
          [
            73.808708,
            15.589955
          ]
        ]
      },
      "properties": {
        "Vehicle_No": "GA 07 G 8101-MAP(WATER TENDER)",
        "Vehicle_Name": "TS101",
        "Branch": "Fire Station Mapusa",
        "created": "06-01-2026 05:27:04+05:30",
        "lastUpdated": "06-01-2026 05:31:07+05:30"
      }
    },
    {
      "type": "Feature",
      "geometry": {
        "type": "LineString",
        "coordinates": [
          [
            73.9700433,
            15.2694166
          ],
          [
            73.97006,
            15.2694033
          ],
          [
            73.970085,
            15.2694433
          ],
          [
            73.9701333,
            15.26944
          ],
          [
            73.9700283,
            15.2694166
          ],
          [
            73.9700683,
            15.2693733
          ],
          [
            73.9701166,
            15.2693933
          ],
          [
            73.9701583,
            15.2694133
          ],
          [
            73.9700933,
            15.2694116
          ],
          [
            73.9701583,
            15.2694983
          ],
          [
            73.9701666,
            15.26974
          ],
          [
            73.97006,
            15.26865
          ],
          [
            73.9700116,
            15.269055
          ],
          [
            73.9700683,
            15.2693516
          ],
          [
            73.9700433,
            15.2693983
          ],
          [
            73.9700116,
            15.2694133
          ],
          [
            73.9701016,
            15.269475
          ],
          [
            73.9698166,
            15.2695683
          ],
          [
            73.9699216,
            15.2694633
          ],
          [
            73.97015,
            15.2693933
          ],
          [
            73.970085,
            15.2693966
          ],
          [
            73.970035,
            15.2694316
          ],
          [
            73.9701416,
            15.2692283
          ],
          [
            73.9701583,
            15.2692849
          ],
          [
            73.9700766,
            15.2694033
          ],
          [
            73.9701016,
            15.269405
          ],
          [
            73.9702633,
            15.2694199
          ],
          [
            73.970125,
            15.2694266
          ],
          [
            73.970035,
            15.2693033
          ],
          [
            73.97006,
            15.2693216
          ],
          [
            73.9701333,
            15.2693733
          ],
          [
            73.9701083,
            15.269385
          ],
          [
            73.970035,
            15.2693766
          ],
          [
            73.9701816,
            15.2693783
          ],
          [
            73.97037,
            15.2693883
          ],
          [
            73.9701733,
            15.2693983
          ],
          [
            73.9702233,
            15.2693783
          ],
          [
            73.9701816,
            15.26923
          ],
          [
            73.9702633,
            15.2690733
          ],
          [
            73.9701016,
            15.2694033
          ],
          [
            73.9700683,
            15.2693133
          ],
          [
            73.97002,
            15.2694166
          ],
          [
            73.9701816,
            15.2693283
          ],
          [
            73.97028,
            15.2693583
          ],
          [
            73.9701333,
            15.2693016
          ],
          [
            73.9701083,
            15.2692883
          ],
          [
            73.97002,
            15.2691633
          ],
          [
            73.9700033,
            15.2691633
          ],
          [
            73.9702883,
            15.2692166
          ],
          [
            73.9702316,
            15.2693433
          ],
          [
            73.970305,
            15.269425
          ],
          [
            73.9703366,
            15.2690433
          ],
          [
            73.9702316,
            15.2693483
          ],
          [
            73.97015,
            15.2695916
          ],
          [
            73.9701583,
            15.2694683
          ],
          [
            73.97006,
            15.26937
          ],
          [
            73.97028,
            15.2693583
          ],
          [
            73.9704183,
            15.26934
          ],
          [
            73.9701666,
            15.26938
          ],
          [
            73.9701416,
            15.26938
          ],
          [
            73.97015,
            15.2695066
          ],
          [
            73.9700433,
            15.2694016
          ],
          [
            73.9702966,
            15.2694383
          ],
          [
            73.9701583,
            15.269425
          ],
          [
            73.9703366,
            15.2693733
          ],
          [
            73.9701333,
            15.2694333
          ],
          [
            73.9700683,
            15.26938
          ],
          [
            73.970085,
            15.2693566
          ],
          [
            73.970085,
            15.2693666
          ],
          [
            73.9701016,
            15.2694016
          ],
          [
            73.97019,
            15.2694016
          ],
          [
            73.9699466,
            15.26936
          ],
          [
            73.9699216,
            15.2693766
          ],
          [
            73.96997,
            15.2693916
          ],
          [
            73.9703199,
            15.2693916
          ],
          [
            73.9699783,
            15.26935
          ]
        ]
      },
      "properties": {
        "Vehicle_No": "GA 07 G 2317-MRG(EMERGENCY RESCUE TENDER)",
        "Vehicle_Name": "5035",
        "Branch": "Fire Station Margao",
        "created": "06-01-2026 05:30:09+05:30",
        "lastUpdated": "06-01-2026 07:02:02+05:30"
      }
    },
    {
      "type": "Feature",
      "geometry": {
        "type": "LineString",
        "coordinates": [
          [
            73.8886066,
            15.4010483
          ],
          [
            73.8931483,
            15.404855
          ],
          [
            73.8931316,
            15.4053916
          ],
          [
            73.8931316,
            15.4053833
          ],
          [
            73.8930833,
            15.4053566
          ],
          [
            73.89309,
            15.4053916
          ],
          [
            73.89309,
            15.40539
          ]
        ]
      },
      "properties": {
        "Vehicle_No": "GA 07 G 1570-VAS(QUICK RESPONSE FIRE TENDER)",
        "Vehicle_Name": "5035",
        "Branch": "Fire Station Vasco",
        "created": "06-01-2026 05:30:10+05:30",
        "lastUpdated": "06-01-2026 06:21:38+05:30"
      }
    },
    {
      "type": "Feature",
      "geometry": {
        "type": "LineString",
        "coordinates": [
          [
            73.8512533,
            15.3888216
          ]
        ]
      },
      "properties": {
        "Vehicle_No": "GA 07 G 4101-VAS(MS WATER TENDER)",
        "Vehicle_Name": "5035",
        "Branch": "Fire Station Vasco",
        "created": "06-01-2026 05:29:31+05:30",
        "lastUpdated": "06-01-2026 05:29:31+05:30"
      }
    },
    {
      "type": "Feature",
      "geometry": {
        "type": "LineString",
        "coordinates": [
          [
            73.8512283,
            15.38877
          ],
          [
            73.8513017,
            15.3889283
          ],
          [
            73.85122,
            15.388845
          ],
          [
            73.85122,
            15.38884
          ]
        ]
      },
      "properties": {
        "Vehicle_No": "GA 07 G 0819-VAS(WATER/FOAM TENDER)",
        "Vehicle_Name": "4G",
        "Branch": "Fire Station Vasco",
        "created": "06-01-2026 05:30:01+05:30",
        "lastUpdated": "06-01-2026 06:55:03+05:30"
      }
    },
    {
      "type": "Feature",
      "geometry": {
        "type": "LineString",
        "coordinates": [
          [
            73.970215,
            15.269
          ]
        ]
      },
      "properties": {
        "Vehicle_No": "GA 07 G 7100-MRG(WATER BOUSER)",
        "Vehicle_Name": "5035",
        "Branch": "Fire Station Margao",
        "created": "06-01-2026 05:29:45+05:30",
        "lastUpdated": "06-01-2026 05:29:45+05:30"
      }
    },
    {
      "type": "Feature",
      "geometry": {
        "type": "LineString",
        "coordinates": [
          [
            73.9705899,
            15.2693766
          ]
        ]
      },
      "properties": {
        "Vehicle_No": "GA 07 G 1568-MRG(QUICK RESPONSE )",
        "Vehicle_Name": "5035",
        "Branch": "Fire Station Margao",
        "created": "06-01-2026 05:29:40+05:30",
        "lastUpdated": "06-01-2026 05:29:40+05:30"
      }
    },
    {
      "type": "Feature",
      "geometry": {
        "type": "LineString",
        "coordinates": [
          [
            73.9701583,
            15.2693183
          ]
        ]
      },
      "properties": {
        "Vehicle_No": "GA 07 G 6101-MRG(WATER TENDER)",
        "Vehicle_Name": "5035",
        "Branch": "Fire Station Margao",
        "created": "06-01-2026 05:29:43+05:30",
        "lastUpdated": "06-01-2026 05:29:43+05:30"
      }
    },
    {
      "type": "Feature",
      "geometry": {
        "type": "LineString",
        "coordinates": [
          [
            73.9702066,
            15.2693733
          ]
        ]
      },
      "properties": {
        "Vehicle_No": "GA 07 G 1001-MRG(AERIAL LADDER PLATFORM)",
        "Vehicle_Name": "5035",
        "Branch": "Fire Station Margao",
        "created": "05-01-2026 11:54:26+05:30",
        "lastUpdated": "05-01-2026 11:54:26+05:30"
      }
    },
    {
      "type": "Feature",
      "geometry": {
        "type": "LineString",
        "coordinates": [
          [
            74.0028017,
            15.40271
          ]
        ]
      },
      "properties": {
        "Vehicle_No": "GA 07 G 0820-BIC(WATER TEDNER)",
        "Vehicle_Name": "5026",
        "Branch": "Fire Station Bicholim",
        "created": "06-01-2026 05:29:48+05:30",
        "lastUpdated": "06-01-2026 05:29:48+05:30"
      }
    },
    {
      "type": "Feature",
      "geometry": {
        "type": "LineString",
        "coordinates": [
          [
            73.9140216,
            15.500315
          ]
        ]
      },
      "properties": {
        "Vehicle_No": "GA 07 G 5101-OLG(MS WATER TENDER)",
        "Vehicle_Name": "5035",
        "Branch": "Fire Station Old Goa",
        "created": "06-01-2026 05:29:10+05:30",
        "lastUpdated": "06-01-2026 05:29:10+05:30"
      }
    },
    {
      "type": "Feature",
      "geometry": {
        "type": "LineString",
        "coordinates": [
          [
            73.9463133,
            15.5889966
          ],
          [
            73.9462,
            15.5890283
          ],
          [
            73.9467283,
            15.5893716
          ],
          [
            73.946615,
            15.5892133
          ],
          [
            73.9465733,
            15.5891316
          ],
          [
            73.9463533,
            15.589005
          ],
          [
            73.9467283,
            15.5889783
          ],
          [
            73.9467366,
            15.5892883
          ],
          [
            73.94668,
            15.58929
          ],
          [
            73.9463133,
            15.5892516
          ]
        ]
      },
      "properties": {
        "Vehicle_No": "GA 07 G 3101-BIC(MS WATER TENDER)",
        "Vehicle_Name": "5035",
        "Branch": "Fire Station Bicholim",
        "created": "06-01-2026 05:29:23+05:30",
        "lastUpdated": "06-01-2026 06:52:07+05:30"
      }
    },
    {
      "type": "Feature",
      "geometry": {
        "type": "LineString",
        "coordinates": [
          [
            73.9465983,
            15.58958
          ]
        ]
      },
      "properties": {
        "Vehicle_No": "GA 07 G 1941-BIC(QUICK RESPONSE)",
        "Vehicle_Name": "5035",
        "Branch": "Fire Station Bicholim",
        "created": "06-01-2026 05:29:35+05:30",
        "lastUpdated": "06-01-2026 05:29:35+05:30"
      }
    },
    {
      "type": "Feature",
      "geometry": {
        "type": "LineString",
        "coordinates": [
          [
            73.8478433,
            15.3892083
          ]
        ]
      },
      "properties": {
        "Vehicle_No": "GA 07 G 2319-VAS (EMERGENCY RESCUE TENDER)",
        "Vehicle_Name": "5035",
        "Branch": "Fire Station Vasco",
        "created": "06-01-2026 05:29:21+05:30",
        "lastUpdated": "06-01-2026 05:29:21+05:30"
      }
    },
    {
      "type": "Feature",
      "geometry": {
        "type": "LineString",
        "coordinates": [
          [
            74.1386966,
            15.5309716
          ]
        ]
      },
      "properties": {
        "Vehicle_No": "GA 07 G 3737-VAP(WATER TENDER)",
        "Vehicle_Name": "5035",
        "Branch": "Fire Station Valpoi",
        "created": "06-01-2026 05:29:07+05:30",
        "lastUpdated": "06-01-2026 05:29:07+05:30"
      }
    },
    {
      "type": "Feature",
      "geometry": {
        "type": "LineString",
        "coordinates": [
          [
            74.0029533,
            15.402635
          ],
          [
            74.00293,
            15.4027316
          ]
        ]
      },
      "properties": {
        "Vehicle_No": "GA 07 G 2318-PND(EMERGENCY RESCUE TENDER)",
        "Vehicle_Name": "5035",
        "Branch": "Fire Station Ponda",
        "created": "06-01-2026 05:29:36+05:30",
        "lastUpdated": "06-01-2026 05:30:59+05:30"
      }
    },
    {
      "type": "Feature",
      "geometry": {
        "type": "LineString",
        "coordinates": [
          [
            73.9073083,
            15.4141016
          ]
        ]
      },
      "properties": {
        "Vehicle_No": "GA 07 G 2004-PND(QUICK RESPONSE)",
        "Vehicle_Name": "5035",
        "Branch": "Fire Station Ponda",
        "created": "30-12-2025 13:47:09+05:30",
        "lastUpdated": "30-12-2025 13:47:09+05:30"
      }
    },
    {
      "type": "Feature",
      "geometry": {
        "type": "LineString",
        "coordinates": [
          [
            74.0033766,
            15.4024916
          ],
          [
            74.0027666,
            15.402735
          ],
          [
            74.0027433,
            15.4027666
          ]
        ]
      },
      "properties": {
        "Vehicle_No": "GA 07 G 9101-PND(WATER TENDER)",
        "Vehicle_Name": "5035",
        "Branch": "Fire Station Ponda",
        "created": "06-01-2026 05:29:49+05:30",
        "lastUpdated": "06-01-2026 05:53:40+05:30"
      }
    },
    {
      "type": "Feature",
      "geometry": {
        "type": "LineString",
        "coordinates": [
          [
            74.0028966,
            15.4027433
          ]
        ]
      },
      "properties": {
        "Vehicle_No": "GA 07 G 9797-PND(WATER BOUSER)",
        "Vehicle_Name": "5035",
        "Branch": "Fire Station Ponda",
        "created": "06-01-2026 05:30:09+05:30",
        "lastUpdated": "06-01-2026 05:30:09+05:30"
      }
    },
    {
      "type": "Feature",
      "geometry": {
        "type": "LineString",
        "coordinates": [
          [
            74.044075,
            15.0236016
          ]
        ]
      },
      "properties": {
        "Vehicle_No": "GA 07 G 6363-CAN(WATER TENDER)",
        "Vehicle_Name": "5035",
        "Branch": "Fire Station Canacona",
        "created": "05-01-2026 19:48:02+05:30",
        "lastUpdated": "05-01-2026 19:48:02+05:30"
      }
    },
    {
      "type": "Feature",
      "geometry": {
        "type": "LineString",
        "coordinates": [
          [
            74.0395016,
            15.0169466
          ]
        ]
      },
      "properties": {
        "Vehicle_No": "GA 07 G 1567-CAN(QUICK RESPONSE FT)",
        "Vehicle_Name": "5035",
        "Branch": "Fire Station Canacona",
        "created": "05-01-2026 17:57:32+05:30",
        "lastUpdated": "05-01-2026 17:57:32+05:30"
      }
    },
    {
      "type": "Feature",
      "geometry": {
        "type": "LineString",
        "coordinates": [
          [
            73.9353033,
            15.3698116
          ],
          [
            73.93558,
            15.36947
          ]
        ]
      },
      "properties": {
        "Vehicle_No": "GA 07 G 1569-VRN(QUICK RESPONSE)",
        "Vehicle_Name": "5035",
        "Branch": "Fire Station Verna",
        "created": "06-01-2026 05:29:04+05:30",
        "lastUpdated": "06-01-2026 06:00:16+05:30"
      }
    },
    {
      "type": "Feature",
      "geometry": {
        "type": "LineString",
        "coordinates": [
          [
            73.9355066,
            15.3695666
          ]
        ]
      },
      "properties": {
        "Vehicle_No": "GA 07 G 9909-VRN(ADVANCE MULTI-PURPOSE)",
        "Vehicle_Name": "5035",
        "Branch": "Fire Station Verna",
        "created": "06-01-2026 05:29:06+05:30",
        "lastUpdated": "06-01-2026 05:29:06+05:30"
      }
    },
    {
      "type": "Feature",
      "geometry": {
        "type": "LineString",
        "coordinates": [
          [
            74.138785,
            15.5310633
          ]
        ]
      },
      "properties": {
        "Vehicle_No": "GA 07 G 1942-VAP(QUICK RESPONSE)",
        "Vehicle_Name": "5035",
        "Branch": "Fire Station Valpoi",
        "created": "06-01-2026 05:29:25+05:30",
        "lastUpdated": "06-01-2026 05:29:25+05:30"
      }
    },
    {
      "type": "Feature",
      "geometry": {
        "type": "LineString",
        "coordinates": [
          [
            74.1037766,
            15.260335
          ]
        ]
      },
      "properties": {
        "Vehicle_No": "GA 07 G 2003-CUR(QUICK RESPONSE)",
        "Vehicle_Name": "5035",
        "Branch": "Fire Station Curchorem",
        "created": "06-01-2026 05:28:57+05:30",
        "lastUpdated": "06-01-2026 05:28:57+05:30"
      }
    },
    {
      "type": "Feature",
      "geometry": {
        "type": "LineString",
        "coordinates": [
          [
            74.10376,
            15.2604233
          ]
        ]
      },
      "properties": {
        "Vehicle_No": "GA 07 G 7447-CUR(EMERGENCY RESCUE)",
        "Vehicle_Name": "5035",
        "Branch": "Fire Station Curchorem",
        "created": "06-01-2026 05:29:37+05:30",
        "lastUpdated": "06-01-2026 05:29:37+05:30"
      }
    },
    {
      "type": "Feature",
      "geometry": {
        "type": "LineString",
        "coordinates": [
          [
            74.1037683,
            15.2604166
          ]
        ]
      },
      "properties": {
        "Vehicle_No": "GA 07 G 7557-CUR(WATER TENDER)",
        "Vehicle_Name": "5035",
        "Branch": "Fire Station Curchorem",
        "created": "06-01-2026 05:29:47+05:30",
        "lastUpdated": "06-01-2026 05:29:47+05:30"
      }
    },
    {
      "type": "Feature",
      "geometry": {
        "type": "LineString",
        "coordinates": [
          [
            74.1036866,
            15.2603316
          ]
        ]
      },
      "properties": {
        "Vehicle_No": "GA 07 G 7667-CUR(WATER BOUSER)",
        "Vehicle_Name": "5035",
        "Branch": "Fire Station Curchorem",
        "created": "06-01-2026 05:30:04+05:30",
        "lastUpdated": "06-01-2026 05:30:04+05:30"
      }
    },
    {
      "type": "Feature",
      "geometry": {
        "type": "LineString",
        "coordinates": [
          [
            73.9726,
            15.4631
          ],
          [
            73.9719567,
            15.4634833
          ]
        ]
      },
      "properties": {
        "Vehicle_No": "GA 07 G 4989-KUN(WATER TENDER)",
        "Vehicle_Name": "G-100",
        "Branch": "Fire Station Kundaim",
        "created": "06-01-2026 05:28:02+05:30",
        "lastUpdated": "06-01-2026 06:57:00+05:30"
      }
    },
    {
      "type": "Feature",
      "geometry": {
        "type": "LineString",
        "coordinates": [
          [
            73.7939244,
            15.53295
          ],
          [
            73.7941733,
            15.532885
          ],
          [
            73.7945094,
            15.5344061
          ],
          [
            73.7937022,
            15.5384817
          ],
          [
            73.7898722,
            15.5390778
          ],
          [
            73.789475,
            15.5432594
          ],
          [
            73.7862289,
            15.5461106
          ],
          [
            73.7827517,
            15.5452744
          ],
          [
            73.7778144,
            15.5428672
          ],
          [
            73.7709761,
            15.5415583
          ]
        ]
      },
      "properties": {
        "Vehicle_No": "GA 07 G 2242-PIL(WATER TENDER)",
        "Vehicle_Name": "5026",
        "Branch": "Fire Station Pilerne",
        "created": "06-01-2026 05:28:20+05:30",
        "lastUpdated": "06-01-2026 07:02:13+05:30"
      }
    },
    {
      "type": "Feature",
      "geometry": {
        "type": "LineString",
        "coordinates": [
          [
            73.808765,
            15.5897967
          ]
        ]
      },
      "properties": {
        "Vehicle_No": "GA 07 G 0681-MAP(QUICK RESPONSE)",
        "Vehicle_Name": "AT 5036A-4G",
        "Branch": "Fire Station Mapusa",
        "created": "06-01-2026 05:30:05+05:30",
        "lastUpdated": "06-01-2026 05:30:05+05:30"
      }
    },
    {
      "type": "Feature",
      "geometry": {
        "type": "LineString",
        "coordinates": [
          [
            73.7974239,
            15.7164939
          ]
        ]
      },
      "properties": {
        "Vehicle_No": "GA 07 G 0307-PER(QUICK RESPONSE)",
        "Vehicle_Name": "AT5032-4G",
        "Branch": "Fire Station Pernem",
        "created": "23-10-2025 15:19:09+05:30",
        "lastUpdated": "23-10-2025 15:19:09+05:30"
      }
    },
    {
      "type": "Feature",
      "geometry": {
        "type": "LineString",
        "coordinates": [
          [
            73.7975978,
            15.7164467
          ]
        ]
      },
      "properties": {
        "Vehicle_No": "GA 07 G 2101-PER(MS WATER TENDER)",
        "Vehicle_Name": "AT5032-4G",
        "Branch": "Fire Station Pernem",
        "created": "06-01-2026 05:27:15+05:30",
        "lastUpdated": "06-01-2026 05:27:15+05:30"
      }
    },
    {
      "type": "Feature",
      "geometry": {
        "type": "LineString",
        "coordinates": [
          [
            73.797585,
            15.7165306
          ]
        ]
      },
      "properties": {
        "Vehicle_No": "GA 07 G 4600-PER(MINI RESCUE TENDER)",
        "Vehicle_Name": "AT 5032-4G",
        "Branch": "Fire Station Pernem",
        "created": "06-01-2026 05:29:29+05:30",
        "lastUpdated": "06-01-2026 05:29:29+05:30"
      }
    },
    {
      "type": "Feature",
      "geometry": {
        "type": "LineString",
        "coordinates": [
          [
            73.8177117,
            15.4877489
          ]
        ]
      },
      "properties": {
        "Vehicle_No": "GA 07 G 7272-PNJ(WATER TENDER)",
        "Vehicle_Name": "AT-5032-4G",
        "Branch": "Fire Station Panaji",
        "created": "06-01-2026 05:25:35+05:30",
        "lastUpdated": "06-01-2026 05:25:35+05:30"
      }
    },
    {
      "type": "Feature",
      "geometry": {
        "type": "LineString",
        "coordinates": [
          [
            74.0210939,
            15.18623
          ]
        ]
      },
      "properties": {
        "Vehicle_No": "GA07G2384- Cuncolim",
        "Vehicle_Name": "AT 5032-4G",
        "Branch": "Fire Station Cuncolim",
        "created": "06-01-2026 05:29:45+05:30",
        "lastUpdated": "06-01-2026 05:29:45+05:30"
      }
    },
    {
      "type": "Feature",
      "geometry": {
        "type": "LineString",
        "coordinates": [
          [
            73.7976733,
            15.7163383
          ]
        ]
      },
      "properties": {
        "Vehicle_No": "GA07G2507 - Mid Size (Water Tender)",
        "Vehicle_Name": "5035",
        "Branch": "Fire Station Pernem",
        "created": "06-01-2026 05:29:53+05:30",
        "lastUpdated": "06-01-2026 05:29:53+05:30"
      }
    },
    {
      "type": "Feature",
      "geometry": {
        "type": "LineString",
        "coordinates": [
          [
            74.13859,
            15.5309583
          ]
        ]
      },
      "properties": {
        "Vehicle_No": "GA07G2505 - Mid Size (Water Tender)",
        "Vehicle_Name": "5035",
        "Branch": "Fire Station Valpoi",
        "created": "06-01-2026 05:29:45+05:30",
        "lastUpdated": "06-01-2026 05:29:45+05:30"
      }
    },
    {
      "type": "Feature",
      "geometry": {
        "type": "LineString",
        "coordinates": [
          [
            73.9465167,
            15.5892633
          ]
        ]
      },
      "properties": {
        "Vehicle_No": "GA07G2504 - Mid Size (Water Tender)",
        "Vehicle_Name": "5035",
        "Branch": "Fire Station Bicholim",
        "created": "06-01-2026 05:29:29+05:30",
        "lastUpdated": "06-01-2026 05:29:29+05:30"
      }
    },
    {
      "type": "Feature",
      "geometry": {
        "type": "LineString",
        "coordinates": [
          [
            73.8086833,
            15.5899067
          ]
        ]
      },
      "properties": {
        "Vehicle_No": "GA07G2503-Mid Size (Water Tender)",
        "Vehicle_Name": "5035",
        "Branch": "Fire Station Mapusa",
        "created": "06-01-2026 05:28:02+05:30",
        "lastUpdated": "06-01-2026 05:28:02+05:30"
      }
    },
    {
      "type": "Feature",
      "geometry": {
        "type": "LineString",
        "coordinates": [
          [
            73.8087883,
            15.5898333
          ]
        ]
      },
      "properties": {
        "Vehicle_No": "GA07G2502 - Mid Size (Water Tender)",
        "Vehicle_Name": "5035",
        "Branch": "Fire Force Headquarters",
        "created": "06-01-2026 05:29:29+05:30",
        "lastUpdated": "06-01-2026 05:29:29+05:30"
      }
    }
  ]
}