{
  "type": "FeatureCollection",
  "metadata": {
    "date": "20251204",
    "source": "Directorate of Fire Emergency Services, Govt. of Goa",
    "description": "Daily GPS tracks of fire trucks",
    "lastUpdated": "2025-12-04T06:18:44.528Z",
    "count": 52
  },
  "features": [
    {
      "type": "Feature",
      "geometry": {
        "type": "LineString",
        "coordinates": [
          [
            73.7654133,
            15.6294133
          ]
        ]
      },
      "properties": {
        "Vehicle_No": "GA 07 G 0680-PIL(QUICK RESPONSE VEHICLE)",
        "Vehicle_Name": "4G",
        "Branch": "Fire Station Pilerne",
        "created": "04-12-2025 07:36:45",
        "lastUpdated": "04-12-2025 07:36:45"
      }
    },
    {
      "type": "Feature",
      "geometry": {
        "type": "LineString",
        "coordinates": [
          [
            73.914131,
            15.500307
          ],
          [
            73.914085,
            15.500345
          ]
        ]
      },
      "properties": {
        "Vehicle_No": "GA07G2506 - Mid Size (Water Tender)",
        "Vehicle_Name": "TS101",
        "Branch": "Fire Station Old Goa",
        "created": "04-12-2025 07:34:30",
        "lastUpdated": "04-12-2025 11:08:27"
      }
    },
    {
      "type": "Feature",
      "geometry": {
        "type": "LineString",
        "coordinates": [
          [
            73.829422,
            15.522955
          ]
        ]
      },
      "properties": {
        "Vehicle_No": "GA 07 G 5115-POR(MINI WATER TENDER)",
        "Vehicle_Name": "TS101",
        "Branch": "Fire Station Porvorim",
        "created": "04-12-2025 07:37:12",
        "lastUpdated": "04-12-2025 07:37:12"
      }
    },
    {
      "type": "Feature",
      "geometry": {
        "type": "LineString",
        "coordinates": [
          [
            73.970558,
            15.269383
          ],
          [
            73.970535,
            15.26944
          ]
        ]
      },
      "properties": {
        "Vehicle_No": "GA 07 G 0350-MRG(WATER TENDER)",
        "Vehicle_Name": "TS101",
        "Branch": "Fire Station Margao",
        "created": "04-12-2025 07:34:06",
        "lastUpdated": "04-12-2025 11:47:44"
      }
    },
    {
      "type": "Feature",
      "geometry": {
        "type": "LineString",
        "coordinates": [
          [
            73.808632,
            15.590005
          ],
          [
            73.808815,
            15.58988
          ]
        ]
      },
      "properties": {
        "Vehicle_No": "GA 07 G 2900-MAP(MINI RESCUE TENDER)",
        "Vehicle_Name": "TS101",
        "Branch": "Fire Station Mapusa",
        "created": "04-12-2025 07:34:46",
        "lastUpdated": "04-12-2025 09:05:14"
      }
    },
    {
      "type": "Feature",
      "geometry": {
        "type": "LineString",
        "coordinates": [
          [
            73.81736,
            15.48702
          ]
        ]
      },
      "properties": {
        "Vehicle_No": "GA 07 G 7600-FFHQ(WATER BOUSER)",
        "Vehicle_Name": "TS101",
        "Branch": "Fire Force Headquarters",
        "created": "15-11-2025 18:44:08",
        "lastUpdated": "15-11-2025 18:44:08"
      }
    },
    {
      "type": "Feature",
      "geometry": {
        "type": "LineString",
        "coordinates": [
          [
            73.8172,
            15.487257
          ],
          [
            73.816963,
            15.486405
          ],
          [
            73.817154,
            15.487247
          ],
          [
            73.817245,
            15.48732
          ]
        ]
      },
      "properties": {
        "Vehicle_No": "GA 07 G 2002-FFHQ(TURN TABLE LADDER)",
        "Vehicle_Name": "TS101",
        "Branch": "Fire Force Headquarters",
        "created": "04-12-2025 07:35:30",
        "lastUpdated": "04-12-2025 11:48:34"
      }
    },
    {
      "type": "Feature",
      "geometry": {
        "type": "LineString",
        "coordinates": [
          [
            73.817001,
            15.48691
          ],
          [
            73.817024,
            15.486818
          ]
        ]
      },
      "properties": {
        "Vehicle_No": "GA 07 G 7101-FFHQ(WATER TENDER)",
        "Vehicle_Name": "TS101",
        "Branch": "Fire Force Headquarters",
        "created": "04-12-2025 07:35:20",
        "lastUpdated": "04-12-2025 11:10:05"
      }
    },
    {
      "type": "Feature",
      "geometry": {
        "type": "LineString",
        "coordinates": [
          [
            73.817009,
            15.487078
          ],
          [
            73.817406,
            15.486902
          ],
          [
            73.817055,
            15.487085
          ],
          [
            73.817146,
            15.486995
          ],
          [
            73.817139,
            15.487047
          ]
        ]
      },
      "properties": {
        "Vehicle_No": "GA 07 G 7677-FFHQ(EMERGENCY RESCUE)",
        "Vehicle_Name": "TS101",
        "Branch": "Fire Force Headquarters",
        "created": "04-12-2025 07:34:06",
        "lastUpdated": "04-12-2025 11:18:05"
      }
    },
    {
      "type": "Feature",
      "geometry": {
        "type": "LineString",
        "coordinates": [
          [
            73.817268,
            15.48728
          ],
          [
            73.817162,
            15.487098
          ],
          [
            73.817162,
            15.48711
          ]
        ]
      },
      "properties": {
        "Vehicle_No": "GA 07 G 1121-PNJ(EMERGENCY RESCUE)",
        "Vehicle_Name": "TS101",
        "Branch": "Fire Station Panaji",
        "created": "04-12-2025 07:36:41",
        "lastUpdated": "04-12-2025 11:21:35"
      }
    },
    {
      "type": "Feature",
      "geometry": {
        "type": "LineString",
        "coordinates": [
          [
            73.817383,
            15.486557
          ],
          [
            73.817757,
            15.486432
          ],
          [
            73.817474,
            15.486362
          ],
          [
            73.817429,
            15.486135
          ]
        ]
      },
      "properties": {
        "Vehicle_No": "GA 07 G 1571-FFHQ(QUICK RESPONSE)",
        "Vehicle_Name": "TS101",
        "Branch": "Fire Force Headquarters",
        "created": "04-12-2025 07:33:43",
        "lastUpdated": "04-12-2025 11:46:57"
      }
    },
    {
      "type": "Feature",
      "geometry": {
        "type": "LineString",
        "coordinates": [
          [
            73.808594,
            15.589858
          ],
          [
            73.808815,
            15.589918
          ],
          [
            73.813202,
            15.594642
          ],
          [
            73.811623,
            15.592917
          ]
        ]
      },
      "properties": {
        "Vehicle_No": "GA 07 G 8101-MAP(WATER TENDER)",
        "Vehicle_Name": "TS101",
        "Branch": "Fire Station Mapusa",
        "created": "04-12-2025 07:33:32",
        "lastUpdated": "04-12-2025 11:09:07"
      }
    },
    {
      "type": "Feature",
      "geometry": {
        "type": "LineString",
        "coordinates": [
          [
            73.9702233,
            15.2692416
          ],
          [
            73.97019,
            15.2693983
          ],
          [
            73.9700933,
            15.2693216
          ],
          [
            73.9700683,
            15.2693016
          ],
          [
            73.9701983,
            15.2693283
          ],
          [
            73.9699783,
            15.2691566
          ],
          [
            73.9700683,
            15.2693566
          ],
          [
            73.9701733,
            15.269395
          ],
          [
            73.9701583,
            15.2694483
          ]
        ]
      },
      "properties": {
        "Vehicle_No": "GA 07 G 2317-MRG(EMERGENCY RESCUE TENDER)",
        "Vehicle_Name": "5035",
        "Branch": "Fire Station Margao",
        "created": "04-12-2025 07:36:38",
        "lastUpdated": "04-12-2025 11:48:39"
      }
    },
    {
      "type": "Feature",
      "geometry": {
        "type": "LineString",
        "coordinates": [
          [
            73.8513183,
            15.3887983
          ]
        ]
      },
      "properties": {
        "Vehicle_No": "GA 07 G 1570-VAS(QUICK RESPONSE FIRE TENDER)",
        "Vehicle_Name": "5035",
        "Branch": "Fire Station Vasco",
        "created": "04-12-2025 07:36:29",
        "lastUpdated": "04-12-2025 07:36:29"
      }
    },
    {
      "type": "Feature",
      "geometry": {
        "type": "LineString",
        "coordinates": [
          [
            73.85197,
            15.3895899
          ]
        ]
      },
      "properties": {
        "Vehicle_No": "GA 07 G 4101-VAS(MS WATER TENDER)",
        "Vehicle_Name": "5035",
        "Branch": "Fire Station Vasco",
        "created": "04-12-2025 07:36:54",
        "lastUpdated": "04-12-2025 07:36:54"
      }
    },
    {
      "type": "Feature",
      "geometry": {
        "type": "LineString",
        "coordinates": [
          [
            73.8512617,
            15.388825
          ],
          [
            73.851245,
            15.3888217
          ]
        ]
      },
      "properties": {
        "Vehicle_No": "GA 07 G 0819-VAS(WATER/FOAM TENDER)",
        "Vehicle_Name": "4G",
        "Branch": "Fire Station Vasco",
        "created": "04-12-2025 07:37:06",
        "lastUpdated": "04-12-2025 09:05:09"
      }
    },
    {
      "type": "Feature",
      "geometry": {
        "type": "LineString",
        "coordinates": [
          [
            73.970215,
            15.2694483
          ],
          [
            73.9702316,
            15.2694766
          ]
        ]
      },
      "properties": {
        "Vehicle_No": "GA 07 G 7100-MRG(WATER BOUSER)",
        "Vehicle_Name": "5035",
        "Branch": "Fire Station Margao",
        "created": "04-12-2025 07:37:02",
        "lastUpdated": "04-12-2025 11:21:31"
      }
    },
    {
      "type": "Feature",
      "geometry": {
        "type": "LineString",
        "coordinates": [
          [
            73.9710116,
            15.2687866
          ],
          [
            73.970305,
            15.2693366
          ]
        ]
      },
      "properties": {
        "Vehicle_No": "GA 07 G 1568-MRG(QUICK RESPONSE )",
        "Vehicle_Name": "5035",
        "Branch": "Fire Station Margao",
        "created": "04-12-2025 07:36:51",
        "lastUpdated": "04-12-2025 09:35:03"
      }
    },
    {
      "type": "Feature",
      "geometry": {
        "type": "LineString",
        "coordinates": [
          [
            73.9704099,
            15.269245
          ],
          [
            73.96997,
            15.2693866
          ],
          [
            73.9702716,
            15.2694166
          ]
        ]
      },
      "properties": {
        "Vehicle_No": "GA 07 G 6101-MRG(WATER TENDER)",
        "Vehicle_Name": "5035",
        "Branch": "Fire Station Margao",
        "created": "04-12-2025 07:36:37",
        "lastUpdated": "04-12-2025 11:48:35"
      }
    },
    {
      "type": "Feature",
      "geometry": {
        "type": "LineString",
        "coordinates": [
          [
            73.9105466,
            15.5017216
          ],
          [
            73.9476316,
            15.4928349
          ],
          [
            74.0097249,
            15.3701166
          ],
          [
            73.9701333,
            15.2693916
          ],
          [
            73.9701333,
            15.2694066
          ],
          [
            73.9702066,
            15.2695066
          ]
        ]
      },
      "properties": {
        "Vehicle_No": "GA 07 G 1001-MRG(AERIAL LADDER PLATFORM)",
        "Vehicle_Name": "5035",
        "Branch": "Fire Station Margao",
        "created": "04-12-2025 07:36:26",
        "lastUpdated": "04-12-2025 11:48:01"
      }
    },
    {
      "type": "Feature",
      "geometry": {
        "type": "LineString",
        "coordinates": [
          [
            74.0027767,
            15.4028206
          ]
        ]
      },
      "properties": {
        "Vehicle_No": "GA 07 G 0820-BIC(WATER TEDNER)",
        "Vehicle_Name": "5026",
        "Branch": "Fire Station Bicholim",
        "created": "04-12-2025 07:36:23",
        "lastUpdated": "04-12-2025 07:36:23"
      }
    },
    {
      "type": "Feature",
      "geometry": {
        "type": "LineString",
        "coordinates": [
          [
            73.9140133,
            15.5003966
          ],
          [
            73.9099533,
            15.5012166
          ],
          [
            73.9139816,
            15.5002733
          ],
          [
            73.9139483,
            15.5002933
          ]
        ]
      },
      "properties": {
        "Vehicle_No": "GA 07 G 5101-OLG(MS WATER TENDER)",
        "Vehicle_Name": "5035",
        "Branch": "Fire Station Old Goa",
        "created": "04-12-2025 07:36:27",
        "lastUpdated": "04-12-2025 10:08:59"
      }
    },
    {
      "type": "Feature",
      "geometry": {
        "type": "LineString",
        "coordinates": [
          [
            73.946215,
            15.5889216
          ],
          [
            73.9462816,
            15.5885033
          ],
          [
            73.9462883,
            15.5891016
          ],
          [
            73.9465,
            15.5891233
          ],
          [
            73.9466549,
            15.5894433
          ],
          [
            73.9465733,
            15.5893366
          ],
          [
            73.9468833,
            15.5887966
          ]
        ]
      },
      "properties": {
        "Vehicle_No": "GA 07 G 3101-BIC(MS WATER TENDER)",
        "Vehicle_Name": "5035",
        "Branch": "Fire Station Bicholim",
        "created": "04-12-2025 07:37:00",
        "lastUpdated": "04-12-2025 11:10:24"
      }
    },
    {
      "type": "Feature",
      "geometry": {
        "type": "LineString",
        "coordinates": [
          [
            73.91316,
            15.501265
          ],
          [
            73.9141683,
            15.5002299
          ]
        ]
      },
      "properties": {
        "Vehicle_No": "GA 07 G 1941-BIC(QUICK RESPONSE)",
        "Vehicle_Name": "5035",
        "Branch": "Fire Station Bicholim",
        "created": "04-12-2025 07:36:18",
        "lastUpdated": "04-12-2025 10:09:52"
      }
    },
    {
      "type": "Feature",
      "geometry": {
        "type": "LineString",
        "coordinates": [
          [
            73.851245,
            15.3888516
          ]
        ]
      },
      "properties": {
        "Vehicle_No": "GA 07 G 2319-VAS (EMERGENCY RESCUE TENDER)",
        "Vehicle_Name": "5035",
        "Branch": "Fire Station Vasco",
        "created": "04-12-2025 07:36:33",
        "lastUpdated": "04-12-2025 07:36:33"
      }
    },
    {
      "type": "Feature",
      "geometry": {
        "type": "LineString",
        "coordinates": [
          [
            74.1386316,
            15.5309383
          ],
          [
            74.13868,
            15.5309733
          ]
        ]
      },
      "properties": {
        "Vehicle_No": "GA 07 G 3737-VAP(WATER TENDER)",
        "Vehicle_Name": "5035",
        "Branch": "Fire Station Valpoi",
        "created": "04-12-2025 07:37:10",
        "lastUpdated": "04-12-2025 09:05:19"
      }
    },
    {
      "type": "Feature",
      "geometry": {
        "type": "LineString",
        "coordinates": [
          [
            74.0028733,
            15.4027283
          ]
        ]
      },
      "properties": {
        "Vehicle_No": "GA 07 G 2318-PND(EMERGENCY RESCUE TENDER)",
        "Vehicle_Name": "5035",
        "Branch": "Fire Station Ponda",
        "created": "04-12-2025 07:36:51",
        "lastUpdated": "04-12-2025 07:36:51"
      }
    },
    {
      "type": "Feature",
      "geometry": {
        "type": "LineString",
        "coordinates": [
          [
            73.91023,
            15.5018783
          ],
          [
            73.9142816,
            15.5001766
          ],
          [
            73.9630866,
            15.47118
          ],
          [
            73.9666416,
            15.4576883
          ],
          [
            74.0492916,
            15.4230283
          ]
        ]
      },
      "properties": {
        "Vehicle_No": "GA 07 G 2004-PND(QUICK RESPONSE)",
        "Vehicle_Name": "5035",
        "Branch": "Fire Station Ponda",
        "created": "04-12-2025 07:36:43",
        "lastUpdated": "04-12-2025 11:48:40"
      }
    },
    {
      "type": "Feature",
      "geometry": {
        "type": "LineString",
        "coordinates": [
          [
            74.0028083,
            15.4027683
          ]
        ]
      },
      "properties": {
        "Vehicle_No": "GA 07 G 9101-PND(WATER TENDER)",
        "Vehicle_Name": "5035",
        "Branch": "Fire Station Ponda",
        "created": "04-12-2025 07:36:54",
        "lastUpdated": "04-12-2025 07:36:54"
      }
    },
    {
      "type": "Feature",
      "geometry": {
        "type": "LineString",
        "coordinates": [
          [
            73.910425,
            15.5014283
          ],
          [
            73.9205566,
            15.4985716
          ],
          [
            73.98785,
            15.4147099
          ],
          [
            74.002685,
            15.4029016
          ],
          [
            74.00267,
            15.4028416
          ]
        ]
      },
      "properties": {
        "Vehicle_No": "GA 07 G 9797-PND(WATER BOUSER)",
        "Vehicle_Name": "5035",
        "Branch": "Fire Station Ponda",
        "created": "04-12-2025 07:37:06",
        "lastUpdated": "04-12-2025 10:25:12"
      }
    },
    {
      "type": "Feature",
      "geometry": {
        "type": "LineString",
        "coordinates": [
          [
            74.04406,
            15.023615
          ]
        ]
      },
      "properties": {
        "Vehicle_No": "GA 07 G 6363-CAN(WATER TENDER)",
        "Vehicle_Name": "5035",
        "Branch": "Fire Station Canacona",
        "created": "03-12-2025 13:11:25",
        "lastUpdated": "03-12-2025 13:11:25"
      }
    },
    {
      "type": "Feature",
      "geometry": {
        "type": "LineString",
        "coordinates": [
          [
            74.1064866,
            14.992675
          ],
          [
            74.1070233,
            14.9943866
          ],
          [
            74.1070066,
            14.9943566
          ]
        ]
      },
      "properties": {
        "Vehicle_No": "GA 07 G 1567-CAN(QUICK RESPONSE FT)",
        "Vehicle_Name": "5035",
        "Branch": "Fire Station Canacona",
        "created": "04-12-2025 07:36:56",
        "lastUpdated": "04-12-2025 11:10:46"
      }
    },
    {
      "type": "Feature",
      "geometry": {
        "type": "LineString",
        "coordinates": [
          [
            74.10656,
            14.9927449
          ]
        ]
      },
      "properties": {
        "Vehicle_No": "GA 07 G 1569-VRN(QUICK RESPONSE)",
        "Vehicle_Name": "5035",
        "Branch": "Fire Station Verna",
        "created": "04-12-2025 07:36:56",
        "lastUpdated": "04-12-2025 07:36:56"
      }
    },
    {
      "type": "Feature",
      "geometry": {
        "type": "LineString",
        "coordinates": [
          [
            73.935815,
            15.36982
          ],
          [
            73.935515,
            15.3697433
          ],
          [
            73.93593,
            15.3696466
          ],
          [
            73.9355383,
            15.3698483
          ]
        ]
      },
      "properties": {
        "Vehicle_No": "GA 07 G 9909-VRN(ADVANCE MULTI-PURPOSE)",
        "Vehicle_Name": "5035",
        "Branch": "Fire Station Verna",
        "created": "04-12-2025 07:36:30",
        "lastUpdated": "04-12-2025 11:48:17"
      }
    },
    {
      "type": "Feature",
      "geometry": {
        "type": "LineString",
        "coordinates": [
          [
            73.913355,
            15.5043249
          ],
          [
            73.9141683,
            15.5002433
          ],
          [
            73.9100916,
            15.5006433
          ],
          [
            73.9141933,
            15.5001933
          ]
        ]
      },
      "properties": {
        "Vehicle_No": "GA 07 G 1942-VAP(QUICK RESPONSE)",
        "Vehicle_Name": "5035",
        "Branch": "Fire Station Valpoi",
        "created": "04-12-2025 07:36:46",
        "lastUpdated": "04-12-2025 10:52:18"
      }
    },
    {
      "type": "Feature",
      "geometry": {
        "type": "LineString",
        "coordinates": [
          [
            74.10363,
            15.26004
          ],
          [
            74.1035566,
            15.2604883
          ]
        ]
      },
      "properties": {
        "Vehicle_No": "GA 07 G 2003-CUR(QUICK RESPONSE)",
        "Vehicle_Name": "5035",
        "Branch": "Fire Station Curchorem",
        "created": "04-12-2025 07:37:14",
        "lastUpdated": "04-12-2025 10:51:42"
      }
    },
    {
      "type": "Feature",
      "geometry": {
        "type": "LineString",
        "coordinates": [
          [
            74.1037033,
            15.2604433
          ]
        ]
      },
      "properties": {
        "Vehicle_No": "GA 07 G 7447-CUR(EMERGENCY RESCUE)",
        "Vehicle_Name": "5035",
        "Branch": "Fire Station Curchorem",
        "created": "04-12-2025 07:36:58",
        "lastUpdated": "04-12-2025 07:36:58"
      }
    },
    {
      "type": "Feature",
      "geometry": {
        "type": "LineString",
        "coordinates": [
          [
            74.10345,
            15.2604266
          ],
          [
            74.1036533,
            15.2603816
          ],
          [
            74.1036783,
            15.2603783
          ]
        ]
      },
      "properties": {
        "Vehicle_No": "GA 07 G 7557-CUR(WATER TENDER)",
        "Vehicle_Name": "5035",
        "Branch": "Fire Station Curchorem",
        "created": "04-12-2025 07:36:43",
        "lastUpdated": "04-12-2025 10:09:15"
      }
    },
    {
      "type": "Feature",
      "geometry": {
        "type": "LineString",
        "coordinates": [
          [
            74.1038416,
            15.2603416
          ]
        ]
      },
      "properties": {
        "Vehicle_No": "GA 07 G 7667-CUR(WATER BOUSER)",
        "Vehicle_Name": "5035",
        "Branch": "Fire Station Curchorem",
        "created": "01-12-2025 11:39:29",
        "lastUpdated": "01-12-2025 11:39:29"
      }
    },
    {
      "type": "Feature",
      "geometry": {
        "type": "LineString",
        "coordinates": [
          [
            73.9722417,
            15.46349
          ],
          [
            73.9729983,
            15.4619917
          ],
          [
            73.971785,
            15.462575
          ],
          [
            73.9755133,
            15.47914
          ],
          [
            73.9721767,
            15.4631767
          ],
          [
            73.9714767,
            15.4637233
          ],
          [
            73.9729333,
            15.4642067
          ],
          [
            73.9725417,
            15.46305
          ],
          [
            73.973185,
            15.4634367
          ]
        ]
      },
      "properties": {
        "Vehicle_No": "GA 07 G 4989-KUN(WATER TENDER)",
        "Vehicle_Name": "G-100",
        "Branch": "Fire Station Kundaim",
        "created": "04-12-2025 07:36:53",
        "lastUpdated": "04-12-2025 11:46:45"
      }
    },
    {
      "type": "Feature",
      "geometry": {
        "type": "LineString",
        "coordinates": [
          [
            73.7940644,
            15.5329389
          ],
          [
            73.7939878,
            15.5329183
          ],
          [
            73.79084,
            15.53185
          ],
          [
            73.7938956,
            15.5329406
          ],
          [
            73.7941483,
            15.5329483
          ]
        ]
      },
      "properties": {
        "Vehicle_No": "GA 07 G 2242-PIL(WATER TENDER)",
        "Vehicle_Name": "5026",
        "Branch": "Fire Station Pilerne",
        "created": "04-12-2025 07:36:35",
        "lastUpdated": "04-12-2025 11:46:47"
      }
    },
    {
      "type": "Feature",
      "geometry": {
        "type": "LineString",
        "coordinates": [
          [
            73.80874,
            15.5897583
          ],
          [
            73.8088217,
            15.5906783
          ],
          [
            73.8572917,
            15.6663783
          ]
        ]
      },
      "properties": {
        "Vehicle_No": "GA 07 G 0681-MAP(QUICK RESPONSE)",
        "Vehicle_Name": "AT 5036A-4G",
        "Branch": "Fire Station Mapusa",
        "created": "04-12-2025 07:37:11",
        "lastUpdated": "04-12-2025 11:48:37"
      }
    },
    {
      "type": "Feature",
      "geometry": {
        "type": "LineString",
        "coordinates": [
          [
            73.7974239,
            15.7164939
          ]
        ]
      },
      "properties": {
        "Vehicle_No": "GA 07 G 0307-PER(QUICK RESPONSE)",
        "Vehicle_Name": "AT5032-4G",
        "Branch": "Fire Station Pernem",
        "created": "23-10-2025 15:19:09",
        "lastUpdated": "23-10-2025 15:19:09"
      }
    },
    {
      "type": "Feature",
      "geometry": {
        "type": "LineString",
        "coordinates": [
          [
            73.7974622,
            15.7164683
          ],
          [
            73.79752,
            15.7163811
          ]
        ]
      },
      "properties": {
        "Vehicle_No": "GA 07 G 2101-PER(MS WATER TENDER)",
        "Vehicle_Name": "AT5032-4G",
        "Branch": "Fire Station Pernem",
        "created": "04-12-2025 07:36:06",
        "lastUpdated": "04-12-2025 10:51:34"
      }
    },
    {
      "type": "Feature",
      "geometry": {
        "type": "LineString",
        "coordinates": [
          [
            73.7975283,
            15.7165306
          ],
          [
            73.7975844,
            15.7165161
          ],
          [
            73.7975283,
            15.7165156
          ],
          [
            73.7974983,
            15.7165128
          ]
        ]
      },
      "properties": {
        "Vehicle_No": "GA 07 G 4600-PER(MINI RESCUE TENDER)",
        "Vehicle_Name": "AT 5032-4G",
        "Branch": "Fire Station Pernem",
        "created": "04-12-2025 07:35:12",
        "lastUpdated": "04-12-2025 11:19:29"
      }
    },
    {
      "type": "Feature",
      "geometry": {
        "type": "LineString",
        "coordinates": [
          [
            73.8171539,
            15.4872128
          ],
          [
            73.8168144,
            15.4870533
          ],
          [
            73.8177461,
            15.4882672
          ],
          [
            73.8172689,
            15.4872344
          ]
        ]
      },
      "properties": {
        "Vehicle_No": "GA 07 G 7272-PNJ(WATER TENDER)",
        "Vehicle_Name": "AT-5032-4G",
        "Branch": "Fire Station Panaji",
        "created": "04-12-2025 07:36:25",
        "lastUpdated": "04-12-2025 11:46:08"
      }
    },
    {
      "type": "Feature",
      "geometry": {
        "type": "LineString",
        "coordinates": [
          [
            74.0209944,
            15.1862583
          ],
          [
            73.9897956,
            15.1812083
          ],
          [
            73.9993128,
            15.1796894
          ],
          [
            74.0210006,
            15.1862328
          ],
          [
            74.0210217,
            15.1862817
          ]
        ]
      },
      "properties": {
        "Vehicle_No": "GA07G2384- Cuncolim",
        "Vehicle_Name": "AT 5032-4G",
        "Branch": "Fire Station Cuncolim",
        "created": "04-12-2025 07:35:28",
        "lastUpdated": "04-12-2025 11:20:35"
      }
    },
    {
      "type": "Feature",
      "geometry": {
        "type": "LineString",
        "coordinates": [
          [
            73.7976067,
            15.71571
          ]
        ]
      },
      "properties": {
        "Vehicle_No": "GA07G2507",
        "Vehicle_Name": "5035",
        "Branch": "Fire Station Pernem",
        "created": "04-12-2025 07:36:32",
        "lastUpdated": "04-12-2025 07:36:32"
      }
    },
    {
      "type": "Feature",
      "geometry": {
        "type": "LineString",
        "coordinates": [
          [
            74.1066083,
            14.9926967
          ],
          [
            74.1065433,
            14.9927567
          ]
        ]
      },
      "properties": {
        "Vehicle_No": "GA07G2505 - Mid Size (Water Tender)",
        "Vehicle_Name": "5035",
        "Branch": "Fire Station Valpoi",
        "created": "04-12-2025 07:36:31",
        "lastUpdated": "04-12-2025 09:04:51"
      }
    },
    {
      "type": "Feature",
      "geometry": {
        "type": "LineString",
        "coordinates": [
          [
            73.9466467,
            15.5893267
          ],
          [
            73.9465817,
            15.58949
          ]
        ]
      },
      "properties": {
        "Vehicle_No": "GA07G2504 - Mid Size (Water Tender)",
        "Vehicle_Name": "5035",
        "Branch": "Fire Station Bicholim",
        "created": "04-12-2025 07:36:50",
        "lastUpdated": "04-12-2025 09:05:01"
      }
    },
    {
      "type": "Feature",
      "geometry": {
        "type": "LineString",
        "coordinates": [
          [
            73.8325517,
            15.640935
          ],
          [
            73.8087567,
            15.5899317
          ],
          [
            73.824275,
            15.6091417
          ],
          [
            73.8701167,
            15.6264867
          ],
          [
            73.8858967,
            15.622355
          ]
        ]
      },
      "properties": {
        "Vehicle_No": "GA07G2503-Mid Size (Water Tender)",
        "Vehicle_Name": "5035",
        "Branch": "Fire Station Mapusa",
        "created": "04-12-2025 07:37:11",
        "lastUpdated": "04-12-2025 11:48:43"
      }
    },
    {
      "type": "Feature",
      "geometry": {
        "type": "LineString",
        "coordinates": [
          [
            73.8172283,
            15.4871683
          ],
          [
            73.82439,
            15.5346417
          ],
          [
            73.833935,
            15.5378417
          ]
        ]
      },
      "properties": {
        "Vehicle_No": "GA07G2502 - Mid Size (Water Tender)",
        "Vehicle_Name": "5035",
        "Branch": "Fire Force Headquarters",
        "created": "04-12-2025 07:36:25",
        "lastUpdated": "04-12-2025 09:34:21"
      }
    }
  ]
}