{
  "type": "FeatureCollection",
  "metadata": {
    "date": "20260129",
    "source": "Directorate of Fire Emergency Services, Govt. of Goa",
    "description": "Daily GPS tracks of fire trucks",
    "lastUpdated": "2026-01-29T02:20:43.354Z",
    "count": 51
  },
  "features": [
    {
      "type": "Feature",
      "geometry": {
        "type": "LineString",
        "coordinates": [
          [
            73.8170167,
            15.486485
          ]
        ]
      },
      "properties": {
        "Vehicle_No": "GA 07 G 0680-PIL(QUICK RESPONSE VEHICLE)",
        "Vehicle_Name": "4G",
        "Branch": "Fire Station Pilerne",
        "created": "29-01-2026 05:29:59+05:30",
        "lastUpdated": "29-01-2026 05:29:59+05:30"
      }
    },
    {
      "type": "Feature",
      "geometry": {
        "type": "LineString",
        "coordinates": [
          [
            73.914055,
            15.50031
          ],
          [
            73.914085,
            15.500255
          ]
        ]
      },
      "properties": {
        "Vehicle_No": "GA07G2506 - OLG Mid Size (Water Tender)",
        "Vehicle_Name": "TS101",
        "Branch": "Fire Station Old Goa",
        "created": "29-01-2026 05:27:06+05:30",
        "lastUpdated": "29-01-2026 05:31:10+05:30"
      }
    },
    {
      "type": "Feature",
      "geometry": {
        "type": "LineString",
        "coordinates": [
          [
            73.8293,
            15.52306
          ],
          [
            73.829277,
            15.523033
          ],
          [
            73.829308,
            15.522962
          ],
          [
            73.829323,
            15.522972
          ]
        ]
      },
      "properties": {
        "Vehicle_No": "GA 07 G 5115-POR(MINI WATER TENDER)",
        "Vehicle_Name": "TS101",
        "Branch": "Fire Station Porvorim",
        "created": "29-01-2026 05:30:08+05:30",
        "lastUpdated": "29-01-2026 07:50:37+05:30"
      }
    },
    {
      "type": "Feature",
      "geometry": {
        "type": "LineString",
        "coordinates": [
          [
            73.945061,
            15.135083
          ],
          [
            73.945068,
            15.135092
          ]
        ]
      },
      "properties": {
        "Vehicle_No": "GA 07 G 0350-MRG(WATER TENDER)",
        "Vehicle_Name": "TS101",
        "Branch": "Fire Station Margao",
        "created": "29-01-2026 05:28:56+05:30",
        "lastUpdated": "29-01-2026 05:30:52+05:30"
      }
    },
    {
      "type": "Feature",
      "geometry": {
        "type": "LineString",
        "coordinates": [
          [
            73.808739,
            15.589958
          ],
          [
            73.808708,
            15.589888
          ]
        ]
      },
      "properties": {
        "Vehicle_No": "GA 07 G 2900-MAP(MINI RESCUE TENDER)",
        "Vehicle_Name": "TS101",
        "Branch": "Fire Station Mapusa",
        "created": "29-01-2026 05:29:54+05:30",
        "lastUpdated": "29-01-2026 05:33:56+05:30"
      }
    },
    {
      "type": "Feature",
      "geometry": {
        "type": "LineString",
        "coordinates": [
          [
            73.817154,
            15.487183
          ]
        ]
      },
      "properties": {
        "Vehicle_No": "GA 07 G 7600-FFHQ(WATER BOUSER)",
        "Vehicle_Name": "TS101",
        "Branch": "Fire Force Headquarters",
        "created": "29-01-2026 05:30:11+05:30",
        "lastUpdated": "29-01-2026 05:30:11+05:30"
      }
    },
    {
      "type": "Feature",
      "geometry": {
        "type": "LineString",
        "coordinates": [
          [
            73.817184,
            15.487428
          ],
          [
            73.817299,
            15.487388
          ]
        ]
      },
      "properties": {
        "Vehicle_No": "GA 07 G 2002-FFHQ(TURN TABLE LADDER)",
        "Vehicle_Name": "TS101",
        "Branch": "Fire Force Headquarters",
        "created": "29-01-2026 05:30:09+05:30",
        "lastUpdated": "29-01-2026 07:50:40+05:30"
      }
    },
    {
      "type": "Feature",
      "geometry": {
        "type": "LineString",
        "coordinates": [
          [
            73.817017,
            15.486833
          ],
          [
            73.817146,
            15.486822
          ],
          [
            73.816902,
            15.486453
          ],
          [
            73.817177,
            15.486398
          ],
          [
            73.8172,
            15.486403
          ],
          [
            73.817215,
            15.486415
          ],
          [
            73.817055,
            15.486873
          ]
        ]
      },
      "properties": {
        "Vehicle_No": "GA 07 G 7101-FFHQ(WATER TENDER)",
        "Vehicle_Name": "TS101",
        "Branch": "Fire Force Headquarters",
        "created": "29-01-2026 05:28:41+05:30",
        "lastUpdated": "29-01-2026 06:55:13+05:30"
      }
    },
    {
      "type": "Feature",
      "geometry": {
        "type": "LineString",
        "coordinates": [
          [
            73.817261,
            15.486953
          ]
        ]
      },
      "properties": {
        "Vehicle_No": "GA 07 G 7677-FFHQ(EMERGENCY RESCUE)",
        "Vehicle_Name": "TS101",
        "Branch": "Fire Force Headquarters",
        "created": "24-01-2026 15:04:10+05:30",
        "lastUpdated": "24-01-2026 15:04:10+05:30"
      }
    },
    {
      "type": "Feature",
      "geometry": {
        "type": "LineString",
        "coordinates": [
          [
            73.817284,
            15.48722
          ],
          [
            73.817268,
            15.487278
          ]
        ]
      },
      "properties": {
        "Vehicle_No": "GA 07 G 1121-PNJ(EMERGENCY RESCUE)",
        "Vehicle_Name": "TS101",
        "Branch": "Fire Station Panaji",
        "created": "29-01-2026 05:28:17+05:30",
        "lastUpdated": "29-01-2026 05:32:22+05:30"
      }
    },
    {
      "type": "Feature",
      "geometry": {
        "type": "LineString",
        "coordinates": [
          [
            73.81752,
            15.486602
          ],
          [
            73.817375,
            15.486475
          ],
          [
            73.817612,
            15.486407
          ],
          [
            73.817383,
            15.486627
          ],
          [
            73.817116,
            15.486398
          ],
          [
            73.817162,
            15.48647
          ],
          [
            73.817192,
            15.486457
          ],
          [
            73.8172,
            15.486428
          ],
          [
            73.817162,
            15.486437
          ],
          [
            73.817154,
            15.486462
          ]
        ]
      },
      "properties": {
        "Vehicle_No": "GA 07 G 1571-FFHQ(QUICK RESPONSE)",
        "Vehicle_Name": "TS101",
        "Branch": "Fire Force Headquarters",
        "created": "29-01-2026 05:29:31+05:30",
        "lastUpdated": "29-01-2026 07:50:36+05:30"
      }
    },
    {
      "type": "Feature",
      "geometry": {
        "type": "LineString",
        "coordinates": [
          [
            73.808617,
            15.589915
          ],
          [
            73.808586,
            15.589857
          ],
          [
            73.808762,
            15.590242
          ],
          [
            73.808754,
            15.590245
          ],
          [
            73.808746,
            15.590233
          ],
          [
            73.808746,
            15.59023
          ],
          [
            73.808777,
            15.589893
          ]
        ]
      },
      "properties": {
        "Vehicle_No": "GA 07 G 8101-MAP(WATER TENDER)",
        "Vehicle_Name": "TS101",
        "Branch": "Fire Station Mapusa",
        "created": "29-01-2026 05:29:19+05:30",
        "lastUpdated": "29-01-2026 07:49:09+05:30"
      }
    },
    {
      "type": "Feature",
      "geometry": {
        "type": "LineString",
        "coordinates": [
          [
            73.9700766,
            15.2693616
          ],
          [
            73.9701583,
            15.2693433
          ],
          [
            73.970035,
            15.26945
          ],
          [
            73.97015,
            15.2693366
          ],
          [
            73.970035,
            15.2693733
          ],
          [
            73.969995,
            15.2693583
          ],
          [
            73.9698566,
            15.2694416
          ],
          [
            73.9701166,
            15.26941
          ],
          [
            73.9702066,
            15.2693433
          ],
          [
            73.9700933,
            15.26941
          ],
          [
            73.9700766,
            15.2693516
          ],
          [
            73.970085,
            15.26938
          ],
          [
            73.9700116,
            15.26947
          ],
          [
            73.9699383,
            15.269515
          ],
          [
            73.9701333,
            15.26945
          ],
          [
            73.969955,
            15.269415
          ],
          [
            73.969955,
            15.26935
          ],
          [
            73.9699633,
            15.2694616
          ],
          [
            73.97019,
            15.2693783
          ],
          [
            73.9701583,
            15.2694016
          ],
          [
            73.970085,
            15.2692533
          ],
          [
            73.9700283,
            15.2692733
          ],
          [
            73.969905,
            15.2694033
          ],
          [
            73.97002,
            15.2693066
          ],
          [
            73.9699866,
            15.269385
          ],
          [
            73.9699633,
            15.2693583
          ],
          [
            73.9701416,
            15.2693866
          ],
          [
            73.9701016,
            15.2694166
          ],
          [
            73.9700283,
            15.269425
          ],
          [
            73.97019,
            15.269295
          ],
          [
            73.9701016,
            15.2693233
          ],
          [
            73.97019,
            15.2694266
          ],
          [
            73.9702233,
            15.26941
          ],
          [
            73.9700283,
            15.2694383
          ],
          [
            73.97015,
            15.26938
          ],
          [
            73.9701016,
            15.2694266
          ],
          [
            73.970125,
            15.2694266
          ],
          [
            73.9701983,
            15.26937
          ],
          [
            73.96993,
            15.269605
          ],
          [
            73.9701583,
            15.2694216
          ],
          [
            73.970085,
            15.2693683
          ],
          [
            73.9699133,
            15.2696066
          ],
          [
            73.9701083,
            15.2694683
          ],
          [
            73.9701333,
            15.26937
          ],
          [
            73.9700933,
            15.2692833
          ],
          [
            73.9700933,
            15.2693733
          ],
          [
            73.97006,
            15.2693783
          ],
          [
            73.9701016,
            15.2694766
          ],
          [
            73.9700116,
            15.2694133
          ],
          [
            73.9700433,
            15.2694866
          ],
          [
            73.96997,
            15.2694316
          ],
          [
            73.9702066,
            15.269295
          ],
          [
            73.9701666,
            15.2694033
          ],
          [
            73.970215,
            15.2693933
          ],
          [
            73.9702633,
            15.26937
          ],
          [
            73.9699383,
            15.2693566
          ],
          [
            73.970035,
            15.2694983
          ],
          [
            73.970215,
            15.26941
          ],
          [
            73.97015,
            15.2692733
          ],
          [
            73.97006,
            15.2695366
          ],
          [
            73.9701983,
            15.2693666
          ],
          [
            73.9701666,
            15.2693833
          ],
          [
            73.9700933,
            15.2693066
          ],
          [
            73.9701816,
            15.269355
          ],
          [
            73.970215,
            15.269355
          ],
          [
            73.9701416,
            15.26935
          ],
          [
            73.9702316,
            15.2694583
          ],
          [
            73.9701666,
            15.269415
          ],
          [
            73.9702066,
            15.2693566
          ],
          [
            73.970255,
            15.2692933
          ],
          [
            73.9702066,
            15.2693316
          ],
          [
            73.9702716,
            15.2693783
          ],
          [
            73.9701666,
            15.26931
          ],
          [
            73.9699783,
            15.2694199
          ],
          [
            73.9702883,
            15.2693416
          ],
          [
            73.9702466,
            15.2693416
          ],
          [
            73.970305,
            15.2692383
          ],
          [
            73.970125,
            15.2692866
          ],
          [
            73.9701816,
            15.269235
          ],
          [
            73.9702233,
            15.269265
          ],
          [
            73.9701083,
            15.269295
          ],
          [
            73.9698483,
            15.2693583
          ],
          [
            73.9700766,
            15.2692916
          ],
          [
            73.970035,
            15.2691983
          ],
          [
            73.97006,
            15.2692366
          ],
          [
            73.9700033,
            15.2693333
          ],
          [
            73.96989,
            15.269365
          ],
          [
            73.9702716,
            15.2694383
          ],
          [
            73.97024,
            15.2693766
          ],
          [
            73.9702233,
            15.2695183
          ],
          [
            73.9698733,
            15.269595
          ],
          [
            73.9701666,
            15.2693933
          ],
          [
            73.9701733,
            15.2694133
          ],
          [
            73.9701983,
            15.269415
          ]
        ]
      },
      "properties": {
        "Vehicle_No": "GA 07 G 2317-MRG(EMERGENCY RESCUE TENDER)",
        "Vehicle_Name": "5035",
        "Branch": "Fire Station Margao",
        "created": "29-01-2026 05:29:46+05:30",
        "lastUpdated": "29-01-2026 07:50:06+05:30"
      }
    },
    {
      "type": "Feature",
      "geometry": {
        "type": "LineString",
        "coordinates": [
          [
            73.8513516,
            15.3887283
          ]
        ]
      },
      "properties": {
        "Vehicle_No": "GA 07 G 1570-VAS(QUICK RESPONSE FIRE TENDER)",
        "Vehicle_Name": "5035",
        "Branch": "Fire Station Vasco",
        "created": "29-01-2026 05:29:57+05:30",
        "lastUpdated": "29-01-2026 05:29:57+05:30"
      }
    },
    {
      "type": "Feature",
      "geometry": {
        "type": "LineString",
        "coordinates": [
          [
            73.8513516,
            15.3888833
          ]
        ]
      },
      "properties": {
        "Vehicle_No": "GA 07 G 4101-VAS(MS WATER TENDER)",
        "Vehicle_Name": "5035",
        "Branch": "Fire Station Vasco",
        "created": "29-01-2026 05:29:21+05:30",
        "lastUpdated": "29-01-2026 05:29:21+05:30"
      }
    },
    {
      "type": "Feature",
      "geometry": {
        "type": "LineString",
        "coordinates": [
          [
            73.8513267,
            15.388765
          ],
          [
            73.851245,
            15.3887983
          ],
          [
            73.8513183,
            15.3887817
          ],
          [
            73.8513267,
            15.3887783
          ],
          [
            73.8513183,
            15.3887333
          ],
          [
            73.85127,
            15.3886783
          ]
        ]
      },
      "properties": {
        "Vehicle_No": "GA 07 G 0819-VAS(WATER/FOAM TENDER)",
        "Vehicle_Name": "4G",
        "Branch": "Fire Station Vasco",
        "created": "29-01-2026 05:29:49+05:30",
        "lastUpdated": "29-01-2026 07:02:50+05:30"
      }
    },
    {
      "type": "Feature",
      "geometry": {
        "type": "LineString",
        "coordinates": [
          [
            73.9479899,
            15.1380883
          ]
        ]
      },
      "properties": {
        "Vehicle_No": "GA 07 G 7100-MRG(WATER BOUSER)",
        "Vehicle_Name": "5035",
        "Branch": "Fire Station Margao",
        "created": "29-01-2026 05:30:00+05:30",
        "lastUpdated": "29-01-2026 05:30:00+05:30"
      }
    },
    {
      "type": "Feature",
      "geometry": {
        "type": "LineString",
        "coordinates": [
          [
            73.97072,
            15.2693616
          ]
        ]
      },
      "properties": {
        "Vehicle_No": "GA 07 G 1568-MRG(QUICK RESPONSE )",
        "Vehicle_Name": "5035",
        "Branch": "Fire Station Margao",
        "created": "29-01-2026 05:29:32+05:30",
        "lastUpdated": "29-01-2026 05:29:32+05:30"
      }
    },
    {
      "type": "Feature",
      "geometry": {
        "type": "LineString",
        "coordinates": [
          [
            73.970305,
            15.2693516
          ]
        ]
      },
      "properties": {
        "Vehicle_No": "GA 07 G 6101-MRG(WATER TENDER)",
        "Vehicle_Name": "5035",
        "Branch": "Fire Station Margao",
        "created": "29-01-2026 05:28:57+05:30",
        "lastUpdated": "29-01-2026 05:28:57+05:30"
      }
    },
    {
      "type": "Feature",
      "geometry": {
        "type": "LineString",
        "coordinates": [
          [
            73.969905,
            15.2695333
          ]
        ]
      },
      "properties": {
        "Vehicle_No": "GA 07 G 1001-MRG(AERIAL LADDER PLATFORM)",
        "Vehicle_Name": "5035",
        "Branch": "Fire Station Margao",
        "created": "23-01-2026 11:19:51+05:30",
        "lastUpdated": "23-01-2026 11:19:51+05:30"
      }
    },
    {
      "type": "Feature",
      "geometry": {
        "type": "LineString",
        "coordinates": [
          [
            74.0028183,
            15.4026789
          ]
        ]
      },
      "properties": {
        "Vehicle_No": "GA 07 G 0820-BIC(WATER TEDNER)",
        "Vehicle_Name": "5026",
        "Branch": "Fire Station Bicholim",
        "created": "29-01-2026 05:28:27+05:30",
        "lastUpdated": "29-01-2026 05:28:27+05:30"
      }
    },
    {
      "type": "Feature",
      "geometry": {
        "type": "LineString",
        "coordinates": [
          [
            73.9140866,
            15.5001483
          ]
        ]
      },
      "properties": {
        "Vehicle_No": "GA 07 G 5101-OLG(MS WATER TENDER)",
        "Vehicle_Name": "5035",
        "Branch": "Fire Station Old Goa",
        "created": "29-01-2026 05:30:01+05:30",
        "lastUpdated": "29-01-2026 05:30:01+05:30"
      }
    },
    {
      "type": "Feature",
      "geometry": {
        "type": "LineString",
        "coordinates": [
          [
            73.9469733,
            15.5894733
          ],
          [
            73.9468016,
            15.5893366
          ],
          [
            73.94707,
            15.5894416
          ],
          [
            73.9469566,
            15.5894066
          ],
          [
            73.9469233,
            15.5891533
          ],
          [
            73.9465983,
            15.5891949
          ],
          [
            73.9467616,
            15.5890966
          ],
          [
            73.9466633,
            15.5891233
          ],
          [
            73.9465583,
            15.589185
          ],
          [
            73.9462883,
            15.5892733
          ],
          [
            73.9463866,
            15.58925
          ],
          [
            73.9460933,
            15.5888533
          ],
          [
            73.9459716,
            15.5887383
          ],
          [
            73.946435,
            15.5894233
          ],
          [
            73.9467283,
            15.5895666
          ],
          [
            73.9466883,
            15.5895533
          ],
          [
            73.9466066,
            15.5894416
          ],
          [
            73.9463616,
            15.5894083
          ],
          [
            73.946785,
            15.5895483
          ],
          [
            73.9466883,
            15.589525
          ],
          [
            73.946525,
            15.5894933
          ],
          [
            73.9470216,
            15.5894666
          ]
        ]
      },
      "properties": {
        "Vehicle_No": "GA 07 G 3101-BIC(MS WATER TENDER)",
        "Vehicle_Name": "5035",
        "Branch": "Fire Station Bicholim",
        "created": "29-01-2026 05:30:06+05:30",
        "lastUpdated": "29-01-2026 07:13:48+05:30"
      }
    },
    {
      "type": "Feature",
      "geometry": {
        "type": "LineString",
        "coordinates": [
          [
            73.9467116,
            15.5894983
          ]
        ]
      },
      "properties": {
        "Vehicle_No": "GA 07 G 1941-BIC(QUICK RESPONSE)",
        "Vehicle_Name": "5035",
        "Branch": "Fire Station Bicholim",
        "created": "29-01-2026 05:29:38+05:30",
        "lastUpdated": "29-01-2026 05:29:38+05:30"
      }
    },
    {
      "type": "Feature",
      "geometry": {
        "type": "LineString",
        "coordinates": [
          [
            73.8512783,
            15.388815
          ]
        ]
      },
      "properties": {
        "Vehicle_No": "GA 07 G 2319-VAS (EMERGENCY RESCUE TENDER)",
        "Vehicle_Name": "5035",
        "Branch": "Fire Station Vasco",
        "created": "29-01-2026 05:29:19+05:30",
        "lastUpdated": "29-01-2026 05:29:19+05:30"
      }
    },
    {
      "type": "Feature",
      "geometry": {
        "type": "LineString",
        "coordinates": [
          [
            74.1386316,
            15.5309633
          ]
        ]
      },
      "properties": {
        "Vehicle_No": "GA 07 G 3737-VAP(WATER TENDER)",
        "Vehicle_Name": "5035",
        "Branch": "Fire Station Valpoi",
        "created": "29-01-2026 05:29:33+05:30",
        "lastUpdated": "29-01-2026 05:29:33+05:30"
      }
    },
    {
      "type": "Feature",
      "geometry": {
        "type": "LineString",
        "coordinates": [
          [
            74.00293,
            15.4026083
          ]
        ]
      },
      "properties": {
        "Vehicle_No": "GA 07 G 2318-PND(EMERGENCY RESCUE TENDER)",
        "Vehicle_Name": "5035",
        "Branch": "Fire Station Ponda",
        "created": "29-01-2026 05:29:18+05:30",
        "lastUpdated": "29-01-2026 05:29:18+05:30"
      }
    },
    {
      "type": "Feature",
      "geometry": {
        "type": "LineString",
        "coordinates": [
          [
            74.0028966,
            15.40259
          ]
        ]
      },
      "properties": {
        "Vehicle_No": "GA 07 G 2004-PND(QUICK RESPONSE)",
        "Vehicle_Name": "5035",
        "Branch": "Fire Station Ponda",
        "created": "29-01-2026 05:29:46+05:30",
        "lastUpdated": "29-01-2026 05:29:46+05:30"
      }
    },
    {
      "type": "Feature",
      "geometry": {
        "type": "LineString",
        "coordinates": [
          [
            74.0026533,
            15.4027033
          ],
          [
            74.0028816,
            15.402665
          ]
        ]
      },
      "properties": {
        "Vehicle_No": "GA 07 G 9101-PND(WATER TENDER)",
        "Vehicle_Name": "5035",
        "Branch": "Fire Station Ponda",
        "created": "29-01-2026 05:29:33+05:30",
        "lastUpdated": "29-01-2026 05:30:31+05:30"
      }
    },
    {
      "type": "Feature",
      "geometry": {
        "type": "LineString",
        "coordinates": [
          [
            73.9480216,
            15.138115
          ],
          [
            73.9473149,
            15.1342216
          ],
          [
            73.9492683,
            15.13256
          ],
          [
            73.9507733,
            15.1335533
          ]
        ]
      },
      "properties": {
        "Vehicle_No": "GA 07 G 9797-PND(WATER BOUSER)",
        "Vehicle_Name": "5035",
        "Branch": "Fire Station Ponda",
        "created": "29-01-2026 05:30:07+05:30",
        "lastUpdated": "29-01-2026 07:50:39+05:30"
      }
    },
    {
      "type": "Feature",
      "geometry": {
        "type": "LineString",
        "coordinates": [
          [
            74.04406,
            15.0236366
          ]
        ]
      },
      "properties": {
        "Vehicle_No": "GA 07 G 6363-CAN(WATER TENDER)",
        "Vehicle_Name": "5035",
        "Branch": "Fire Station Canacona",
        "created": "28-01-2026 20:02:18+05:30",
        "lastUpdated": "28-01-2026 20:02:18+05:30"
      }
    },
    {
      "type": "Feature",
      "geometry": {
        "type": "LineString",
        "coordinates": [
          [
            73.9455316,
            15.134925
          ],
          [
            73.9455483,
            15.1350416
          ]
        ]
      },
      "properties": {
        "Vehicle_No": "GA 07 G 1567-CAN(QUICK RESPONSE FT)",
        "Vehicle_Name": "5035",
        "Branch": "Fire Station Canacona",
        "created": "29-01-2026 05:29:03+05:30",
        "lastUpdated": "29-01-2026 07:19:15+05:30"
      }
    },
    {
      "type": "Feature",
      "geometry": {
        "type": "LineString",
        "coordinates": [
          [
            73.9455,
            15.135095
          ]
        ]
      },
      "properties": {
        "Vehicle_No": "GA 07 G 1569-VRN(QUICK RESPONSE)",
        "Vehicle_Name": "5035",
        "Branch": "Fire Station Verna",
        "created": "29-01-2026 05:30:08+05:30",
        "lastUpdated": "29-01-2026 05:30:08+05:30"
      }
    },
    {
      "type": "Feature",
      "geometry": {
        "type": "LineString",
        "coordinates": [
          [
            73.93593,
            15.3698966
          ]
        ]
      },
      "properties": {
        "Vehicle_No": "GA 07 G 9909-VRN(ADVANCE MULTI-PURPOSE)",
        "Vehicle_Name": "5035",
        "Branch": "Fire Station Verna",
        "created": "29-01-2026 05:29:35+05:30",
        "lastUpdated": "29-01-2026 05:29:35+05:30"
      }
    },
    {
      "type": "Feature",
      "geometry": {
        "type": "LineString",
        "coordinates": [
          [
            74.1387783,
            15.5310133
          ]
        ]
      },
      "properties": {
        "Vehicle_No": "GA 07 G 1942-VAP(QUICK RESPONSE)",
        "Vehicle_Name": "5035",
        "Branch": "Fire Station Valpoi",
        "created": "29-01-2026 05:29:53+05:30",
        "lastUpdated": "29-01-2026 05:29:53+05:30"
      }
    },
    {
      "type": "Feature",
      "geometry": {
        "type": "LineString",
        "coordinates": [
          [
            74.103605,
            15.2601333
          ],
          [
            74.103785,
            15.2605
          ],
          [
            74.1038983,
            15.26017
          ],
          [
            74.1038983,
            15.2602783
          ],
          [
            74.103695,
            15.2604266
          ],
          [
            74.10363,
            15.260405
          ],
          [
            74.1036866,
            15.2602699
          ],
          [
            74.1036866,
            15.2602766
          ]
        ]
      },
      "properties": {
        "Vehicle_No": "GA 07 G 2003-CUR(QUICK RESPONSE)",
        "Vehicle_Name": "5035",
        "Branch": "Fire Station Curchorem",
        "created": "29-01-2026 05:29:05+05:30",
        "lastUpdated": "29-01-2026 07:15:41+05:30"
      }
    },
    {
      "type": "Feature",
      "geometry": {
        "type": "LineString",
        "coordinates": [
          [
            74.1037433,
            15.2603533
          ]
        ]
      },
      "properties": {
        "Vehicle_No": "GA 07 G 7447-CUR(EMERGENCY RESCUE)",
        "Vehicle_Name": "5035",
        "Branch": "Fire Station Curchorem",
        "created": "29-01-2026 05:29:44+05:30",
        "lastUpdated": "29-01-2026 05:29:44+05:30"
      }
    },
    {
      "type": "Feature",
      "geometry": {
        "type": "LineString",
        "coordinates": [
          [
            74.1034583,
            15.2603833
          ]
        ]
      },
      "properties": {
        "Vehicle_No": "GA 07 G 7557-CUR(WATER TENDER)",
        "Vehicle_Name": "5035",
        "Branch": "Fire Station Curchorem",
        "created": "29-01-2026 05:29:46+05:30",
        "lastUpdated": "29-01-2026 05:29:46+05:30"
      }
    },
    {
      "type": "Feature",
      "geometry": {
        "type": "LineString",
        "coordinates": [
          [
            74.1038566,
            15.2603233
          ]
        ]
      },
      "properties": {
        "Vehicle_No": "GA 07 G 7667-CUR(WATER BOUSER)",
        "Vehicle_Name": "5035",
        "Branch": "Fire Station Curchorem",
        "created": "29-01-2026 05:29:12+05:30",
        "lastUpdated": "29-01-2026 05:29:12+05:30"
      }
    },
    {
      "type": "Feature",
      "geometry": {
        "type": "LineString",
        "coordinates": [
          [
            73.972575,
            15.4626
          ],
          [
            73.9729167,
            15.4630867
          ],
          [
            73.97295,
            15.4628217
          ],
          [
            73.9725417,
            15.4632033
          ],
          [
            73.9730717,
            15.467845
          ],
          [
            73.972795,
            15.4630717
          ],
          [
            73.9731283,
            15.4636533
          ],
          [
            73.9731117,
            15.4636517
          ],
          [
            73.9726967,
            15.463005
          ],
          [
            73.9729567,
            15.4634317
          ],
          [
            73.9728267,
            15.46331
          ],
          [
            73.9724367,
            15.4625033
          ],
          [
            73.9728183,
            15.463195
          ],
          [
            73.9730883,
            15.463815
          ],
          [
            73.9728267,
            15.4641167
          ]
        ]
      },
      "properties": {
        "Vehicle_No": "GA 07 G 4989-KUN(WATER TENDER)",
        "Vehicle_Name": "G-100",
        "Branch": "Fire Station Kundaim",
        "created": "29-01-2026 05:29:02+05:30",
        "lastUpdated": "29-01-2026 07:50:13+05:30"
      }
    },
    {
      "type": "Feature",
      "geometry": {
        "type": "LineString",
        "coordinates": [
          [
            73.7949122,
            15.5330511
          ]
        ]
      },
      "properties": {
        "Vehicle_No": "GA 07 G 2242-PIL(WATER TENDER)",
        "Vehicle_Name": "5026",
        "Branch": "Fire Station Pilerne",
        "created": "29-01-2026 05:29:48+05:30",
        "lastUpdated": "29-01-2026 05:29:48+05:30"
      }
    },
    {
      "type": "Feature",
      "geometry": {
        "type": "LineString",
        "coordinates": [
          [
            73.8087883,
            15.589805
          ]
        ]
      },
      "properties": {
        "Vehicle_No": "GA 07 G 0681-MAP(QUICK RESPONSE)",
        "Vehicle_Name": "AT 5036A-4G",
        "Branch": "Fire Station Mapusa",
        "created": "29-01-2026 05:30:06+05:30",
        "lastUpdated": "29-01-2026 05:30:06+05:30"
      }
    },
    {
      "type": "Feature",
      "geometry": {
        "type": "LineString",
        "coordinates": [
          [
            73.7974406,
            15.7164156
          ]
        ]
      },
      "properties": {
        "Vehicle_No": "GA 07 G 2101-PER(MS WATER TENDER)",
        "Vehicle_Name": "AT5032-4G",
        "Branch": "Fire Station Pernem",
        "created": "29-01-2026 05:27:29+05:30",
        "lastUpdated": "29-01-2026 05:27:29+05:30"
      }
    },
    {
      "type": "Feature",
      "geometry": {
        "type": "LineString",
        "coordinates": [
          [
            73.7975294,
            15.7165522
          ]
        ]
      },
      "properties": {
        "Vehicle_No": "GA 07 G 4600-PER(MINI RESCUE TENDER)",
        "Vehicle_Name": "AT 5032-4G",
        "Branch": "Fire Station Pernem",
        "created": "29-01-2026 05:27:34+05:30",
        "lastUpdated": "29-01-2026 05:27:34+05:30"
      }
    },
    {
      "type": "Feature",
      "geometry": {
        "type": "LineString",
        "coordinates": [
          [
            73.8175122,
            15.4874767
          ]
        ]
      },
      "properties": {
        "Vehicle_No": "GA 07 G 7272-PNJ(WATER TENDER)",
        "Vehicle_Name": "AT-5032-4G",
        "Branch": "Fire Station Panaji",
        "created": "29-01-2026 05:29:57+05:30",
        "lastUpdated": "29-01-2026 05:29:57+05:30"
      }
    },
    {
      "type": "Feature",
      "geometry": {
        "type": "LineString",
        "coordinates": [
          [
            74.0210067,
            15.1862722
          ]
        ]
      },
      "properties": {
        "Vehicle_No": "GA07G2384-CAN(WATER TENDER)",
        "Vehicle_Name": "AT 5032-4G",
        "Branch": "Fire Station Cuncolim",
        "created": "29-01-2026 05:29:03+05:30",
        "lastUpdated": "29-01-2026 05:29:03+05:30"
      }
    },
    {
      "type": "Feature",
      "geometry": {
        "type": "LineString",
        "coordinates": [
          [
            73.7974767,
            15.7164517
          ]
        ]
      },
      "properties": {
        "Vehicle_No": "GA07G2507 - PER Mid Size (Water Tender)",
        "Vehicle_Name": "5035",
        "Branch": "Fire Station Pernem",
        "created": "29-01-2026 05:29:24+05:30",
        "lastUpdated": "29-01-2026 05:29:24+05:30"
      }
    },
    {
      "type": "Feature",
      "geometry": {
        "type": "LineString",
        "coordinates": [
          [
            73.945125,
            15.13494
          ]
        ]
      },
      "properties": {
        "Vehicle_No": "GA07G2505 - VAP Mid Size (Water Tender)",
        "Vehicle_Name": "5035",
        "Branch": "Fire Station Valpoi",
        "created": "29-01-2026 05:29:33+05:30",
        "lastUpdated": "29-01-2026 05:29:33+05:30"
      }
    },
    {
      "type": "Feature",
      "geometry": {
        "type": "LineString",
        "coordinates": [
          [
            73.9466717,
            15.58951
          ],
          [
            73.9465733,
            15.5894067
          ]
        ]
      },
      "properties": {
        "Vehicle_No": "GA07G2504 - BIC Mid Size (Water Tender)",
        "Vehicle_Name": "5035",
        "Branch": "Fire Station Bicholim",
        "created": "29-01-2026 05:29:33+05:30",
        "lastUpdated": "29-01-2026 05:31:34+05:30"
      }
    },
    {
      "type": "Feature",
      "geometry": {
        "type": "LineString",
        "coordinates": [
          [
            73.8086917,
            15.5899683
          ]
        ]
      },
      "properties": {
        "Vehicle_No": "GA07G2503- MAP Mid Size (Water Tender)",
        "Vehicle_Name": "5035",
        "Branch": "Fire Station Mapusa",
        "created": "29-01-2026 05:29:29+05:30",
        "lastUpdated": "29-01-2026 05:29:29+05:30"
      }
    },
    {
      "type": "Feature",
      "geometry": {
        "type": "LineString",
        "coordinates": [
          [
            73.817,
            15.487165
          ],
          [
            73.817155,
            15.4869833
          ],
          [
            73.817025,
            15.4870867
          ],
          [
            73.81696,
            15.4872017
          ],
          [
            73.81709,
            15.4870267
          ],
          [
            73.81709,
            15.4870033
          ],
          [
            73.8168867,
            15.4870883
          ],
          [
            73.8169033,
            15.487075
          ],
          [
            73.81691,
            15.4871067
          ],
          [
            73.8169833,
            15.4871233
          ],
          [
            73.8170083,
            15.4870767
          ],
          [
            73.8170167,
            15.48711
          ],
          [
            73.8170567,
            15.487075
          ],
          [
            73.8171383,
            15.4869767
          ],
          [
            73.81713,
            15.4870217
          ],
          [
            73.81718,
            15.4869283
          ],
          [
            73.81713,
            15.4870083
          ],
          [
            73.8172683,
            15.4869917
          ],
          [
            73.8172767,
            15.48692
          ],
          [
            73.8172933,
            15.4868617
          ],
          [
            73.81718,
            15.486875
          ],
          [
            73.8172283,
            15.486835
          ],
          [
            73.8171867,
            15.4868567
          ],
          [
            73.8169033,
            15.4870883
          ],
          [
            73.81696,
            15.4871683
          ],
          [
            73.816935,
            15.4872233
          ],
          [
            73.816715,
            15.487305
          ],
          [
            73.8169267,
            15.486715
          ],
          [
            73.8170817,
            15.4860367
          ],
          [
            73.81709,
            15.4862733
          ],
          [
            73.8170333,
            15.4864917
          ],
          [
            73.8170167,
            15.4864667
          ],
          [
            73.8170817,
            15.4861883
          ],
          [
            73.8171383,
            15.486305
          ],
          [
            73.8173017,
            15.48616
          ],
          [
            73.81726,
            15.48607
          ],
          [
            73.8174483,
            15.4859533
          ],
          [
            73.817375,
            15.4859617
          ],
          [
            73.8172683,
            15.4860083
          ],
          [
            73.8171717,
            15.4860167
          ],
          [
            73.8173017,
            15.48635
          ],
          [
            73.8172117,
            15.4863667
          ],
          [
            73.8172033,
            15.4863633
          ],
          [
            73.8172117,
            15.4864117
          ],
          [
            73.8172117,
            15.4864383
          ]
        ]
      },
      "properties": {
        "Vehicle_No": "GA07G2502 - FFHQ Mid Size (Water Tender)",
        "Vehicle_Name": "5035",
        "Branch": "Fire Force Headquarters",
        "created": "29-01-2026 05:29:29+05:30",
        "lastUpdated": "29-01-2026 07:47:40+05:30"
      }
    }
  ]
}