{
  "type": "FeatureCollection",
  "metadata": {
    "date": "20251216",
    "source": "Directorate of Fire Emergency Services, Govt. of Goa",
    "description": "Daily GPS tracks of fire trucks",
    "lastUpdated": "2025-12-16T14:25:37.335",
    "count": 52
  },
  "features": [
    {
      "type": "Feature",
      "geometry": {
        "type": "LineString",
        "coordinates": [
          [
            73.7940017,
            15.5326317
          ],
          [
            73.7939933,
            15.5330033
          ],
          [
            73.7938317,
            15.53299
          ]
        ]
      },
      "properties": {
        "Vehicle_No": "GA 07 G 0680-PIL(QUICK RESPONSE VEHICLE)",
        "Vehicle_Name": "4G",
        "Branch": "Fire Station Pilerne",
        "created": "16-12-2025 07:49:47",
        "lastUpdated": "16-12-2025 09:52:24"
      }
    },
    {
      "type": "Feature",
      "geometry": {
        "type": "LineString",
        "coordinates": [
          [
            73.91407,
            15.500353
          ],
          [
            73.914146,
            15.500292
          ],
          [
            73.897697,
            15.488423
          ],
          [
            73.9142,
            15.500258
          ]
        ]
      },
      "properties": {
        "Vehicle_No": "GA07G2506 - Mid Size (Water Tender)",
        "Vehicle_Name": "TS101",
        "Branch": "Fire Station Old Goa",
        "created": "16-12-2025 07:47:05",
        "lastUpdated": "16-12-2025 12:55:33"
      }
    },
    {
      "type": "Feature",
      "geometry": {
        "type": "LineString",
        "coordinates": [
          [
            73.829399,
            15.523
          ],
          [
            73.829353,
            15.522935
          ],
          [
            73.82933,
            15.52309
          ]
        ]
      },
      "properties": {
        "Vehicle_No": "GA 07 G 5115-POR(MINI WATER TENDER)",
        "Vehicle_Name": "TS101",
        "Branch": "Fire Station Porvorim",
        "created": "16-12-2025 07:50:13",
        "lastUpdated": "16-12-2025 11:10:19"
      }
    },
    {
      "type": "Feature",
      "geometry": {
        "type": "LineString",
        "coordinates": [
          [
            73.970589,
            15.269407
          ]
        ]
      },
      "properties": {
        "Vehicle_No": "GA 07 G 0350-MRG(WATER TENDER)",
        "Vehicle_Name": "TS101",
        "Branch": "Fire Station Margao",
        "created": "16-12-2025 07:48:29",
        "lastUpdated": "16-12-2025 07:48:29"
      }
    },
    {
      "type": "Feature",
      "geometry": {
        "type": "LineString",
        "coordinates": [
          [
            73.808815,
            15.589952
          ],
          [
            73.808807,
            15.590035
          ],
          [
            73.80883,
            15.58986
          ],
          [
            73.808777,
            15.58991
          ],
          [
            73.808739,
            15.589888
          ],
          [
            73.808853,
            15.589895
          ]
        ]
      },
      "properties": {
        "Vehicle_No": "GA 07 G 2900-MAP(MINI RESCUE TENDER)",
        "Vehicle_Name": "TS101",
        "Branch": "Fire Station Mapusa",
        "created": "16-12-2025 07:47:20",
        "lastUpdated": "16-12-2025 11:24:02"
      }
    },
    {
      "type": "Feature",
      "geometry": {
        "type": "LineString",
        "coordinates": [
          [
            73.81736,
            15.48734
          ],
          [
            73.817146,
            15.487137
          ],
          [
            73.816742,
            15.485748
          ],
          [
            73.817131,
            15.487143
          ]
        ]
      },
      "properties": {
        "Vehicle_No": "GA 07 G 7600-FFHQ(WATER BOUSER)",
        "Vehicle_Name": "TS101",
        "Branch": "Fire Force Headquarters",
        "created": "16-12-2025 07:46:19",
        "lastUpdated": "16-12-2025 13:13:37"
      }
    },
    {
      "type": "Feature",
      "geometry": {
        "type": "LineString",
        "coordinates": [
          [
            73.81736,
            15.487373
          ],
          [
            73.8172,
            15.487398
          ],
          [
            73.817291,
            15.487415
          ]
        ]
      },
      "properties": {
        "Vehicle_No": "GA 07 G 2002-FFHQ(TURN TABLE LADDER)",
        "Vehicle_Name": "TS101",
        "Branch": "Fire Force Headquarters",
        "created": "16-12-2025 07:45:48",
        "lastUpdated": "16-12-2025 11:10:25"
      }
    },
    {
      "type": "Feature",
      "geometry": {
        "type": "LineString",
        "coordinates": [
          [
            73.851219,
            15.388797
          ],
          [
            73.851273,
            15.38885
          ],
          [
            73.85128,
            15.388845
          ],
          [
            73.851303,
            15.388825
          ]
        ]
      },
      "properties": {
        "Vehicle_No": "GA 07 G 7101-FFHQ(WATER TENDER)",
        "Vehicle_Name": "TS101",
        "Branch": "Fire Force Headquarters",
        "created": "16-12-2025 07:46:21",
        "lastUpdated": "16-12-2025 11:11:55"
      }
    },
    {
      "type": "Feature",
      "geometry": {
        "type": "LineString",
        "coordinates": [
          [
            73.817123,
            15.48643
          ],
          [
            73.817085,
            15.486958
          ],
          [
            73.817116,
            15.48702
          ],
          [
            73.817162,
            15.486998
          ]
        ]
      },
      "properties": {
        "Vehicle_No": "GA 07 G 7677-FFHQ(EMERGENCY RESCUE)",
        "Vehicle_Name": "TS101",
        "Branch": "Fire Force Headquarters",
        "created": "16-12-2025 07:50:15",
        "lastUpdated": "16-12-2025 14:25:22"
      }
    },
    {
      "type": "Feature",
      "geometry": {
        "type": "LineString",
        "coordinates": [
          [
            73.817253,
            15.48726
          ],
          [
            73.817238,
            15.487335
          ],
          [
            73.817245,
            15.4874
          ],
          [
            73.817329,
            15.48725
          ],
          [
            73.817253,
            15.487315
          ]
        ]
      },
      "properties": {
        "Vehicle_No": "GA 07 G 1121-PNJ(EMERGENCY RESCUE)",
        "Vehicle_Name": "TS101",
        "Branch": "Fire Station Panaji",
        "created": "16-12-2025 07:40:10",
        "lastUpdated": "16-12-2025 13:56:53"
      }
    },
    {
      "type": "Feature",
      "geometry": {
        "type": "LineString",
        "coordinates": [
          [
            73.81752,
            15.486697
          ],
          [
            73.81736,
            15.486698
          ],
          [
            73.817261,
            15.486662
          ],
          [
            73.820892,
            15.4986
          ]
        ]
      },
      "properties": {
        "Vehicle_No": "GA 07 G 1571-FFHQ(QUICK RESPONSE)",
        "Vehicle_Name": "TS101",
        "Branch": "Fire Force Headquarters",
        "created": "16-12-2025 07:47:08",
        "lastUpdated": "16-12-2025 11:10:37"
      }
    },
    {
      "type": "Feature",
      "geometry": {
        "type": "LineString",
        "coordinates": [
          [
            73.808846,
            15.589852
          ],
          [
            73.808731,
            15.589882
          ],
          [
            73.80864,
            15.589927
          ]
        ]
      },
      "properties": {
        "Vehicle_No": "GA 07 G 8101-MAP(WATER TENDER)",
        "Vehicle_Name": "TS101",
        "Branch": "Fire Station Mapusa",
        "created": "16-12-2025 07:49:06",
        "lastUpdated": "16-12-2025 11:10:34"
      }
    },
    {
      "type": "Feature",
      "geometry": {
        "type": "LineString",
        "coordinates": [
          [
            73.9700766,
            15.2694066
          ],
          [
            73.969955,
            15.2692999
          ],
          [
            73.9422933,
            15.23837
          ],
          [
            73.9422283,
            15.2143833
          ],
          [
            73.9610916,
            15.26813
          ],
          [
            73.9700683,
            15.2698166
          ],
          [
            73.96997,
            15.26936
          ],
          [
            73.970255,
            15.2694416
          ],
          [
            73.97015,
            15.26943
          ],
          [
            73.9701333,
            15.2692666
          ],
          [
            73.97797,
            15.2713883
          ],
          [
            73.970085,
            15.25638
          ],
          [
            73.970035,
            15.269365
          ],
          [
            73.97006,
            15.2693866
          ]
        ]
      },
      "properties": {
        "Vehicle_No": "GA 07 G 2317-MRG(EMERGENCY RESCUE TENDER)",
        "Vehicle_Name": "5035",
        "Branch": "Fire Station Margao",
        "created": "16-12-2025 07:50:09",
        "lastUpdated": "16-12-2025 14:25:22"
      }
    },
    {
      "type": "Feature",
      "geometry": {
        "type": "LineString",
        "coordinates": [
          [
            73.8170816,
            15.4867816
          ],
          [
            73.8170416,
            15.4936266
          ],
          [
            73.8169916,
            15.49373
          ],
          [
            73.8169833,
            15.4937216
          ]
        ]
      },
      "properties": {
        "Vehicle_No": "GA 07 G 1570-VAS(QUICK RESPONSE FIRE TENDER)",
        "Vehicle_Name": "5035",
        "Branch": "Fire Station Vasco",
        "created": "16-12-2025 07:50:09",
        "lastUpdated": "16-12-2025 11:57:11"
      }
    },
    {
      "type": "Feature",
      "geometry": {
        "type": "LineString",
        "coordinates": [
          [
            73.8510583,
            15.3890666
          ]
        ]
      },
      "properties": {
        "Vehicle_No": "GA 07 G 4101-VAS(MS WATER TENDER)",
        "Vehicle_Name": "5035",
        "Branch": "Fire Station Vasco",
        "created": "16-12-2025 07:50:09",
        "lastUpdated": "16-12-2025 07:50:09"
      }
    },
    {
      "type": "Feature",
      "geometry": {
        "type": "LineString",
        "coordinates": [
          [
            73.85127,
            15.3888
          ],
          [
            73.8523767,
            15.3929517
          ],
          [
            73.85131,
            15.38894
          ]
        ]
      },
      "properties": {
        "Vehicle_No": "GA 07 G 0819-VAS(WATER/FOAM TENDER)",
        "Vehicle_Name": "4G",
        "Branch": "Fire Station Vasco",
        "created": "16-12-2025 07:49:53",
        "lastUpdated": "16-12-2025 13:24:37"
      }
    },
    {
      "type": "Feature",
      "geometry": {
        "type": "LineString",
        "coordinates": [
          [
            73.9702716,
            15.26949
          ]
        ]
      },
      "properties": {
        "Vehicle_No": "GA 07 G 7100-MRG(WATER BOUSER)",
        "Vehicle_Name": "5035",
        "Branch": "Fire Station Margao",
        "created": "16-12-2025 07:49:22",
        "lastUpdated": "16-12-2025 07:49:22"
      }
    },
    {
      "type": "Feature",
      "geometry": {
        "type": "LineString",
        "coordinates": [
          [
            73.9704833,
            15.2693733
          ]
        ]
      },
      "properties": {
        "Vehicle_No": "GA 07 G 1568-MRG(QUICK RESPONSE )",
        "Vehicle_Name": "5035",
        "Branch": "Fire Station Margao",
        "created": "16-12-2025 07:50:11",
        "lastUpdated": "16-12-2025 07:50:11"
      }
    },
    {
      "type": "Feature",
      "geometry": {
        "type": "LineString",
        "coordinates": [
          [
            73.9701016,
            15.2693283
          ],
          [
            73.97015,
            15.269295
          ],
          [
            73.9696283,
            15.2694866
          ],
          [
            73.9695799,
            15.2694033
          ],
          [
            73.96945,
            15.2693133
          ],
          [
            73.9699383,
            15.2692849
          ]
        ]
      },
      "properties": {
        "Vehicle_No": "GA 07 G 6101-MRG(WATER TENDER)",
        "Vehicle_Name": "5035",
        "Branch": "Fire Station Margao",
        "created": "16-12-2025 07:49:13",
        "lastUpdated": "16-12-2025 11:57:43"
      }
    },
    {
      "type": "Feature",
      "geometry": {
        "type": "LineString",
        "coordinates": [
          [
            73.969865,
            15.2694133
          ],
          [
            73.9700033,
            15.26954
          ]
        ]
      },
      "properties": {
        "Vehicle_No": "GA 07 G 1001-MRG(AERIAL LADDER PLATFORM)",
        "Vehicle_Name": "5035",
        "Branch": "Fire Station Margao",
        "created": "16-12-2025 07:49:15",
        "lastUpdated": "16-12-2025 11:57:35"
      }
    },
    {
      "type": "Feature",
      "geometry": {
        "type": "LineString",
        "coordinates": [
          [
            74.002785,
            15.4027889
          ]
        ]
      },
      "properties": {
        "Vehicle_No": "GA 07 G 0820-BIC(WATER TEDNER)",
        "Vehicle_Name": "5026",
        "Branch": "Fire Station Bicholim",
        "created": "16-12-2025 07:47:50",
        "lastUpdated": "16-12-2025 07:47:50"
      }
    },
    {
      "type": "Feature",
      "geometry": {
        "type": "LineString",
        "coordinates": [
          [
            73.9141116,
            15.5002566
          ],
          [
            73.9139966,
            15.5002783
          ]
        ]
      },
      "properties": {
        "Vehicle_No": "GA 07 G 5101-OLG(MS WATER TENDER)",
        "Vehicle_Name": "5035",
        "Branch": "Fire Station Old Goa",
        "created": "16-12-2025 07:48:44",
        "lastUpdated": "16-12-2025 11:57:52"
      }
    },
    {
      "type": "Feature",
      "geometry": {
        "type": "LineString",
        "coordinates": [
          [
            73.9677566,
            15.58164
          ],
          [
            73.9465983,
            15.5894283
          ],
          [
            73.9464433,
            15.5890366
          ],
          [
            73.9464516,
            15.5894066
          ],
          [
            73.946215,
            15.5887433
          ],
          [
            73.9461183,
            15.5889083
          ],
          [
            73.9458416,
            15.58877
          ],
          [
            73.9465583,
            15.58938
          ],
          [
            73.9464433,
            15.5893
          ],
          [
            73.9465983,
            15.58937
          ]
        ]
      },
      "properties": {
        "Vehicle_No": "GA 07 G 3101-BIC(MS WATER TENDER)",
        "Vehicle_Name": "5035",
        "Branch": "Fire Station Bicholim",
        "created": "16-12-2025 07:50:11",
        "lastUpdated": "16-12-2025 14:24:40"
      }
    },
    {
      "type": "Feature",
      "geometry": {
        "type": "LineString",
        "coordinates": [
          [
            73.9465583,
            15.589465
          ],
          [
            73.9466466,
            15.5894433
          ]
        ]
      },
      "properties": {
        "Vehicle_No": "GA 07 G 1941-BIC(QUICK RESPONSE)",
        "Vehicle_Name": "5035",
        "Branch": "Fire Station Bicholim",
        "created": "16-12-2025 07:50:12",
        "lastUpdated": "16-12-2025 12:56:28"
      }
    },
    {
      "type": "Feature",
      "geometry": {
        "type": "LineString",
        "coordinates": [
          [
            73.851245,
            15.3888516
          ]
        ]
      },
      "properties": {
        "Vehicle_No": "GA 07 G 2319-VAS (EMERGENCY RESCUE TENDER)",
        "Vehicle_Name": "5035",
        "Branch": "Fire Station Vasco",
        "created": "16-12-2025 07:50:12",
        "lastUpdated": "16-12-2025 07:50:12"
      }
    },
    {
      "type": "Feature",
      "geometry": {
        "type": "LineString",
        "coordinates": [
          [
            74.1387283,
            15.5309983
          ],
          [
            74.1387199,
            15.5310016
          ],
          [
            74.12295,
            15.5261333
          ],
          [
            74.1228833,
            15.5260316
          ],
          [
            74.1387199,
            15.5310299
          ]
        ]
      },
      "properties": {
        "Vehicle_No": "GA 07 G 3737-VAP(WATER TENDER)",
        "Vehicle_Name": "5035",
        "Branch": "Fire Station Valpoi",
        "created": "16-12-2025 07:50:12",
        "lastUpdated": "16-12-2025 12:56:21"
      }
    },
    {
      "type": "Feature",
      "geometry": {
        "type": "LineString",
        "coordinates": [
          [
            74.0027999,
            15.402795
          ],
          [
            74.015535,
            15.3981
          ],
          [
            74.01556,
            15.3981033
          ],
          [
            74.002905,
            15.4028449
          ]
        ]
      },
      "properties": {
        "Vehicle_No": "GA 07 G 2318-PND(EMERGENCY RESCUE TENDER)",
        "Vehicle_Name": "5035",
        "Branch": "Fire Station Ponda",
        "created": "16-12-2025 07:48:56",
        "lastUpdated": "16-12-2025 10:21:49"
      }
    },
    {
      "type": "Feature",
      "geometry": {
        "type": "LineString",
        "coordinates": [
          [
            74.0027099,
            15.4031716
          ],
          [
            74.0029866,
            15.4027666
          ]
        ]
      },
      "properties": {
        "Vehicle_No": "GA 07 G 2004-PND(QUICK RESPONSE)",
        "Vehicle_Name": "5035",
        "Branch": "Fire Station Ponda",
        "created": "16-12-2025 07:49:21",
        "lastUpdated": "16-12-2025 11:57:11"
      }
    },
    {
      "type": "Feature",
      "geometry": {
        "type": "LineString",
        "coordinates": [
          [
            74.00297,
            15.4026833
          ]
        ]
      },
      "properties": {
        "Vehicle_No": "GA 07 G 9101-PND(WATER TENDER)",
        "Vehicle_Name": "5035",
        "Branch": "Fire Station Ponda",
        "created": "16-12-2025 07:50:11",
        "lastUpdated": "16-12-2025 07:50:11"
      }
    },
    {
      "type": "Feature",
      "geometry": {
        "type": "LineString",
        "coordinates": [
          [
            74.0029383,
            15.402615
          ],
          [
            74.0029133,
            15.4026083
          ]
        ]
      },
      "properties": {
        "Vehicle_No": "GA 07 G 9797-PND(WATER BOUSER)",
        "Vehicle_Name": "5035",
        "Branch": "Fire Station Ponda",
        "created": "16-12-2025 07:49:53",
        "lastUpdated": "16-12-2025 11:11:17"
      }
    },
    {
      "type": "Feature",
      "geometry": {
        "type": "LineString",
        "coordinates": [
          [
            74.04406,
            15.02362
          ],
          [
            74.0576016,
            15.005995
          ],
          [
            74.0440349,
            15.0236566
          ]
        ]
      },
      "properties": {
        "Vehicle_No": "GA 07 G 6363-CAN(WATER TENDER)",
        "Vehicle_Name": "5035",
        "Branch": "Fire Station Canacona",
        "created": "15-12-2025 18:26:13",
        "lastUpdated": "16-12-2025 12:26:38"
      }
    },
    {
      "type": "Feature",
      "geometry": {
        "type": "LineString",
        "coordinates": [
          [
            74.0441,
            15.0236516
          ],
          [
            74.0396816,
            15.0169216
          ]
        ]
      },
      "properties": {
        "Vehicle_No": "GA 07 G 1567-CAN(QUICK RESPONSE FT)",
        "Vehicle_Name": "5035",
        "Branch": "Fire Station Canacona",
        "created": "16-12-2025 07:49:54",
        "lastUpdated": "16-12-2025 12:23:56"
      }
    },
    {
      "type": "Feature",
      "geometry": {
        "type": "LineString",
        "coordinates": [
          [
            73.9349533,
            15.370035
          ],
          [
            73.852775,
            15.3901116
          ],
          [
            73.8509516,
            15.38908
          ],
          [
            73.8544183,
            15.38977
          ],
          [
            73.8521166,
            15.3903183
          ],
          [
            73.8118333,
            15.399965
          ],
          [
            73.85315,
            15.3924133
          ],
          [
            73.8721516,
            15.38076
          ],
          [
            73.86831,
            15.384355
          ]
        ]
      },
      "properties": {
        "Vehicle_No": "GA 07 G 1569-VRN(QUICK RESPONSE)",
        "Vehicle_Name": "5035",
        "Branch": "Fire Station Verna",
        "created": "16-12-2025 07:50:09",
        "lastUpdated": "16-12-2025 14:25:34"
      }
    },
    {
      "type": "Feature",
      "geometry": {
        "type": "LineString",
        "coordinates": [
          [
            73.9359133,
            15.369605
          ],
          [
            73.935115,
            15.3697766
          ]
        ]
      },
      "properties": {
        "Vehicle_No": "GA 07 G 9909-VRN(ADVANCE MULTI-PURPOSE)",
        "Vehicle_Name": "5035",
        "Branch": "Fire Station Verna",
        "created": "16-12-2025 07:49:57",
        "lastUpdated": "16-12-2025 14:25:02"
      }
    },
    {
      "type": "Feature",
      "geometry": {
        "type": "LineString",
        "coordinates": [
          [
            74.138835,
            15.5310566
          ]
        ]
      },
      "properties": {
        "Vehicle_No": "GA 07 G 1942-VAP(QUICK RESPONSE)",
        "Vehicle_Name": "5035",
        "Branch": "Fire Station Valpoi",
        "created": "16-12-2025 07:49:20",
        "lastUpdated": "16-12-2025 07:49:20"
      }
    },
    {
      "type": "Feature",
      "geometry": {
        "type": "LineString",
        "coordinates": [
          [
            74.1029216,
            15.2605566
          ],
          [
            74.1036466,
            15.260325
          ],
          [
            74.1037116,
            15.2598633
          ],
          [
            74.103865,
            15.2602566
          ],
          [
            74.0718266,
            15.213465
          ],
          [
            74.0984699,
            15.2435033
          ],
          [
            74.1037916,
            15.259615
          ],
          [
            74.103825,
            15.2602316
          ]
        ]
      },
      "properties": {
        "Vehicle_No": "GA 07 G 2003-CUR(QUICK RESPONSE)",
        "Vehicle_Name": "5035",
        "Branch": "Fire Station Curchorem",
        "created": "16-12-2025 07:49:54",
        "lastUpdated": "16-12-2025 13:24:40"
      }
    },
    {
      "type": "Feature",
      "geometry": {
        "type": "LineString",
        "coordinates": [
          [
            74.1037516,
            15.2604383
          ]
        ]
      },
      "properties": {
        "Vehicle_No": "GA 07 G 7447-CUR(EMERGENCY RESCUE)",
        "Vehicle_Name": "5035",
        "Branch": "Fire Station Curchorem",
        "created": "16-12-2025 07:49:29",
        "lastUpdated": "16-12-2025 07:49:29"
      }
    },
    {
      "type": "Feature",
      "geometry": {
        "type": "LineString",
        "coordinates": [
          [
            74.1036616,
            15.2604266
          ],
          [
            74.1037116,
            15.2603633
          ],
          [
            74.1037266,
            15.2603883
          ]
        ]
      },
      "properties": {
        "Vehicle_No": "GA 07 G 7557-CUR(WATER TENDER)",
        "Vehicle_Name": "5035",
        "Branch": "Fire Station Curchorem",
        "created": "16-12-2025 07:49:37",
        "lastUpdated": "16-12-2025 12:56:34"
      }
    },
    {
      "type": "Feature",
      "geometry": {
        "type": "LineString",
        "coordinates": [
          [
            74.1038083,
            15.2603683
          ],
          [
            74.1038166,
            15.260295
          ]
        ]
      },
      "properties": {
        "Vehicle_No": "GA 07 G 7667-CUR(WATER BOUSER)",
        "Vehicle_Name": "5035",
        "Branch": "Fire Station Curchorem",
        "created": "16-12-2025 07:50:09",
        "lastUpdated": "16-12-2025 09:13:42"
      }
    },
    {
      "type": "Feature",
      "geometry": {
        "type": "LineString",
        "coordinates": [
          [
            73.9727867,
            15.463895
          ],
          [
            73.9723067,
            15.462995
          ],
          [
            73.972535,
            15.4631383
          ],
          [
            73.9725017,
            15.4636217
          ],
          [
            73.9725833,
            15.4634367
          ],
          [
            73.9727383,
            15.463075
          ],
          [
            73.9725917,
            15.4631083
          ],
          [
            73.9726,
            15.4627583
          ],
          [
            73.972535,
            15.4631883
          ],
          [
            73.9723233,
            15.4629367
          ],
          [
            73.9726883,
            15.462875
          ],
          [
            73.9726883,
            15.463015
          ]
        ]
      },
      "properties": {
        "Vehicle_No": "GA 07 G 4989-KUN(WATER TENDER)",
        "Vehicle_Name": "G-100",
        "Branch": "Fire Station Kundaim",
        "created": "16-12-2025 07:50:06",
        "lastUpdated": "16-12-2025 14:25:12"
      }
    },
    {
      "type": "Feature",
      "geometry": {
        "type": "LineString",
        "coordinates": [
          [
            73.7939994,
            15.5332739
          ],
          [
            73.7940511,
            15.5329489
          ],
          [
            73.7942733,
            15.5329572
          ]
        ]
      },
      "properties": {
        "Vehicle_No": "GA 07 G 2242-PIL(WATER TENDER)",
        "Vehicle_Name": "5026",
        "Branch": "Fire Station Pilerne",
        "created": "16-12-2025 07:47:10",
        "lastUpdated": "16-12-2025 11:07:47"
      }
    },
    {
      "type": "Feature",
      "geometry": {
        "type": "LineString",
        "coordinates": [
          [
            73.808935,
            15.5896467
          ],
          [
            73.8103517,
            15.5907433
          ],
          [
            73.8598967,
            15.5871767
          ],
          [
            73.8557617,
            15.591885
          ],
          [
            73.8153,
            15.5889917
          ],
          [
            73.808715,
            15.5902433
          ]
        ]
      },
      "properties": {
        "Vehicle_No": "GA 07 G 0681-MAP(QUICK RESPONSE)",
        "Vehicle_Name": "AT 5036A-4G",
        "Branch": "Fire Station Mapusa",
        "created": "16-12-2025 07:50:11",
        "lastUpdated": "16-12-2025 13:25:00"
      }
    },
    {
      "type": "Feature",
      "geometry": {
        "type": "LineString",
        "coordinates": [
          [
            73.7974239,
            15.7164939
          ]
        ]
      },
      "properties": {
        "Vehicle_No": "GA 07 G 0307-PER(QUICK RESPONSE)",
        "Vehicle_Name": "AT5032-4G",
        "Branch": "Fire Station Pernem",
        "created": "23-10-2025 15:19:09",
        "lastUpdated": "23-10-2025 15:19:09"
      }
    },
    {
      "type": "Feature",
      "geometry": {
        "type": "LineString",
        "coordinates": [
          [
            73.79751,
            15.7165417
          ],
          [
            73.7973744,
            15.7165317
          ],
          [
            73.7973678,
            15.7165844
          ],
          [
            73.797625,
            15.7163622
          ],
          [
            73.8060433,
            15.71476
          ],
          [
            73.79762,
            15.7164117
          ]
        ]
      },
      "properties": {
        "Vehicle_No": "GA 07 G 2101-PER(MS WATER TENDER)",
        "Vehicle_Name": "AT5032-4G",
        "Branch": "Fire Station Pernem",
        "created": "16-12-2025 07:48:21",
        "lastUpdated": "16-12-2025 12:24:53"
      }
    },
    {
      "type": "Feature",
      "geometry": {
        "type": "LineString",
        "coordinates": [
          [
            73.79758,
            15.7165467
          ],
          [
            73.7974744,
            15.7165533
          ],
          [
            73.7975189,
            15.7165344
          ],
          [
            73.797555,
            15.7165094
          ]
        ]
      },
      "properties": {
        "Vehicle_No": "GA 07 G 4600-PER(MINI RESCUE TENDER)",
        "Vehicle_Name": "AT 5032-4G",
        "Branch": "Fire Station Pernem",
        "created": "16-12-2025 07:48:37",
        "lastUpdated": "16-12-2025 11:55:32"
      }
    },
    {
      "type": "Feature",
      "geometry": {
        "type": "LineString",
        "coordinates": [
          [
            73.8173533,
            15.48716
          ]
        ]
      },
      "properties": {
        "Vehicle_No": "GA 07 G 7272-PNJ(WATER TENDER)",
        "Vehicle_Name": "AT-5032-4G",
        "Branch": "Fire Station Panaji",
        "created": "16-12-2025 07:49:35",
        "lastUpdated": "16-12-2025 07:49:35"
      }
    },
    {
      "type": "Feature",
      "geometry": {
        "type": "LineString",
        "coordinates": [
          [
            74.0210906,
            15.1863361
          ],
          [
            74.0210417,
            15.186245
          ]
        ]
      },
      "properties": {
        "Vehicle_No": "GA07G2384- Cuncolim",
        "Vehicle_Name": "AT 5032-4G",
        "Branch": "Fire Station Cuncolim",
        "created": "16-12-2025 07:47:46",
        "lastUpdated": "16-12-2025 11:19:39"
      }
    },
    {
      "type": "Feature",
      "geometry": {
        "type": "LineString",
        "coordinates": [
          [
            73.7976567,
            15.7163633
          ]
        ]
      },
      "properties": {
        "Vehicle_No": "GA07G2507 - Mid Size (Water Tender)",
        "Vehicle_Name": "5035",
        "Branch": "Fire Station Pernem",
        "created": "16-12-2025 07:49:59",
        "lastUpdated": "16-12-2025 07:49:59"
      }
    },
    {
      "type": "Feature",
      "geometry": {
        "type": "LineString",
        "coordinates": [
          [
            74.13868,
            15.530985
          ]
        ]
      },
      "properties": {
        "Vehicle_No": "GA07G2505 - Mid Size (Water Tender)",
        "Vehicle_Name": "5035",
        "Branch": "Fire Station Valpoi",
        "created": "16-12-2025 07:49:30",
        "lastUpdated": "16-12-2025 07:49:30"
      }
    },
    {
      "type": "Feature",
      "geometry": {
        "type": "LineString",
        "coordinates": [
          [
            73.9467533,
            15.589105
          ],
          [
            73.956275,
            15.6548467
          ],
          [
            73.90516,
            15.6252383
          ],
          [
            73.9062017,
            15.6252833
          ],
          [
            73.9460117,
            15.5905883
          ],
          [
            73.946655,
            15.5894733
          ]
        ]
      },
      "properties": {
        "Vehicle_No": "GA07G2504 - Mid Size (Water Tender)",
        "Vehicle_Name": "5035",
        "Branch": "Fire Station Bicholim",
        "created": "16-12-2025 07:49:56",
        "lastUpdated": "16-12-2025 11:11:29"
      }
    },
    {
      "type": "Feature",
      "geometry": {
        "type": "LineString",
        "coordinates": [
          [
            73.8088133,
            15.5899683
          ],
          [
            73.8087317,
            15.5899533
          ],
          [
            73.8317783,
            15.5767333
          ],
          [
            73.8316733,
            15.576725
          ],
          [
            73.82111,
            15.5865967
          ],
          [
            73.8313233,
            15.5798367
          ]
        ]
      },
      "properties": {
        "Vehicle_No": "GA07G2503-Mid Size (Water Tender)",
        "Vehicle_Name": "5035",
        "Branch": "Fire Station Mapusa",
        "created": "16-12-2025 07:49:36",
        "lastUpdated": "16-12-2025 14:25:22"
      }
    },
    {
      "type": "Feature",
      "geometry": {
        "type": "LineString",
        "coordinates": [
          [
            73.81735,
            15.48634
          ],
          [
            73.8170333,
            15.4935633
          ],
          [
            73.8170733,
            15.4935667
          ],
          [
            73.8067783,
            15.4668683
          ],
          [
            73.8171383,
            15.461655
          ]
        ]
      },
      "properties": {
        "Vehicle_No": "GA07G2502 - Mid Size (Water Tender)",
        "Vehicle_Name": "5035",
        "Branch": "Fire Force Headquarters",
        "created": "16-12-2025 07:49:42",
        "lastUpdated": "16-12-2025 11:57:20"
      }
    }
  ]
}