{
  "type": "FeatureCollection",
  "metadata": {
    "date": "20260125",
    "source": "Directorate of Fire Emergency Services, Govt. of Goa",
    "description": "Daily GPS tracks of fire trucks",
    "lastUpdated": "2026-01-25T04:24:38.837Z",
    "count": 51
  },
  "features": [
    {
      "type": "Feature",
      "geometry": {
        "type": "LineString",
        "coordinates": [
          [
            73.8170333,
            15.4864667
          ]
        ]
      },
      "properties": {
        "Vehicle_No": "GA 07 G 0680-PIL(QUICK RESPONSE VEHICLE)",
        "Vehicle_Name": "4G",
        "Branch": "Fire Station Pilerne",
        "created": "25-01-2026 05:29:57+05:30",
        "lastUpdated": "25-01-2026 05:29:57+05:30"
      }
    },
    {
      "type": "Feature",
      "geometry": {
        "type": "LineString",
        "coordinates": [
          [
            73.914085,
            15.500348
          ],
          [
            73.91404,
            15.5003
          ]
        ]
      },
      "properties": {
        "Vehicle_No": "GA07G2506 - OLG Mid Size (Water Tender)",
        "Vehicle_Name": "TS101",
        "Branch": "Fire Station Old Goa",
        "created": "25-01-2026 05:29:43+05:30",
        "lastUpdated": "25-01-2026 05:33:47+05:30"
      }
    },
    {
      "type": "Feature",
      "geometry": {
        "type": "LineString",
        "coordinates": [
          [
            73.829559,
            15.522872
          ],
          [
            73.829376,
            15.523033
          ]
        ]
      },
      "properties": {
        "Vehicle_No": "GA 07 G 5115-POR(MINI WATER TENDER)",
        "Vehicle_Name": "TS101",
        "Branch": "Fire Station Porvorim",
        "created": "25-01-2026 05:29:30+05:30",
        "lastUpdated": "25-01-2026 05:31:26+05:30"
      }
    },
    {
      "type": "Feature",
      "geometry": {
        "type": "LineString",
        "coordinates": [
          [
            73.97065,
            15.269418
          ],
          [
            73.970612,
            15.269417
          ]
        ]
      },
      "properties": {
        "Vehicle_No": "GA 07 G 0350-MRG(WATER TENDER)",
        "Vehicle_Name": "TS101",
        "Branch": "Fire Station Margao",
        "created": "25-01-2026 05:28:56+05:30",
        "lastUpdated": "25-01-2026 05:30:52+05:30"
      }
    },
    {
      "type": "Feature",
      "geometry": {
        "type": "LineString",
        "coordinates": [
          [
            73.808838,
            15.589985
          ],
          [
            73.808754,
            15.589868
          ],
          [
            73.808716,
            15.589888
          ],
          [
            73.809746,
            15.591038
          ],
          [
            73.809166,
            15.588935
          ],
          [
            73.808113,
            15.591547
          ],
          [
            73.809288,
            15.593212
          ],
          [
            73.809959,
            15.596192
          ],
          [
            73.80883,
            15.600148
          ],
          [
            73.806015,
            15.602213
          ],
          [
            73.792946,
            15.613622
          ],
          [
            73.779099,
            15.614482
          ],
          [
            73.771683,
            15.6134
          ],
          [
            73.770042,
            15.614278
          ],
          [
            73.758797,
            15.619227
          ],
          [
            73.75531,
            15.622977
          ],
          [
            73.753838,
            15.630028
          ],
          [
            73.75489,
            15.631025
          ],
          [
            73.755226,
            15.631277
          ],
          [
            73.755745,
            15.631682
          ],
          [
            73.759186,
            15.631767
          ],
          [
            73.760651,
            15.631312
          ],
          [
            73.763237,
            15.631598
          ],
          [
            73.763252,
            15.6316
          ],
          [
            73.763268,
            15.63159
          ],
          [
            73.763351,
            15.631588
          ],
          [
            73.764412,
            15.631778
          ],
          [
            73.765594,
            15.628238
          ],
          [
            73.767403,
            15.623495
          ],
          [
            73.769203,
            15.618885
          ],
          [
            73.776085,
            15.61279
          ]
        ]
      },
      "properties": {
        "Vehicle_No": "GA 07 G 2900-MAP(MINI RESCUE TENDER)",
        "Vehicle_Name": "TS101",
        "Branch": "Fire Station Mapusa",
        "created": "25-01-2026 05:28:25+05:30",
        "lastUpdated": "25-01-2026 09:52:50+05:30"
      }
    },
    {
      "type": "Feature",
      "geometry": {
        "type": "LineString",
        "coordinates": [
          [
            73.817383,
            15.487345
          ],
          [
            73.81736,
            15.48737
          ]
        ]
      },
      "properties": {
        "Vehicle_No": "GA 07 G 7600-FFHQ(WATER BOUSER)",
        "Vehicle_Name": "TS101",
        "Branch": "Fire Force Headquarters",
        "created": "25-01-2026 05:28:27+05:30",
        "lastUpdated": "25-01-2026 05:30:26+05:30"
      }
    },
    {
      "type": "Feature",
      "geometry": {
        "type": "LineString",
        "coordinates": [
          [
            73.817276,
            15.487412
          ],
          [
            73.817215,
            15.487315
          ],
          [
            73.817139,
            15.487322
          ],
          [
            73.816826,
            15.487532
          ],
          [
            73.814888,
            15.489845
          ],
          [
            73.818665,
            15.49502
          ],
          [
            73.82061,
            15.499475
          ],
          [
            73.823235,
            15.500747
          ],
          [
            73.82901,
            15.501175
          ],
          [
            73.837883,
            15.49912
          ],
          [
            73.837257,
            15.499412
          ],
          [
            73.828094,
            15.501143
          ],
          [
            73.818939,
            15.495877
          ],
          [
            73.816826,
            15.49186
          ],
          [
            73.815552,
            15.488608
          ],
          [
            73.816994,
            15.487102
          ]
        ]
      },
      "properties": {
        "Vehicle_No": "GA 07 G 2002-FFHQ(TURN TABLE LADDER)",
        "Vehicle_Name": "TS101",
        "Branch": "Fire Force Headquarters",
        "created": "25-01-2026 05:28:27+05:30",
        "lastUpdated": "25-01-2026 07:17:08+05:30"
      }
    },
    {
      "type": "Feature",
      "geometry": {
        "type": "LineString",
        "coordinates": [
          [
            73.817162,
            15.486872
          ],
          [
            73.816895,
            15.48693
          ],
          [
            73.817032,
            15.486882
          ],
          [
            73.817215,
            15.486337
          ],
          [
            73.817238,
            15.486352
          ],
          [
            73.817253,
            15.48636
          ],
          [
            73.817024,
            15.486435
          ],
          [
            73.817047,
            15.48691
          ]
        ]
      },
      "properties": {
        "Vehicle_No": "GA 07 G 7101-FFHQ(WATER TENDER)",
        "Vehicle_Name": "TS101",
        "Branch": "Fire Force Headquarters",
        "created": "25-01-2026 05:27:32+05:30",
        "lastUpdated": "25-01-2026 07:25:00+05:30"
      }
    },
    {
      "type": "Feature",
      "geometry": {
        "type": "LineString",
        "coordinates": [
          [
            73.817261,
            15.486953
          ]
        ]
      },
      "properties": {
        "Vehicle_No": "GA 07 G 7677-FFHQ(EMERGENCY RESCUE)",
        "Vehicle_Name": "TS101",
        "Branch": "Fire Force Headquarters",
        "created": "24-01-2026 15:04:10+05:30",
        "lastUpdated": "24-01-2026 15:04:10+05:30"
      }
    },
    {
      "type": "Feature",
      "geometry": {
        "type": "LineString",
        "coordinates": [
          [
            73.817375,
            15.487262
          ],
          [
            73.817207,
            15.487257
          ],
          [
            73.817253,
            15.487233
          ],
          [
            73.817253,
            15.48724
          ],
          [
            73.817253,
            15.487238
          ],
          [
            73.817253,
            15.487237
          ],
          [
            73.817253,
            15.487257
          ],
          [
            73.817268,
            15.487295
          ],
          [
            73.817268,
            15.487298
          ],
          [
            73.817268,
            15.487282
          ],
          [
            73.817261,
            15.487273
          ]
        ]
      },
      "properties": {
        "Vehicle_No": "GA 07 G 1121-PNJ(EMERGENCY RESCUE)",
        "Vehicle_Name": "TS101",
        "Branch": "Fire Station Panaji",
        "created": "25-01-2026 05:27:23+05:30",
        "lastUpdated": "25-01-2026 07:42:18+05:30"
      }
    },
    {
      "type": "Feature",
      "geometry": {
        "type": "LineString",
        "coordinates": [
          [
            73.817551,
            15.486608
          ],
          [
            73.817558,
            15.486538
          ],
          [
            73.817284,
            15.486355
          ],
          [
            73.817146,
            15.486697
          ],
          [
            73.8172,
            15.486793
          ],
          [
            73.817299,
            15.4868
          ],
          [
            73.813385,
            15.48808
          ],
          [
            73.81057,
            15.487075
          ],
          [
            73.809265,
            15.486377
          ],
          [
            73.809273,
            15.486425
          ],
          [
            73.809265,
            15.486427
          ],
          [
            73.809273,
            15.486427
          ],
          [
            73.809288,
            15.486435
          ],
          [
            73.809303,
            15.486447
          ],
          [
            73.809288,
            15.486445
          ],
          [
            73.809288,
            15.486442
          ],
          [
            73.809296,
            15.486448
          ],
          [
            73.809303,
            15.486455
          ],
          [
            73.809319,
            15.486462
          ],
          [
            73.809296,
            15.486458
          ],
          [
            73.809296,
            15.48646
          ],
          [
            73.809288,
            15.486462
          ],
          [
            73.809288,
            15.486457
          ],
          [
            73.809288,
            15.48646
          ],
          [
            73.809273,
            15.486452
          ],
          [
            73.80925,
            15.486433
          ],
          [
            73.809258,
            15.48643
          ],
          [
            73.809273,
            15.486432
          ],
          [
            73.80928,
            15.486445
          ],
          [
            73.809303,
            15.486452
          ],
          [
            73.809326,
            15.486467
          ],
          [
            73.809334,
            15.486472
          ]
        ]
      },
      "properties": {
        "Vehicle_No": "GA 07 G 1571-FFHQ(QUICK RESPONSE)",
        "Vehicle_Name": "TS101",
        "Branch": "Fire Force Headquarters",
        "created": "25-01-2026 05:13:51+05:30",
        "lastUpdated": "25-01-2026 09:54:28+05:30"
      }
    },
    {
      "type": "Feature",
      "geometry": {
        "type": "LineString",
        "coordinates": [
          [
            73.808784,
            15.589967
          ],
          [
            73.808617,
            15.589805
          ],
          [
            73.808662,
            15.589895
          ],
          [
            73.808685,
            15.589918
          ],
          [
            73.808662,
            15.589917
          ],
          [
            73.80838,
            15.589923
          ],
          [
            73.80851,
            15.589863
          ]
        ]
      },
      "properties": {
        "Vehicle_No": "GA 07 G 8101-MAP(WATER TENDER)",
        "Vehicle_Name": "TS101",
        "Branch": "Fire Station Mapusa",
        "created": "25-01-2026 05:29:14+05:30",
        "lastUpdated": "25-01-2026 08:35:42+05:30"
      }
    },
    {
      "type": "Feature",
      "geometry": {
        "type": "LineString",
        "coordinates": [
          [
            73.970255,
            15.2693233
          ],
          [
            73.9701016,
            15.2691483
          ],
          [
            73.9700933,
            15.2692133
          ],
          [
            73.9701166,
            15.2692416
          ],
          [
            73.9704266,
            15.2691316
          ],
          [
            73.9701416,
            15.2692883
          ],
          [
            73.970215,
            15.2691733
          ],
          [
            73.9701333,
            15.2693033
          ],
          [
            73.970215,
            15.269305
          ],
          [
            73.9704916,
            15.26912
          ],
          [
            73.970435,
            15.26919
          ],
          [
            73.969905,
            15.2693766
          ],
          [
            73.97024,
            15.26935
          ],
          [
            73.9702633,
            15.2691566
          ],
          [
            73.9700683,
            15.2693233
          ],
          [
            73.9703133,
            15.2693233
          ],
          [
            73.9701666,
            15.2693316
          ],
          [
            73.9702066,
            15.2692733
          ],
          [
            73.970215,
            15.2693733
          ],
          [
            73.9703283,
            15.2693233
          ],
          [
            73.9701416,
            15.26938
          ],
          [
            73.9703533,
            15.2693983
          ],
          [
            73.9700033,
            15.2694166
          ],
          [
            73.970035,
            15.2692833
          ],
          [
            73.9701083,
            15.2694116
          ],
          [
            73.9701333,
            15.2695116
          ],
          [
            73.9708,
            15.2688216
          ],
          [
            73.9701816,
            15.2693516
          ],
          [
            73.9702316,
            15.2694066
          ],
          [
            73.9697266,
            15.2693966
          ],
          [
            73.96997,
            15.2693916
          ],
          [
            73.9701016,
            15.2693916
          ],
          [
            73.9701416,
            15.269385
          ],
          [
            73.970085,
            15.269385
          ],
          [
            73.9701983,
            15.2693666
          ],
          [
            73.9699866,
            15.2695233
          ],
          [
            73.96997,
            15.26944
          ],
          [
            73.97015,
            15.2693616
          ],
          [
            73.9700116,
            15.2694033
          ],
          [
            73.96997,
            15.26938
          ],
          [
            73.9697266,
            15.2694483
          ],
          [
            73.9700933,
            15.2693333
          ],
          [
            73.970125,
            15.26935
          ],
          [
            73.9700033,
            15.2694616
          ],
          [
            73.969865,
            15.2694766
          ],
          [
            73.970085,
            15.2693583
          ],
          [
            73.96989,
            15.2692533
          ],
          [
            73.9700766,
            15.2692316
          ],
          [
            73.9698483,
            15.2696133
          ],
          [
            73.97002,
            15.2691499
          ],
          [
            73.9701583,
            15.2694349
          ],
          [
            73.9700283,
            15.2693749
          ],
          [
            73.9701083,
            15.2692849
          ],
          [
            73.9701333,
            15.2694316
          ],
          [
            73.970085,
            15.2693283
          ],
          [
            73.9701016,
            15.269325
          ],
          [
            73.9702316,
            15.2695816
          ],
          [
            73.9701016,
            15.2693466
          ],
          [
            73.9699216,
            15.2694516
          ],
          [
            73.970035,
            15.2692466
          ],
          [
            73.97019,
            15.2693933
          ],
          [
            73.97015,
            15.26936
          ],
          [
            73.9700433,
            15.269515
          ],
          [
            73.97002,
            15.269485
          ],
          [
            73.9701333,
            15.2694133
          ],
          [
            73.97006,
            15.2691016
          ],
          [
            73.970035,
            15.269315
          ],
          [
            73.9701816,
            15.26935
          ],
          [
            73.970125,
            15.269325
          ],
          [
            73.9700116,
            15.2693483
          ],
          [
            73.9700683,
            15.269355
          ],
          [
            73.970085,
            15.2694216
          ],
          [
            73.9700683,
            15.269355
          ],
          [
            73.9699866,
            15.2693416
          ],
          [
            73.9699216,
            15.2692733
          ],
          [
            73.969905,
            15.2694233
          ],
          [
            73.9698483,
            15.2694233
          ],
          [
            73.9700116,
            15.2692533
          ],
          [
            73.9700516,
            15.2692549
          ],
          [
            73.9701416,
            15.2692833
          ],
          [
            73.9701166,
            15.2693466
          ],
          [
            73.9700933,
            15.2694133
          ],
          [
            73.9700516,
            15.269425
          ],
          [
            73.970215,
            15.2693316
          ],
          [
            73.9699783,
            15.2694883
          ],
          [
            73.970035,
            15.2694783
          ],
          [
            73.9701733,
            15.2694966
          ],
          [
            73.9701583,
            15.2694483
          ],
          [
            73.9701416,
            15.2694683
          ],
          [
            73.9699216,
            15.2694966
          ],
          [
            73.9702066,
            15.269445
          ],
          [
            73.970215,
            15.2694349
          ],
          [
            73.9701166,
            15.2694383
          ],
          [
            73.9699216,
            15.2693666
          ],
          [
            73.9699633,
            15.2694816
          ],
          [
            73.9700283,
            15.2695
          ],
          [
            73.9701733,
            15.2693116
          ],
          [
            73.97006,
            15.2692633
          ],
          [
            73.9701583,
            15.2693466
          ],
          [
            73.97006,
            15.2693933
          ],
          [
            73.96989,
            15.2695583
          ],
          [
            73.9698733,
            15.2694766
          ],
          [
            73.970085,
            15.26945
          ],
          [
            73.9701166,
            15.2694583
          ],
          [
            73.9700933,
            15.269395
          ],
          [
            73.9701166,
            15.2694216
          ],
          [
            73.96997,
            15.26932
          ],
          [
            73.9700933,
            15.2695833
          ],
          [
            73.9700766,
            15.2694016
          ],
          [
            73.970215,
            15.2694883
          ],
          [
            73.9701166,
            15.26938
          ],
          [
            73.9701083,
            15.2693766
          ],
          [
            73.97002,
            15.269365
          ],
          [
            73.969905,
            15.2692999
          ],
          [
            73.9700033,
            15.26932
          ],
          [
            73.9699466,
            15.2692083
          ],
          [
            73.9699633,
            15.26934
          ],
          [
            73.9700766,
            15.2695116
          ],
          [
            73.9700283,
            15.2692783
          ],
          [
            73.9700766,
            15.2694066
          ],
          [
            73.9700766,
            15.2694883
          ],
          [
            73.970035,
            15.26941
          ],
          [
            73.9700516,
            15.2693833
          ],
          [
            73.9700766,
            15.2694783
          ],
          [
            73.9700933,
            15.26937
          ],
          [
            73.9699216,
            15.2694516
          ],
          [
            73.9697666,
            15.2692783
          ],
          [
            73.9700033,
            15.2692833
          ],
          [
            73.969905,
            15.2695133
          ],
          [
            73.9703283,
            15.269745
          ],
          [
            73.9703199,
            15.2696533
          ],
          [
            73.9700116,
            15.2693916
          ],
          [
            73.9699633,
            15.2692666
          ],
          [
            73.9698733,
            15.2693133
          ],
          [
            73.9697583,
            15.269265
          ],
          [
            73.9698816,
            15.2692916
          ],
          [
            73.9700116,
            15.2694566
          ],
          [
            73.969995,
            15.26946
          ],
          [
            73.969995,
            15.2694616
          ],
          [
            73.9701166,
            15.2694866
          ],
          [
            73.9701816,
            15.2694966
          ],
          [
            73.969995,
            15.2694016
          ],
          [
            73.9702966,
            15.2693883
          ],
          [
            73.9701083,
            15.269365
          ],
          [
            73.9701016,
            15.2693683
          ],
          [
            73.9699383,
            15.2693666
          ],
          [
            73.969865,
            15.26936
          ],
          [
            73.9699383,
            15.26943
          ],
          [
            73.9700116,
            15.26938
          ],
          [
            73.96989,
            15.2693966
          ],
          [
            73.9701166,
            15.26931
          ],
          [
            73.9696366,
            15.2694016
          ],
          [
            73.9698316,
            15.2694016
          ],
          [
            73.9700516,
            15.2694433
          ],
          [
            73.9701083,
            15.269395
          ],
          [
            73.9700116,
            15.269445
          ],
          [
            73.9701083,
            15.2694066
          ],
          [
            73.9701816,
            15.2694033
          ],
          [
            73.97006,
            15.2694416
          ],
          [
            73.9700933,
            15.2693983
          ],
          [
            73.9702066,
            15.2694516
          ],
          [
            73.9700683,
            15.2693749
          ],
          [
            73.9699866,
            15.269405
          ],
          [
            73.9701333,
            15.2694033
          ],
          [
            73.97006,
            15.2694349
          ],
          [
            73.9700933,
            15.2694166
          ],
          [
            73.970085,
            15.2693566
          ],
          [
            73.9702316,
            15.2693416
          ],
          [
            73.97015,
            15.2693283
          ],
          [
            73.9700516,
            15.2693983
          ],
          [
            73.9700933,
            15.2693483
          ],
          [
            73.9700116,
            15.2694483
          ],
          [
            73.9702883,
            15.2693016
          ],
          [
            73.970035,
            15.26937
          ],
          [
            73.9701166,
            15.2693833
          ],
          [
            73.9700766,
            15.269365
          ],
          [
            73.9701083,
            15.2693983
          ],
          [
            73.9701666,
            15.2693366
          ],
          [
            73.9702466,
            15.2693916
          ],
          [
            73.9704183,
            15.2692116
          ],
          [
            73.9701333,
            15.2693783
          ],
          [
            73.9702633,
            15.2693383
          ],
          [
            73.9701333,
            15.269405
          ],
          [
            73.9701983,
            15.2691533
          ],
          [
            73.9700933,
            15.2692849
          ],
          [
            73.9701666,
            15.2693366
          ],
          [
            73.9700766,
            15.269315
          ],
          [
            73.9700683,
            15.269305
          ],
          [
            73.9699133,
            15.269485
          ]
        ]
      },
      "properties": {
        "Vehicle_No": "GA 07 G 2317-MRG(EMERGENCY RESCUE TENDER)",
        "Vehicle_Name": "5035",
        "Branch": "Fire Station Margao",
        "created": "25-01-2026 05:29:17+05:30",
        "lastUpdated": "25-01-2026 09:54:36+05:30"
      }
    },
    {
      "type": "Feature",
      "geometry": {
        "type": "LineString",
        "coordinates": [
          [
            73.817,
            15.486575
          ]
        ]
      },
      "properties": {
        "Vehicle_No": "GA 07 G 1570-VAS(QUICK RESPONSE FIRE TENDER)",
        "Vehicle_Name": "5035",
        "Branch": "Fire Station Vasco",
        "created": "25-01-2026 05:30:07+05:30",
        "lastUpdated": "25-01-2026 05:30:07+05:30"
      }
    },
    {
      "type": "Feature",
      "geometry": {
        "type": "LineString",
        "coordinates": [
          [
            73.85127,
            15.3887633
          ]
        ]
      },
      "properties": {
        "Vehicle_No": "GA 07 G 4101-VAS(MS WATER TENDER)",
        "Vehicle_Name": "5035",
        "Branch": "Fire Station Vasco",
        "created": "25-01-2026 05:29:12+05:30",
        "lastUpdated": "25-01-2026 05:29:12+05:30"
      }
    },
    {
      "type": "Feature",
      "geometry": {
        "type": "LineString",
        "coordinates": [
          [
            73.8513267,
            15.388765
          ],
          [
            73.8512933,
            15.388735
          ]
        ]
      },
      "properties": {
        "Vehicle_No": "GA 07 G 0819-VAS(WATER/FOAM TENDER)",
        "Vehicle_Name": "4G",
        "Branch": "Fire Station Vasco",
        "created": "25-01-2026 05:29:46+05:30",
        "lastUpdated": "25-01-2026 07:27:48+05:30"
      }
    },
    {
      "type": "Feature",
      "geometry": {
        "type": "LineString",
        "coordinates": [
          [
            73.9697916,
            15.269265
          ],
          [
            73.970125,
            15.2693516
          ]
        ]
      },
      "properties": {
        "Vehicle_No": "GA 07 G 7100-MRG(WATER BOUSER)",
        "Vehicle_Name": "5035",
        "Branch": "Fire Station Margao",
        "created": "25-01-2026 05:29:46+05:30",
        "lastUpdated": "25-01-2026 05:32:06+05:30"
      }
    },
    {
      "type": "Feature",
      "geometry": {
        "type": "LineString",
        "coordinates": [
          [
            73.9705166,
            15.2694066
          ]
        ]
      },
      "properties": {
        "Vehicle_No": "GA 07 G 1568-MRG(QUICK RESPONSE )",
        "Vehicle_Name": "5035",
        "Branch": "Fire Station Margao",
        "created": "25-01-2026 05:30:09+05:30",
        "lastUpdated": "25-01-2026 05:30:09+05:30"
      }
    },
    {
      "type": "Feature",
      "geometry": {
        "type": "LineString",
        "coordinates": [
          [
            73.9702066,
            15.2693733
          ]
        ]
      },
      "properties": {
        "Vehicle_No": "GA 07 G 6101-MRG(WATER TENDER)",
        "Vehicle_Name": "5035",
        "Branch": "Fire Station Margao",
        "created": "25-01-2026 05:29:49+05:30",
        "lastUpdated": "25-01-2026 05:29:49+05:30"
      }
    },
    {
      "type": "Feature",
      "geometry": {
        "type": "LineString",
        "coordinates": [
          [
            73.969905,
            15.2695333
          ]
        ]
      },
      "properties": {
        "Vehicle_No": "GA 07 G 1001-MRG(AERIAL LADDER PLATFORM)",
        "Vehicle_Name": "5035",
        "Branch": "Fire Station Margao",
        "created": "23-01-2026 11:19:51+05:30",
        "lastUpdated": "23-01-2026 11:19:51+05:30"
      }
    },
    {
      "type": "Feature",
      "geometry": {
        "type": "LineString",
        "coordinates": [
          [
            74.0028111,
            15.4028294
          ]
        ]
      },
      "properties": {
        "Vehicle_No": "GA 07 G 0820-BIC(WATER TEDNER)",
        "Vehicle_Name": "5026",
        "Branch": "Fire Station Bicholim",
        "created": "25-01-2026 05:28:27+05:30",
        "lastUpdated": "25-01-2026 05:28:27+05:30"
      }
    },
    {
      "type": "Feature",
      "geometry": {
        "type": "LineString",
        "coordinates": [
          [
            73.9140633,
            15.5002866
          ],
          [
            73.9134116,
            15.50115
          ],
          [
            73.91381,
            15.5050766
          ],
          [
            73.9134933,
            15.506635
          ],
          [
            73.9134933,
            15.5066716
          ],
          [
            73.9135249,
            15.5067283
          ],
          [
            73.913575,
            15.506745
          ],
          [
            73.91333,
            15.5068783
          ],
          [
            73.9132,
            15.5068483
          ],
          [
            73.9129399,
            15.5076516
          ],
          [
            73.912785,
            15.5086133
          ],
          [
            73.9125333,
            15.50907
          ],
          [
            73.9109616,
            15.5119033
          ],
          [
            73.9062166,
            15.5215866
          ],
          [
            73.9049716,
            15.5254866
          ],
          [
            73.909415,
            15.5293316
          ],
          [
            73.910815,
            15.5295516
          ],
          [
            73.9107983,
            15.5295283
          ]
        ]
      },
      "properties": {
        "Vehicle_No": "GA 07 G 5101-OLG(MS WATER TENDER)",
        "Vehicle_Name": "5035",
        "Branch": "Fire Station Old Goa",
        "created": "25-01-2026 05:29:47+05:30",
        "lastUpdated": "25-01-2026 09:48:59+05:30"
      }
    },
    {
      "type": "Feature",
      "geometry": {
        "type": "LineString",
        "coordinates": [
          [
            73.9461666,
            15.5884216
          ],
          [
            73.9465983,
            15.5897
          ],
          [
            73.9468833,
            15.5894283
          ],
          [
            73.9466966,
            15.5894283
          ],
          [
            73.9465816,
            15.5891683
          ],
          [
            73.9465083,
            15.5890983
          ],
          [
            73.9466883,
            15.589295
          ],
          [
            73.946875,
            15.58926
          ],
          [
            73.9468266,
            15.5892616
          ],
          [
            73.9465583,
            15.5893283
          ],
          [
            73.9464516,
            15.58931
          ],
          [
            73.9467616,
            15.5893133
          ],
          [
            73.94659,
            15.5894566
          ],
          [
            73.9465416,
            15.5893883
          ],
          [
            73.946485,
            15.589295
          ],
          [
            73.946525,
            15.5893083
          ],
          [
            73.9466233,
            15.5892983
          ],
          [
            73.9466466,
            15.5892883
          ],
          [
            73.946615,
            15.5894383
          ],
          [
            73.9462,
            15.5891533
          ],
          [
            73.946485,
            15.5893716
          ],
          [
            73.9465649,
            15.5894166
          ],
          [
            73.9464033,
            15.589085
          ],
          [
            73.946525,
            15.5891716
          ],
          [
            73.9463699,
            15.5889816
          ],
          [
            73.9467449,
            15.58918
          ],
          [
            73.9466883,
            15.5892416
          ],
          [
            73.94677,
            15.589365
          ],
          [
            73.9466066,
            15.5892733
          ],
          [
            73.9465499,
            15.58903
          ],
          [
            73.9466466,
            15.589095
          ],
          [
            73.9466883,
            15.58951
          ],
          [
            73.9477383,
            15.5885966
          ],
          [
            73.946875,
            15.5890183
          ],
          [
            73.9469483,
            15.58904
          ],
          [
            73.9460533,
            15.5890016
          ],
          [
            73.9461833,
            15.5889033
          ],
          [
            73.9460699,
            15.58936
          ],
          [
            73.9459799,
            15.5890183
          ],
          [
            73.9464033,
            15.5890516
          ],
          [
            73.9461266,
            15.5883566
          ],
          [
            73.9458899,
            15.5877916
          ],
          [
            73.9465816,
            15.58948
          ],
          [
            73.9465166,
            15.5894483
          ],
          [
            73.946485,
            15.5894366
          ],
          [
            73.9473149,
            15.5912066
          ],
          [
            73.9477133,
            15.5916233
          ],
          [
            73.9458666,
            15.5889083
          ],
          [
            73.9455816,
            15.588105
          ],
          [
            73.946085,
            15.5886683
          ],
          [
            73.9460933,
            15.5887533
          ],
          [
            73.9457999,
            15.588235
          ],
          [
            73.9458899,
            15.5883316
          ],
          [
            73.946525,
            15.58926
          ],
          [
            73.9466233,
            15.5893816
          ],
          [
            73.9462483,
            15.5889316
          ],
          [
            73.9458416,
            15.5886916
          ],
          [
            73.9458166,
            15.5887083
          ],
          [
            73.9466316,
            15.5890566
          ],
          [
            73.9469566,
            15.589595
          ],
          [
            73.9472733,
            15.59026
          ],
          [
            73.9470466,
            15.5899866
          ]
        ]
      },
      "properties": {
        "Vehicle_No": "GA 07 G 3101-BIC(MS WATER TENDER)",
        "Vehicle_Name": "5035",
        "Branch": "Fire Station Bicholim",
        "created": "25-01-2026 05:29:33+05:30",
        "lastUpdated": "25-01-2026 09:51:08+05:30"
      }
    },
    {
      "type": "Feature",
      "geometry": {
        "type": "LineString",
        "coordinates": [
          [
            73.9467366,
            15.5893916
          ],
          [
            73.94502,
            15.58884
          ],
          [
            73.9423666,
            15.5863366
          ],
          [
            73.940755,
            15.582875
          ],
          [
            73.9392083,
            15.5773433
          ],
          [
            73.9388916,
            15.5752866
          ],
          [
            73.9358966,
            15.5709133
          ],
          [
            73.9295166,
            15.5688733
          ]
        ]
      },
      "properties": {
        "Vehicle_No": "GA 07 G 1941-BIC(QUICK RESPONSE)",
        "Vehicle_Name": "5035",
        "Branch": "Fire Station Bicholim",
        "created": "25-01-2026 05:29:24+05:30",
        "lastUpdated": "25-01-2026 08:51:51+05:30"
      }
    },
    {
      "type": "Feature",
      "geometry": {
        "type": "LineString",
        "coordinates": [
          [
            73.85127,
            15.3887449
          ],
          [
            73.8487383,
            15.3902633
          ],
          [
            73.8417966,
            15.3859233
          ],
          [
            73.8354816,
            15.3856733
          ],
          [
            73.8370366,
            15.3920416
          ],
          [
            73.838785,
            15.3941649
          ],
          [
            73.8382083,
            15.3942266
          ],
          [
            73.8367266,
            15.3924883
          ],
          [
            73.836215,
            15.3928133
          ],
          [
            73.83601,
            15.3902
          ],
          [
            73.8422766,
            15.386135
          ],
          [
            73.8470216,
            15.3879633
          ],
          [
            73.8489916,
            15.3932816
          ],
          [
            73.85389,
            15.3907783
          ],
          [
            73.85389,
            15.3901
          ],
          [
            73.85127,
            15.3888266
          ],
          [
            73.851285,
            15.38882
          ],
          [
            73.8512783,
            15.388815
          ]
        ]
      },
      "properties": {
        "Vehicle_No": "GA 07 G 2319-VAS (EMERGENCY RESCUE TENDER)",
        "Vehicle_Name": "5035",
        "Branch": "Fire Station Vasco",
        "created": "25-01-2026 05:29:56+05:30",
        "lastUpdated": "25-01-2026 09:15:25+05:30"
      }
    },
    {
      "type": "Feature",
      "geometry": {
        "type": "LineString",
        "coordinates": [
          [
            74.138875,
            15.5310666
          ]
        ]
      },
      "properties": {
        "Vehicle_No": "GA 07 G 3737-VAP(WATER TENDER)",
        "Vehicle_Name": "5035",
        "Branch": "Fire Station Valpoi",
        "created": "25-01-2026 05:29:51+05:30",
        "lastUpdated": "25-01-2026 05:29:51+05:30"
      }
    },
    {
      "type": "Feature",
      "geometry": {
        "type": "LineString",
        "coordinates": [
          [
            74.0028083,
            15.4028116
          ]
        ]
      },
      "properties": {
        "Vehicle_No": "GA 07 G 2318-PND(EMERGENCY RESCUE TENDER)",
        "Vehicle_Name": "5035",
        "Branch": "Fire Station Ponda",
        "created": "25-01-2026 05:29:10+05:30",
        "lastUpdated": "25-01-2026 05:29:10+05:30"
      }
    },
    {
      "type": "Feature",
      "geometry": {
        "type": "LineString",
        "coordinates": [
          [
            74.0027583,
            15.4027133
          ]
        ]
      },
      "properties": {
        "Vehicle_No": "GA 07 G 2004-PND(QUICK RESPONSE)",
        "Vehicle_Name": "5035",
        "Branch": "Fire Station Ponda",
        "created": "25-01-2026 05:30:05+05:30",
        "lastUpdated": "25-01-2026 05:30:05+05:30"
      }
    },
    {
      "type": "Feature",
      "geometry": {
        "type": "LineString",
        "coordinates": [
          [
            74.0032066,
            15.4026333
          ]
        ]
      },
      "properties": {
        "Vehicle_No": "GA 07 G 9101-PND(WATER TENDER)",
        "Vehicle_Name": "5035",
        "Branch": "Fire Station Ponda",
        "created": "25-01-2026 05:29:50+05:30",
        "lastUpdated": "25-01-2026 05:29:50+05:30"
      }
    },
    {
      "type": "Feature",
      "geometry": {
        "type": "LineString",
        "coordinates": [
          [
            74.00293,
            15.4026333
          ],
          [
            74.0037766,
            15.4006633
          ],
          [
            74.0038816,
            15.3988266
          ],
          [
            74.0026116,
            15.3934716
          ],
          [
            74.003695,
            15.3898683
          ],
          [
            74.0055983,
            15.3824183
          ],
          [
            74.0085366,
            15.3776183
          ],
          [
            74.0109216,
            15.3730483
          ],
          [
            74.004655,
            15.3666683
          ],
          [
            74.0023033,
            15.3481349
          ],
          [
            74.0009366,
            15.3425266
          ],
          [
            73.99427,
            15.3352033
          ],
          [
            73.9867999,
            15.3224
          ],
          [
            73.9825683,
            15.3180833
          ],
          [
            73.9817049,
            15.31057
          ],
          [
            73.975675,
            15.30444
          ]
        ]
      },
      "properties": {
        "Vehicle_No": "GA 07 G 9797-PND(WATER BOUSER)",
        "Vehicle_Name": "5035",
        "Branch": "Fire Station Ponda",
        "created": "25-01-2026 05:29:43+05:30",
        "lastUpdated": "25-01-2026 09:54:35+05:30"
      }
    },
    {
      "type": "Feature",
      "geometry": {
        "type": "LineString",
        "coordinates": [
          [
            74.0440666,
            15.0235883
          ]
        ]
      },
      "properties": {
        "Vehicle_No": "GA 07 G 6363-CAN(WATER TENDER)",
        "Vehicle_Name": "5035",
        "Branch": "Fire Station Canacona",
        "created": "25-01-2026 05:29:56+05:30",
        "lastUpdated": "25-01-2026 05:29:56+05:30"
      }
    },
    {
      "type": "Feature",
      "geometry": {
        "type": "LineString",
        "coordinates": [
          [
            74.0440666,
            15.0235883
          ],
          [
            74.0329833,
            15.029425
          ],
          [
            74.0330233,
            15.0294183
          ],
          [
            74.0330233,
            15.0294783
          ],
          [
            74.0329666,
            15.02951
          ],
          [
            74.0331216,
            15.0295516
          ],
          [
            74.033325,
            15.0303466
          ],
          [
            74.0304366,
            15.0364783
          ],
          [
            73.9909916,
            15.0534833
          ],
          [
            73.9826333,
            15.0542966
          ],
          [
            73.9826733,
            15.05484
          ],
          [
            73.98164,
            15.0623999
          ],
          [
            73.9816483,
            15.0677149
          ]
        ]
      },
      "properties": {
        "Vehicle_No": "GA 07 G 1567-CAN(QUICK RESPONSE FT)",
        "Vehicle_Name": "5035",
        "Branch": "Fire Station Canacona",
        "created": "24-01-2026 21:51:28+05:30",
        "lastUpdated": "25-01-2026 09:54:30+05:30"
      }
    },
    {
      "type": "Feature",
      "geometry": {
        "type": "LineString",
        "coordinates": [
          [
            73.9356533,
            15.3696816
          ]
        ]
      },
      "properties": {
        "Vehicle_No": "GA 07 G 1569-VRN(QUICK RESPONSE)",
        "Vehicle_Name": "5035",
        "Branch": "Fire Station Verna",
        "created": "25-01-2026 05:29:33+05:30",
        "lastUpdated": "25-01-2026 05:29:33+05:30"
      }
    },
    {
      "type": "Feature",
      "geometry": {
        "type": "LineString",
        "coordinates": [
          [
            73.9355949,
            15.3696783
          ],
          [
            73.9353683,
            15.3697183
          ]
        ]
      },
      "properties": {
        "Vehicle_No": "GA 07 G 9909-VRN(ADVANCE MULTI-PURPOSE)",
        "Vehicle_Name": "5035",
        "Branch": "Fire Station Verna",
        "created": "25-01-2026 05:28:32+05:30",
        "lastUpdated": "25-01-2026 07:32:40+05:30"
      }
    },
    {
      "type": "Feature",
      "geometry": {
        "type": "LineString",
        "coordinates": [
          [
            74.1388099,
            15.5311499
          ]
        ]
      },
      "properties": {
        "Vehicle_No": "GA 07 G 1942-VAP(QUICK RESPONSE)",
        "Vehicle_Name": "5035",
        "Branch": "Fire Station Valpoi",
        "created": "25-01-2026 05:29:52+05:30",
        "lastUpdated": "25-01-2026 05:29:52+05:30"
      }
    },
    {
      "type": "Feature",
      "geometry": {
        "type": "LineString",
        "coordinates": [
          [
            74.103695,
            15.26034
          ],
          [
            74.1035649,
            15.2603316
          ]
        ]
      },
      "properties": {
        "Vehicle_No": "GA 07 G 2003-CUR(QUICK RESPONSE)",
        "Vehicle_Name": "5035",
        "Branch": "Fire Station Curchorem",
        "created": "25-01-2026 05:29:12+05:30",
        "lastUpdated": "25-01-2026 09:23:34+05:30"
      }
    },
    {
      "type": "Feature",
      "geometry": {
        "type": "LineString",
        "coordinates": [
          [
            74.1038416,
            15.2604016
          ]
        ]
      },
      "properties": {
        "Vehicle_No": "GA 07 G 7447-CUR(EMERGENCY RESCUE)",
        "Vehicle_Name": "5035",
        "Branch": "Fire Station Curchorem",
        "created": "25-01-2026 05:29:39+05:30",
        "lastUpdated": "25-01-2026 05:29:39+05:30"
      }
    },
    {
      "type": "Feature",
      "geometry": {
        "type": "LineString",
        "coordinates": [
          [
            74.1037033,
            15.260395
          ]
        ]
      },
      "properties": {
        "Vehicle_No": "GA 07 G 7557-CUR(WATER TENDER)",
        "Vehicle_Name": "5035",
        "Branch": "Fire Station Curchorem",
        "created": "25-01-2026 05:29:43+05:30",
        "lastUpdated": "25-01-2026 05:29:43+05:30"
      }
    },
    {
      "type": "Feature",
      "geometry": {
        "type": "LineString",
        "coordinates": [
          [
            74.1038333,
            15.2603433
          ]
        ]
      },
      "properties": {
        "Vehicle_No": "GA 07 G 7667-CUR(WATER BOUSER)",
        "Vehicle_Name": "5035",
        "Branch": "Fire Station Curchorem",
        "created": "25-01-2026 05:29:34+05:30",
        "lastUpdated": "25-01-2026 05:29:34+05:30"
      }
    },
    {
      "type": "Feature",
      "geometry": {
        "type": "LineString",
        "coordinates": [
          [
            73.97268,
            15.462985
          ],
          [
            73.9717283,
            15.4627733
          ],
          [
            73.9718917,
            15.46289
          ],
          [
            73.9726233,
            15.4630683
          ],
          [
            73.9726483,
            15.46302
          ],
          [
            73.9723467,
            15.4630033
          ],
          [
            73.9725267,
            15.4631017
          ],
          [
            73.97207,
            15.46257
          ],
          [
            73.9726233,
            15.4634683
          ],
          [
            73.9730383,
            15.4639117
          ],
          [
            73.9724367,
            15.4631067
          ],
          [
            73.972355,
            15.463105
          ],
          [
            73.9726233,
            15.4633967
          ],
          [
            73.97299,
            15.46405
          ],
          [
            73.9724533,
            15.4634183
          ],
          [
            73.972615,
            15.4632383
          ],
          [
            73.9726233,
            15.4631267
          ],
          [
            73.972575,
            15.46273
          ],
          [
            73.9725417,
            15.4629983
          ],
          [
            73.9721767,
            15.4633933
          ],
          [
            73.97233,
            15.4628583
          ],
          [
            73.9728683,
            15.4626
          ],
          [
            73.9724283,
            15.46283
          ],
          [
            73.97264,
            15.462925
          ],
          [
            73.97264,
            15.4629167
          ]
        ]
      },
      "properties": {
        "Vehicle_No": "GA 07 G 4989-KUN(WATER TENDER)",
        "Vehicle_Name": "G-100",
        "Branch": "Fire Station Kundaim",
        "created": "25-01-2026 05:29:35+05:30",
        "lastUpdated": "25-01-2026 09:29:54+05:30"
      }
    },
    {
      "type": "Feature",
      "geometry": {
        "type": "LineString",
        "coordinates": [
          [
            73.7942094,
            15.5329972
          ],
          [
            73.79461,
            15.5347211
          ],
          [
            73.7909911,
            15.5389522
          ],
          [
            73.7896794,
            15.5397611
          ],
          [
            73.7892794,
            15.5440217
          ],
          [
            73.7852306,
            15.5459128
          ],
          [
            73.78281,
            15.5453128
          ],
          [
            73.7786961,
            15.5431822
          ],
          [
            73.76921,
            15.5415717
          ],
          [
            73.7663894,
            15.5439183
          ],
          [
            73.7642578,
            15.54554
          ],
          [
            73.7597639,
            15.5488461
          ],
          [
            73.7585,
            15.5522667
          ],
          [
            73.7558522,
            15.556115
          ],
          [
            73.7555006,
            15.5566828
          ],
          [
            73.7544289,
            15.5565656
          ],
          [
            73.7537828,
            15.5565017
          ],
          [
            73.7520056,
            15.5562167
          ],
          [
            73.7519478,
            15.5563967
          ],
          [
            73.75208,
            15.5570983
          ],
          [
            73.7564533,
            15.5553606
          ],
          [
            73.7580944,
            15.55289
          ],
          [
            73.7599,
            15.5484433
          ],
          [
            73.7607472,
            15.5457506
          ],
          [
            73.7646433,
            15.5456944
          ],
          [
            73.7682394,
            15.540725
          ],
          [
            73.7735939,
            15.54166
          ],
          [
            73.7813311,
            15.5430678
          ],
          [
            73.7838322,
            15.5404094
          ],
          [
            73.7896644,
            15.5406533
          ],
          [
            73.7909661,
            15.5387967
          ],
          [
            73.7936333,
            15.5364967
          ],
          [
            73.7945556,
            15.5351283
          ],
          [
            73.7939172,
            15.5330022
          ],
          [
            73.7940944,
            15.5329056
          ],
          [
            73.7940433,
            15.5331744
          ],
          [
            73.7939783,
            15.533235
          ],
          [
            73.7939572,
            15.5332444
          ],
          [
            73.7939944,
            15.5329589
          ],
          [
            73.7940761,
            15.5329372
          ]
        ]
      },
      "properties": {
        "Vehicle_No": "GA 07 G 2242-PIL(WATER TENDER)",
        "Vehicle_Name": "5026",
        "Branch": "Fire Station Pilerne",
        "created": "25-01-2026 05:29:18+05:30",
        "lastUpdated": "25-01-2026 08:55:30+05:30"
      }
    },
    {
      "type": "Feature",
      "geometry": {
        "type": "LineString",
        "coordinates": [
          [
            73.8084883,
            15.5897767
          ]
        ]
      },
      "properties": {
        "Vehicle_No": "GA 07 G 0681-MAP(QUICK RESPONSE)",
        "Vehicle_Name": "AT 5036A-4G",
        "Branch": "Fire Station Mapusa",
        "created": "25-01-2026 05:30:07+05:30",
        "lastUpdated": "25-01-2026 05:30:07+05:30"
      }
    },
    {
      "type": "Feature",
      "geometry": {
        "type": "LineString",
        "coordinates": [
          [
            73.797405,
            15.7164278
          ],
          [
            73.7976311,
            15.7164494
          ],
          [
            73.7975972,
            15.7164717
          ],
          [
            73.7975511,
            15.7164956
          ],
          [
            73.7975272,
            15.7165072
          ],
          [
            73.7975183,
            15.7164972
          ],
          [
            73.7975161,
            15.7164983
          ],
          [
            73.7975,
            15.7165011
          ],
          [
            73.7974978,
            15.7165006
          ],
          [
            73.7974956,
            15.7165017
          ],
          [
            73.7974867,
            15.7165039
          ],
          [
            73.7974833,
            15.7165044
          ],
          [
            73.7974839,
            15.7165022
          ],
          [
            73.79748,
            15.7165056
          ],
          [
            73.7974794,
            15.716505
          ],
          [
            73.7974739,
            15.7165044
          ],
          [
            73.7974683,
            15.7165017
          ],
          [
            73.7974667,
            15.7165006
          ],
          [
            73.7974717,
            15.7164967
          ]
        ]
      },
      "properties": {
        "Vehicle_No": "GA 07 G 2101-PER(MS WATER TENDER)",
        "Vehicle_Name": "AT5032-4G",
        "Branch": "Fire Station Pernem",
        "created": "25-01-2026 05:28:02+05:30",
        "lastUpdated": "25-01-2026 09:01:06+05:30"
      }
    },
    {
      "type": "Feature",
      "geometry": {
        "type": "LineString",
        "coordinates": [
          [
            73.7975033,
            15.7165494
          ],
          [
            73.7974483,
            15.7166111
          ],
          [
            73.7974939,
            15.7165367
          ],
          [
            73.7974956,
            15.7165283
          ],
          [
            73.797495,
            15.7165311
          ],
          [
            73.7974939,
            15.71653
          ],
          [
            73.7974889,
            15.71653
          ],
          [
            73.7974894,
            15.7165289
          ],
          [
            73.7974844,
            15.71653
          ],
          [
            73.7974828,
            15.7165278
          ],
          [
            73.7974844,
            15.7165328
          ],
          [
            73.7974889,
            15.7165367
          ],
          [
            73.7974917,
            15.7165411
          ],
          [
            73.7974939,
            15.7165394
          ],
          [
            73.7974928,
            15.71654
          ],
          [
            73.797495,
            15.7165367
          ],
          [
            73.7974967,
            15.7165361
          ],
          [
            73.7975,
            15.7165283
          ],
          [
            73.7975072,
            15.7165256
          ],
          [
            73.7975156,
            15.7165239
          ],
          [
            73.7975183,
            15.7165239
          ],
          [
            73.7975178,
            15.7165267
          ],
          [
            73.7975178,
            15.7165272
          ],
          [
            73.7975172,
            15.7165289
          ]
        ]
      },
      "properties": {
        "Vehicle_No": "GA 07 G 4600-PER(MINI RESCUE TENDER)",
        "Vehicle_Name": "AT 5032-4G",
        "Branch": "Fire Station Pernem",
        "created": "25-01-2026 05:27:48+05:30",
        "lastUpdated": "25-01-2026 09:04:29+05:30"
      }
    },
    {
      "type": "Feature",
      "geometry": {
        "type": "LineString",
        "coordinates": [
          [
            73.81719,
            15.4871256
          ],
          [
            73.8172411,
            15.4871217
          ],
          [
            73.8172717,
            15.4871867
          ],
          [
            73.8172911,
            15.4872378
          ],
          [
            73.8172739,
            15.4871033
          ],
          [
            73.8170128,
            15.4866433
          ],
          [
            73.8171433,
            15.4864211
          ],
          [
            73.8169583,
            15.4864633
          ],
          [
            73.8173078,
            15.4868994
          ]
        ]
      },
      "properties": {
        "Vehicle_No": "GA 07 G 7272-PNJ(WATER TENDER)",
        "Vehicle_Name": "AT-5032-4G",
        "Branch": "Fire Station Panaji",
        "created": "25-01-2026 05:29:11+05:30",
        "lastUpdated": "25-01-2026 06:44:04+05:30"
      }
    },
    {
      "type": "Feature",
      "geometry": {
        "type": "LineString",
        "coordinates": [
          [
            74.0210356,
            15.1861967
          ]
        ]
      },
      "properties": {
        "Vehicle_No": "GA07G2384- Cuncolim",
        "Vehicle_Name": "AT 5032-4G",
        "Branch": "Fire Station Cuncolim",
        "created": "25-01-2026 05:29:26+05:30",
        "lastUpdated": "25-01-2026 05:29:26+05:30"
      }
    },
    {
      "type": "Feature",
      "geometry": {
        "type": "LineString",
        "coordinates": [
          [
            73.7975833,
            15.7164283
          ]
        ]
      },
      "properties": {
        "Vehicle_No": "GA07G2507 - PER Mid Size (Water Tender)",
        "Vehicle_Name": "5035",
        "Branch": "Fire Station Pernem",
        "created": "25-01-2026 05:30:04+05:30",
        "lastUpdated": "25-01-2026 05:30:04+05:30"
      }
    },
    {
      "type": "Feature",
      "geometry": {
        "type": "LineString",
        "coordinates": [
          [
            74.138575,
            15.5309633
          ]
        ]
      },
      "properties": {
        "Vehicle_No": "GA07G2505 - VAP Mid Size (Water Tender)",
        "Vehicle_Name": "5035",
        "Branch": "Fire Station Valpoi",
        "created": "25-01-2026 05:29:43+05:30",
        "lastUpdated": "25-01-2026 05:29:43+05:30"
      }
    },
    {
      "type": "Feature",
      "geometry": {
        "type": "LineString",
        "coordinates": [
          [
            73.9466467,
            15.58946
          ],
          [
            73.9465417,
            15.5892717
          ]
        ]
      },
      "properties": {
        "Vehicle_No": "GA07G2504 - BIC Mid Size (Water Tender)",
        "Vehicle_Name": "5035",
        "Branch": "Fire Station Bicholim",
        "created": "25-01-2026 05:29:22+05:30",
        "lastUpdated": "25-01-2026 05:31:17+05:30"
      }
    },
    {
      "type": "Feature",
      "geometry": {
        "type": "LineString",
        "coordinates": [
          [
            73.8085533,
            15.5899517
          ]
        ]
      },
      "properties": {
        "Vehicle_No": "GA07G2503- MAP Mid Size (Water Tender)",
        "Vehicle_Name": "5035",
        "Branch": "Fire Station Mapusa",
        "created": "25-01-2026 05:30:10+05:30",
        "lastUpdated": "25-01-2026 05:30:10+05:30"
      }
    },
    {
      "type": "Feature",
      "geometry": {
        "type": "LineString",
        "coordinates": [
          [
            73.8172117,
            15.48693
          ],
          [
            73.8171383,
            15.4869733
          ],
          [
            73.8165683,
            15.491565
          ],
          [
            73.8180333,
            15.4935467
          ],
          [
            73.8171467,
            15.494035
          ],
          [
            73.8174483,
            15.493845
          ],
          [
            73.8174233,
            15.4938417
          ],
          [
            73.8174483,
            15.4938233
          ]
        ]
      },
      "properties": {
        "Vehicle_No": "GA07G2502 - FFHQ Mid Size (Water Tender)",
        "Vehicle_Name": "5035",
        "Branch": "Fire Force Headquarters",
        "created": "25-01-2026 05:29:48+05:30",
        "lastUpdated": "25-01-2026 07:46:27+05:30"
      }
    }
  ]
}