{
  "type": "FeatureCollection",
  "metadata": {
    "date": "20260117",
    "source": "Directorate of Fire Emergency Services, Govt. of Goa",
    "description": "Daily GPS tracks of fire trucks",
    "lastUpdated": "2026-01-17T02:05:03.403Z",
    "count": 52
  },
  "features": [
    {
      "type": "Feature",
      "geometry": {
        "type": "LineString",
        "coordinates": [
          [
            73.8294267,
            15.52289
          ]
        ]
      },
      "properties": {
        "Vehicle_No": "GA 07 G 0680-PIL(QUICK RESPONSE VEHICLE)",
        "Vehicle_Name": "4G",
        "Branch": "Fire Station Pilerne",
        "created": "17-01-2026 05:29:59+05:30",
        "lastUpdated": "17-01-2026 05:29:59+05:30"
      }
    },
    {
      "type": "Feature",
      "geometry": {
        "type": "LineString",
        "coordinates": [
          [
            73.9142,
            15.500282
          ],
          [
            73.91407,
            15.500308
          ],
          [
            73.914085,
            15.500353
          ],
          [
            73.91407,
            15.500335
          ],
          [
            73.914124,
            15.50028
          ],
          [
            73.914146,
            15.50028
          ],
          [
            73.914139,
            15.500263
          ],
          [
            73.914124,
            15.500258
          ]
        ]
      },
      "properties": {
        "Vehicle_No": "GA07G2506 - OLG Mid Size (Water Tender)",
        "Vehicle_Name": "TS101",
        "Branch": "Fire Station Old Goa",
        "created": "17-01-2026 05:28:19+05:30",
        "lastUpdated": "17-01-2026 07:34:56+05:30"
      }
    },
    {
      "type": "Feature",
      "geometry": {
        "type": "LineString",
        "coordinates": [
          [
            73.829453,
            15.52334
          ]
        ]
      },
      "properties": {
        "Vehicle_No": "GA 07 G 5115-POR(MINI WATER TENDER)",
        "Vehicle_Name": "TS101",
        "Branch": "Fire Station Porvorim",
        "created": "17-01-2026 05:28:44+05:30",
        "lastUpdated": "17-01-2026 05:28:44+05:30"
      }
    },
    {
      "type": "Feature",
      "geometry": {
        "type": "LineString",
        "coordinates": [
          [
            73.970604,
            15.26947
          ],
          [
            73.970627,
            15.269438
          ]
        ]
      },
      "properties": {
        "Vehicle_No": "GA 07 G 0350-MRG(WATER TENDER)",
        "Vehicle_Name": "TS101",
        "Branch": "Fire Station Margao",
        "created": "17-01-2026 05:28:33+05:30",
        "lastUpdated": "17-01-2026 05:30:33+05:30"
      }
    },
    {
      "type": "Feature",
      "geometry": {
        "type": "LineString",
        "coordinates": [
          [
            73.808846,
            15.589848
          ],
          [
            73.808624,
            15.58999
          ]
        ]
      },
      "properties": {
        "Vehicle_No": "GA 07 G 2900-MAP(MINI RESCUE TENDER)",
        "Vehicle_Name": "TS101",
        "Branch": "Fire Station Mapusa",
        "created": "17-01-2026 05:28:17+05:30",
        "lastUpdated": "17-01-2026 05:32:21+05:30"
      }
    },
    {
      "type": "Feature",
      "geometry": {
        "type": "LineString",
        "coordinates": [
          [
            73.817238,
            15.48733
          ],
          [
            73.817444,
            15.487422
          ],
          [
            73.817329,
            15.487132
          ],
          [
            73.817146,
            15.487228
          ],
          [
            73.817154,
            15.487205
          ],
          [
            73.817146,
            15.487322
          ],
          [
            73.817703,
            15.486743
          ],
          [
            73.81723,
            15.486365
          ],
          [
            73.817238,
            15.48638
          ],
          [
            73.817215,
            15.486377
          ],
          [
            73.817223,
            15.486372
          ],
          [
            73.81723,
            15.486378
          ],
          [
            73.817268,
            15.48641
          ],
          [
            73.817261,
            15.486418
          ],
          [
            73.817253,
            15.486415
          ],
          [
            73.817116,
            15.486392
          ],
          [
            73.817047,
            15.486637
          ],
          [
            73.81778,
            15.486828
          ],
          [
            73.817184,
            15.487208
          ],
          [
            73.8172,
            15.487215
          ],
          [
            73.817215,
            15.487228
          ],
          [
            73.817192,
            15.487178
          ],
          [
            73.817184,
            15.487188
          ],
          [
            73.817177,
            15.487213
          ],
          [
            73.817169,
            15.487248
          ],
          [
            73.817131,
            15.487232
          ],
          [
            73.817108,
            15.487192
          ],
          [
            73.816498,
            15.48629
          ],
          [
            73.81649,
            15.486293
          ],
          [
            73.816528,
            15.486375
          ],
          [
            73.816505,
            15.486395
          ],
          [
            73.816589,
            15.486468
          ],
          [
            73.816689,
            15.486463
          ],
          [
            73.816696,
            15.486462
          ],
          [
            73.816689,
            15.486552
          ],
          [
            73.816673,
            15.486547
          ],
          [
            73.816666,
            15.486563
          ],
          [
            73.816673,
            15.486583
          ],
          [
            73.81675,
            15.486663
          ],
          [
            73.816833,
            15.486793
          ],
          [
            73.816696,
            15.486605
          ],
          [
            73.816734,
            15.486583
          ],
          [
            73.816788,
            15.486573
          ],
          [
            73.816864,
            15.486718
          ],
          [
            73.816956,
            15.486753
          ],
          [
            73.816986,
            15.486765
          ],
          [
            73.817055,
            15.486883
          ]
        ]
      },
      "properties": {
        "Vehicle_No": "GA 07 G 7600-FFHQ(WATER BOUSER)",
        "Vehicle_Name": "TS101",
        "Branch": "Fire Force Headquarters",
        "created": "17-01-2026 05:27:46+05:30",
        "lastUpdated": "17-01-2026 07:35:02+05:30"
      }
    },
    {
      "type": "Feature",
      "geometry": {
        "type": "LineString",
        "coordinates": [
          [
            73.81723,
            15.487268
          ],
          [
            73.817276,
            15.487413
          ]
        ]
      },
      "properties": {
        "Vehicle_No": "GA 07 G 2002-FFHQ(TURN TABLE LADDER)",
        "Vehicle_Name": "TS101",
        "Branch": "Fire Force Headquarters",
        "created": "17-01-2026 05:26:30+05:30",
        "lastUpdated": "17-01-2026 05:30:35+05:30"
      }
    },
    {
      "type": "Feature",
      "geometry": {
        "type": "LineString",
        "coordinates": [
          [
            73.817024,
            15.486835
          ],
          [
            73.816971,
            15.48682
          ],
          [
            73.817062,
            15.486858
          ],
          [
            73.817017,
            15.486852
          ],
          [
            73.816994,
            15.486848
          ],
          [
            73.817009,
            15.486845
          ],
          [
            73.817017,
            15.48689
          ],
          [
            73.817375,
            15.486725
          ],
          [
            73.816483,
            15.4854
          ],
          [
            73.816666,
            15.486
          ],
          [
            73.81665,
            15.486043
          ],
          [
            73.816673,
            15.485885
          ],
          [
            73.816383,
            15.485595
          ],
          [
            73.816467,
            15.485585
          ]
        ]
      },
      "properties": {
        "Vehicle_No": "GA 07 G 7101-FFHQ(WATER TENDER)",
        "Vehicle_Name": "TS101",
        "Branch": "Fire Force Headquarters",
        "created": "17-01-2026 05:29:55+05:30",
        "lastUpdated": "17-01-2026 07:05:23+05:30"
      }
    },
    {
      "type": "Feature",
      "geometry": {
        "type": "LineString",
        "coordinates": [
          [
            73.817268,
            15.486923
          ],
          [
            73.817001,
            15.487177
          ],
          [
            73.817123,
            15.486975
          ],
          [
            73.817108,
            15.486962
          ],
          [
            73.819221,
            15.486768
          ],
          [
            73.82177,
            15.484915
          ],
          [
            73.825516,
            15.481802
          ],
          [
            73.829994,
            15.483038
          ],
          [
            73.830887,
            15.48532
          ],
          [
            73.831253,
            15.488737
          ],
          [
            73.830399,
            15.489795
          ],
          [
            73.828758,
            15.489735
          ],
          [
            73.82856,
            15.49173
          ],
          [
            73.827858,
            15.491907
          ],
          [
            73.826996,
            15.488055
          ],
          [
            73.823036,
            15.488692
          ],
          [
            73.821754,
            15.492925
          ],
          [
            73.820595,
            15.493045
          ],
          [
            73.817635,
            15.486625
          ],
          [
            73.817116,
            15.486722
          ],
          [
            73.817276,
            15.486363
          ],
          [
            73.817314,
            15.486352
          ],
          [
            73.817047,
            15.486462
          ],
          [
            73.817039,
            15.487002
          ],
          [
            73.817055,
            15.487037
          ],
          [
            73.817001,
            15.487008
          ],
          [
            73.816986,
            15.487057
          ],
          [
            73.817032,
            15.487092
          ]
        ]
      },
      "properties": {
        "Vehicle_No": "GA 07 G 7677-FFHQ(EMERGENCY RESCUE)",
        "Vehicle_Name": "TS101",
        "Branch": "Fire Force Headquarters",
        "created": "17-01-2026 05:29:50+05:30",
        "lastUpdated": "17-01-2026 07:11:26+05:30"
      }
    },
    {
      "type": "Feature",
      "geometry": {
        "type": "LineString",
        "coordinates": [
          [
            73.817223,
            15.487202
          ],
          [
            73.817299,
            15.487333
          ]
        ]
      },
      "properties": {
        "Vehicle_No": "GA 07 G 1121-PNJ(EMERGENCY RESCUE)",
        "Vehicle_Name": "TS101",
        "Branch": "Fire Station Panaji",
        "created": "17-01-2026 05:26:03+05:30",
        "lastUpdated": "17-01-2026 05:30:07+05:30"
      }
    },
    {
      "type": "Feature",
      "geometry": {
        "type": "LineString",
        "coordinates": [
          [
            73.817696,
            15.486478
          ],
          [
            73.817513,
            15.486457
          ],
          [
            73.81739,
            15.48661
          ]
        ]
      },
      "properties": {
        "Vehicle_No": "GA 07 G 1571-FFHQ(QUICK RESPONSE)",
        "Vehicle_Name": "TS101",
        "Branch": "Fire Force Headquarters",
        "created": "17-01-2026 05:28:32+05:30",
        "lastUpdated": "17-01-2026 07:22:40+05:30"
      }
    },
    {
      "type": "Feature",
      "geometry": {
        "type": "LineString",
        "coordinates": [
          [
            73.808624,
            15.589968
          ],
          [
            73.808624,
            15.589972
          ]
        ]
      },
      "properties": {
        "Vehicle_No": "GA 07 G 8101-MAP(WATER TENDER)",
        "Vehicle_Name": "TS101",
        "Branch": "Fire Station Mapusa",
        "created": "17-01-2026 05:29:03+05:30",
        "lastUpdated": "17-01-2026 05:33:07+05:30"
      }
    },
    {
      "type": "Feature",
      "geometry": {
        "type": "LineString",
        "coordinates": [
          [
            73.9701666,
            15.2694116
          ],
          [
            73.970035,
            15.2694133
          ],
          [
            73.9697666,
            15.2694266
          ],
          [
            73.970035,
            15.269385
          ],
          [
            73.970125,
            15.2693216
          ],
          [
            73.9700766,
            15.2693683
          ],
          [
            73.9700516,
            15.2694716
          ],
          [
            73.9701083,
            15.2694233
          ]
        ]
      },
      "properties": {
        "Vehicle_No": "GA 07 G 2317-MRG(EMERGENCY RESCUE TENDER)",
        "Vehicle_Name": "5035",
        "Branch": "Fire Station Margao",
        "created": "17-01-2026 05:29:03+05:30",
        "lastUpdated": "17-01-2026 07:19:49+05:30"
      }
    },
    {
      "type": "Feature",
      "geometry": {
        "type": "LineString",
        "coordinates": [
          [
            73.8513266,
            15.3887733
          ]
        ]
      },
      "properties": {
        "Vehicle_No": "GA 07 G 1570-VAS(QUICK RESPONSE FIRE TENDER)",
        "Vehicle_Name": "5035",
        "Branch": "Fire Station Vasco",
        "created": "17-01-2026 05:29:07+05:30",
        "lastUpdated": "17-01-2026 05:29:07+05:30"
      }
    },
    {
      "type": "Feature",
      "geometry": {
        "type": "LineString",
        "coordinates": [
          [
            73.851285,
            15.3888166
          ]
        ]
      },
      "properties": {
        "Vehicle_No": "GA 07 G 4101-VAS(MS WATER TENDER)",
        "Vehicle_Name": "5035",
        "Branch": "Fire Station Vasco",
        "created": "17-01-2026 05:28:52+05:30",
        "lastUpdated": "17-01-2026 05:28:52+05:30"
      }
    },
    {
      "type": "Feature",
      "geometry": {
        "type": "LineString",
        "coordinates": [
          [
            73.8510983,
            15.38905
          ],
          [
            73.8511467,
            15.3890383
          ],
          [
            73.8511967,
            15.3889533
          ],
          [
            73.8514317,
            15.3887567
          ],
          [
            73.8514317,
            15.3886633
          ],
          [
            73.8477217,
            15.388825
          ],
          [
            73.8492917,
            15.39163
          ],
          [
            73.85022,
            15.3934167
          ],
          [
            73.8536533,
            15.3910467
          ],
          [
            73.8550867,
            15.390075
          ],
          [
            73.8635983,
            15.387525
          ],
          [
            73.869995,
            15.3862733
          ],
          [
            73.8731367,
            15.386635
          ],
          [
            73.8813883,
            15.3810667
          ],
          [
            73.8889483,
            15.3734367
          ],
          [
            73.8930017,
            15.3723983
          ],
          [
            73.9034017,
            15.3753667
          ],
          [
            73.9083667,
            15.37716
          ],
          [
            73.916585,
            15.378345
          ],
          [
            73.9251383,
            15.37621
          ],
          [
            73.9238933,
            15.3832483
          ],
          [
            73.9127033,
            15.3954617
          ],
          [
            73.906885,
            15.4055017
          ],
          [
            73.9059817,
            15.4157783
          ],
          [
            73.89917,
            15.4235033
          ],
          [
            73.8860433,
            15.4334167
          ],
          [
            73.8820233,
            15.436995
          ],
          [
            73.8735267,
            15.4417067
          ],
          [
            73.86337,
            15.4449667
          ],
          [
            73.862695,
            15.4511867
          ],
          [
            73.8661467,
            15.4600383
          ],
          [
            73.8656,
            15.464695
          ],
          [
            73.8568767,
            15.4645733
          ],
          [
            73.8518967,
            15.4609233
          ],
          [
            73.8484783,
            15.4564283
          ],
          [
            73.841235,
            15.4567767
          ],
          [
            73.83409,
            15.4573967
          ],
          [
            73.8305833,
            15.4584033
          ],
          [
            73.8184817,
            15.4591283
          ],
          [
            73.811345,
            15.4592283
          ],
          [
            73.8076817,
            15.4587033
          ],
          [
            73.803515,
            15.458185
          ],
          [
            73.8074783,
            15.4691067
          ],
          [
            73.8083,
            15.4776817
          ],
          [
            73.80887,
            15.4826667
          ]
        ]
      },
      "properties": {
        "Vehicle_No": "GA 07 G 0819-VAS(WATER/FOAM TENDER)",
        "Vehicle_Name": "4G",
        "Branch": "Fire Station Vasco",
        "created": "17-01-2026 05:29:35+05:30",
        "lastUpdated": "17-01-2026 07:34:36+05:30"
      }
    },
    {
      "type": "Feature",
      "geometry": {
        "type": "LineString",
        "coordinates": [
          [
            73.9701416,
            15.2694066
          ],
          [
            73.969995,
            15.269415
          ]
        ]
      },
      "properties": {
        "Vehicle_No": "GA 07 G 7100-MRG(WATER BOUSER)",
        "Vehicle_Name": "5035",
        "Branch": "Fire Station Margao",
        "created": "17-01-2026 05:29:47+05:30",
        "lastUpdated": "17-01-2026 05:30:26+05:30"
      }
    },
    {
      "type": "Feature",
      "geometry": {
        "type": "LineString",
        "coordinates": [
          [
            73.9705166,
            15.2693416
          ]
        ]
      },
      "properties": {
        "Vehicle_No": "GA 07 G 1568-MRG(QUICK RESPONSE )",
        "Vehicle_Name": "5035",
        "Branch": "Fire Station Margao",
        "created": "17-01-2026 05:29:31+05:30",
        "lastUpdated": "17-01-2026 05:29:31+05:30"
      }
    },
    {
      "type": "Feature",
      "geometry": {
        "type": "LineString",
        "coordinates": [
          [
            73.970255,
            15.2694116
          ]
        ]
      },
      "properties": {
        "Vehicle_No": "GA 07 G 6101-MRG(WATER TENDER)",
        "Vehicle_Name": "5035",
        "Branch": "Fire Station Margao",
        "created": "17-01-2026 05:29:13+05:30",
        "lastUpdated": "17-01-2026 05:29:13+05:30"
      }
    },
    {
      "type": "Feature",
      "geometry": {
        "type": "LineString",
        "coordinates": [
          [
            73.9703133,
            15.2693583
          ],
          [
            73.9701583,
            15.26938
          ]
        ]
      },
      "properties": {
        "Vehicle_No": "GA 07 G 1001-MRG(AERIAL LADDER PLATFORM)",
        "Vehicle_Name": "5035",
        "Branch": "Fire Station Margao",
        "created": "17-01-2026 05:29:08+05:30",
        "lastUpdated": "17-01-2026 05:30:32+05:30"
      }
    },
    {
      "type": "Feature",
      "geometry": {
        "type": "LineString",
        "coordinates": [
          [
            74.0028217,
            15.4027967
          ]
        ]
      },
      "properties": {
        "Vehicle_No": "GA 07 G 0820-BIC(WATER TEDNER)",
        "Vehicle_Name": "5026",
        "Branch": "Fire Station Bicholim",
        "created": "17-01-2026 05:29:16+05:30",
        "lastUpdated": "17-01-2026 05:29:16+05:30"
      }
    },
    {
      "type": "Feature",
      "geometry": {
        "type": "LineString",
        "coordinates": [
          [
            73.9139483,
            15.500265
          ]
        ]
      },
      "properties": {
        "Vehicle_No": "GA 07 G 5101-OLG(MS WATER TENDER)",
        "Vehicle_Name": "5035",
        "Branch": "Fire Station Old Goa",
        "created": "17-01-2026 05:29:52+05:30",
        "lastUpdated": "17-01-2026 05:29:52+05:30"
      }
    },
    {
      "type": "Feature",
      "geometry": {
        "type": "LineString",
        "coordinates": [
          [
            73.9465416,
            15.5893433
          ],
          [
            73.9465333,
            15.5892916
          ],
          [
            73.9466549,
            15.5892183
          ],
          [
            73.9465983,
            15.58923
          ],
          [
            73.9466633,
            15.5893283
          ],
          [
            73.9465733,
            15.5895816
          ],
          [
            73.946615,
            15.5895816
          ],
          [
            73.946785,
            15.58966
          ],
          [
            73.9467033,
            15.5893433
          ],
          [
            73.9467533,
            15.5894616
          ],
          [
            73.9467616,
            15.5894933
          ],
          [
            73.9469233,
            15.58934
          ],
          [
            73.9467449,
            15.5894666
          ],
          [
            73.9468016,
            15.5894233
          ],
          [
            73.94668,
            15.5894883
          ],
          [
            73.9467449,
            15.58943
          ],
          [
            73.9467116,
            15.5894883
          ],
          [
            73.9467933,
            15.589075
          ],
          [
            73.9467616,
            15.5891583
          ],
          [
            73.9468666,
            15.5892133
          ],
          [
            73.9468666,
            15.5894116
          ],
          [
            73.9468916,
            15.5893266
          ],
          [
            73.9467449,
            15.5892533
          ],
          [
            73.9469083,
            15.58926
          ],
          [
            73.9466883,
            15.5893733
          ],
          [
            73.94668,
            15.58935
          ],
          [
            73.9467033,
            15.5893
          ],
          [
            73.9466383,
            15.5893216
          ],
          [
            73.9466233,
            15.5892183
          ],
          [
            73.9466383,
            15.5892366
          ],
          [
            73.9465083,
            15.589235
          ],
          [
            73.9465649,
            15.5892433
          ],
          [
            73.9465499,
            15.5892233
          ],
          [
            73.9468916,
            15.5894516
          ]
        ]
      },
      "properties": {
        "Vehicle_No": "GA 07 G 3101-BIC(MS WATER TENDER)",
        "Vehicle_Name": "5035",
        "Branch": "Fire Station Bicholim",
        "created": "17-01-2026 05:29:39+05:30",
        "lastUpdated": "17-01-2026 07:27:17+05:30"
      }
    },
    {
      "type": "Feature",
      "geometry": {
        "type": "LineString",
        "coordinates": [
          [
            73.9467116,
            15.5894533
          ],
          [
            73.94615,
            15.591425
          ],
          [
            73.944165,
            15.5944383
          ],
          [
            73.9391599,
            15.6000116
          ],
          [
            73.9341966,
            15.6051433
          ],
          [
            73.9309733,
            15.61035
          ],
          [
            73.9246983,
            15.616125
          ],
          [
            73.9138183,
            15.6196816
          ],
          [
            73.9070633,
            15.6195999
          ],
          [
            73.90328,
            15.6194516
          ],
          [
            73.8989183,
            15.6194666
          ],
          [
            73.89589,
            15.619505
          ],
          [
            73.8882083,
            15.6208683
          ],
          [
            73.8806233,
            15.6241366
          ],
          [
            73.872535,
            15.6271566
          ],
          [
            73.8648116,
            15.6267783
          ],
          [
            73.86163,
            15.6278116
          ],
          [
            73.8551749,
            15.6224483
          ],
          [
            73.848275,
            15.620205
          ],
          [
            73.8463783,
            15.6187766
          ],
          [
            73.8401766,
            15.618975
          ],
          [
            73.8360033,
            15.6186733
          ],
          [
            73.829655,
            15.613825
          ],
          [
            73.8239983,
            15.6088133
          ],
          [
            73.8242016,
            15.60762
          ]
        ]
      },
      "properties": {
        "Vehicle_No": "GA 07 G 1941-BIC(QUICK RESPONSE)",
        "Vehicle_Name": "5035",
        "Branch": "Fire Station Bicholim",
        "created": "17-01-2026 05:29:50+05:30",
        "lastUpdated": "17-01-2026 07:29:37+05:30"
      }
    },
    {
      "type": "Feature",
      "geometry": {
        "type": "LineString",
        "coordinates": [
          [
            73.8532383,
            15.3900983
          ]
        ]
      },
      "properties": {
        "Vehicle_No": "GA 07 G 2319-VAS (EMERGENCY RESCUE TENDER)",
        "Vehicle_Name": "5035",
        "Branch": "Fire Station Vasco",
        "created": "17-01-2026 05:29:44+05:30",
        "lastUpdated": "17-01-2026 05:29:44+05:30"
      }
    },
    {
      "type": "Feature",
      "geometry": {
        "type": "LineString",
        "coordinates": [
          [
            74.1388916,
            15.5310533
          ]
        ]
      },
      "properties": {
        "Vehicle_No": "GA 07 G 3737-VAP(WATER TENDER)",
        "Vehicle_Name": "5035",
        "Branch": "Fire Station Valpoi",
        "created": "17-01-2026 05:29:36+05:30",
        "lastUpdated": "17-01-2026 05:29:36+05:30"
      }
    },
    {
      "type": "Feature",
      "geometry": {
        "type": "LineString",
        "coordinates": [
          [
            74.00293,
            15.4028033
          ]
        ]
      },
      "properties": {
        "Vehicle_No": "GA 07 G 2318-PND(EMERGENCY RESCUE TENDER)",
        "Vehicle_Name": "5035",
        "Branch": "Fire Station Ponda",
        "created": "17-01-2026 05:29:54+05:30",
        "lastUpdated": "17-01-2026 05:29:54+05:30"
      }
    },
    {
      "type": "Feature",
      "geometry": {
        "type": "LineString",
        "coordinates": [
          [
            73.9073083,
            15.4141016
          ]
        ]
      },
      "properties": {
        "Vehicle_No": "GA 07 G 2004-PND(QUICK RESPONSE)",
        "Vehicle_Name": "5035",
        "Branch": "Fire Station Ponda",
        "created": "30-12-2025 13:47:09+05:30",
        "lastUpdated": "30-12-2025 13:47:09+05:30"
      }
    },
    {
      "type": "Feature",
      "geometry": {
        "type": "LineString",
        "coordinates": [
          [
            74.0028733,
            15.4027033
          ]
        ]
      },
      "properties": {
        "Vehicle_No": "GA 07 G 9101-PND(WATER TENDER)",
        "Vehicle_Name": "5035",
        "Branch": "Fire Station Ponda",
        "created": "17-01-2026 05:29:14+05:30",
        "lastUpdated": "17-01-2026 05:29:14+05:30"
      }
    },
    {
      "type": "Feature",
      "geometry": {
        "type": "LineString",
        "coordinates": [
          [
            74.0027016,
            15.4027999
          ]
        ]
      },
      "properties": {
        "Vehicle_No": "GA 07 G 9797-PND(WATER BOUSER)",
        "Vehicle_Name": "5035",
        "Branch": "Fire Station Ponda",
        "created": "17-01-2026 05:28:49+05:30",
        "lastUpdated": "17-01-2026 05:28:49+05:30"
      }
    },
    {
      "type": "Feature",
      "geometry": {
        "type": "LineString",
        "coordinates": [
          [
            74.04406,
            15.02361
          ]
        ]
      },
      "properties": {
        "Vehicle_No": "GA 07 G 6363-CAN(WATER TENDER)",
        "Vehicle_Name": "5035",
        "Branch": "Fire Station Canacona",
        "created": "17-01-2026 01:22:28+05:30",
        "lastUpdated": "17-01-2026 01:22:28+05:30"
      }
    },
    {
      "type": "Feature",
      "geometry": {
        "type": "LineString",
        "coordinates": [
          [
            74.0440833,
            15.0233599
          ]
        ]
      },
      "properties": {
        "Vehicle_No": "GA 07 G 1567-CAN(QUICK RESPONSE FT)",
        "Vehicle_Name": "5035",
        "Branch": "Fire Station Canacona",
        "created": "16-01-2026 12:50:57+05:30",
        "lastUpdated": "16-01-2026 12:50:57+05:30"
      }
    },
    {
      "type": "Feature",
      "geometry": {
        "type": "LineString",
        "coordinates": [
          [
            73.9355216,
            15.369545
          ],
          [
            73.93256,
            15.3721066
          ],
          [
            73.9287183,
            15.3738449
          ],
          [
            73.9259683,
            15.3760433
          ],
          [
            73.9259683,
            15.37604
          ],
          [
            73.9258299,
            15.37893
          ],
          [
            73.9257483,
            15.3809249
          ],
          [
            73.91757,
            15.3900566
          ],
          [
            73.9108316,
            15.3975483
          ],
          [
            73.9120766,
            15.3975083
          ],
          [
            73.9154866,
            15.3969383
          ],
          [
            73.9159266,
            15.3968033
          ],
          [
            73.9166499,
            15.3940783
          ],
          [
            73.91434,
            15.393645
          ],
          [
            73.908155,
            15.4017183
          ],
          [
            73.9065833,
            15.406195
          ],
          [
            73.9060466,
            15.415135
          ],
          [
            73.9007816,
            15.4224549
          ],
          [
            73.8888266,
            15.4311649
          ],
          [
            73.8803949,
            15.4384783
          ]
        ]
      },
      "properties": {
        "Vehicle_No": "GA 07 G 1569-VRN(QUICK RESPONSE)",
        "Vehicle_Name": "5035",
        "Branch": "Fire Station Verna",
        "created": "17-01-2026 05:29:56+05:30",
        "lastUpdated": "17-01-2026 07:34:54+05:30"
      }
    },
    {
      "type": "Feature",
      "geometry": {
        "type": "LineString",
        "coordinates": [
          [
            73.9362216,
            15.369605
          ],
          [
            73.9360833,
            15.36974
          ]
        ]
      },
      "properties": {
        "Vehicle_No": "GA 07 G 9909-VRN(ADVANCE MULTI-PURPOSE)",
        "Vehicle_Name": "5035",
        "Branch": "Fire Station Verna",
        "created": "17-01-2026 05:29:56+05:30",
        "lastUpdated": "17-01-2026 05:30:56+05:30"
      }
    },
    {
      "type": "Feature",
      "geometry": {
        "type": "LineString",
        "coordinates": [
          [
            74.138745,
            15.5310033
          ]
        ]
      },
      "properties": {
        "Vehicle_No": "GA 07 G 1942-VAP(QUICK RESPONSE)",
        "Vehicle_Name": "5035",
        "Branch": "Fire Station Valpoi",
        "created": "17-01-2026 05:29:37+05:30",
        "lastUpdated": "17-01-2026 05:29:37+05:30"
      }
    },
    {
      "type": "Feature",
      "geometry": {
        "type": "LineString",
        "coordinates": [
          [
            74.1031166,
            15.2604016
          ]
        ]
      },
      "properties": {
        "Vehicle_No": "GA 07 G 2003-CUR(QUICK RESPONSE)",
        "Vehicle_Name": "5035",
        "Branch": "Fire Station Curchorem",
        "created": "17-01-2026 05:29:32+05:30",
        "lastUpdated": "17-01-2026 05:29:32+05:30"
      }
    },
    {
      "type": "Feature",
      "geometry": {
        "type": "LineString",
        "coordinates": [
          [
            74.10376,
            15.260415
          ]
        ]
      },
      "properties": {
        "Vehicle_No": "GA 07 G 7447-CUR(EMERGENCY RESCUE)",
        "Vehicle_Name": "5035",
        "Branch": "Fire Station Curchorem",
        "created": "17-01-2026 05:29:57+05:30",
        "lastUpdated": "17-01-2026 05:29:57+05:30"
      }
    },
    {
      "type": "Feature",
      "geometry": {
        "type": "LineString",
        "coordinates": [
          [
            74.1034266,
            15.2604083
          ],
          [
            74.1034416,
            15.260395
          ],
          [
            74.10345,
            15.26039
          ],
          [
            74.10345,
            15.2603816
          ],
          [
            74.10345,
            15.2603716
          ],
          [
            74.1036466,
            15.2603516
          ],
          [
            74.1037033,
            15.26035
          ],
          [
            74.10376,
            15.26038
          ]
        ]
      },
      "properties": {
        "Vehicle_No": "GA 07 G 7557-CUR(WATER TENDER)",
        "Vehicle_Name": "5035",
        "Branch": "Fire Station Curchorem",
        "created": "17-01-2026 05:29:59+05:30",
        "lastUpdated": "17-01-2026 07:27:31+05:30"
      }
    },
    {
      "type": "Feature",
      "geometry": {
        "type": "LineString",
        "coordinates": [
          [
            74.1037266,
            15.2602533
          ]
        ]
      },
      "properties": {
        "Vehicle_No": "GA 07 G 7667-CUR(WATER BOUSER)",
        "Vehicle_Name": "5035",
        "Branch": "Fire Station Curchorem",
        "created": "17-01-2026 05:29:46+05:30",
        "lastUpdated": "17-01-2026 05:29:46+05:30"
      }
    },
    {
      "type": "Feature",
      "geometry": {
        "type": "LineString",
        "coordinates": [
          [
            73.9726,
            15.4628433
          ],
          [
            73.9725267,
            15.4633267
          ],
          [
            73.9724617,
            15.4632383
          ]
        ]
      },
      "properties": {
        "Vehicle_No": "GA 07 G 4989-KUN(WATER TENDER)",
        "Vehicle_Name": "G-100",
        "Branch": "Fire Station Kundaim",
        "created": "17-01-2026 05:29:28+05:30",
        "lastUpdated": "17-01-2026 05:48:26+05:30"
      }
    },
    {
      "type": "Feature",
      "geometry": {
        "type": "LineString",
        "coordinates": [
          [
            73.7940983,
            15.5329344
          ]
        ]
      },
      "properties": {
        "Vehicle_No": "GA 07 G 2242-PIL(WATER TENDER)",
        "Vehicle_Name": "5026",
        "Branch": "Fire Station Pilerne",
        "created": "17-01-2026 05:29:52+05:30",
        "lastUpdated": "17-01-2026 05:29:52+05:30"
      }
    },
    {
      "type": "Feature",
      "geometry": {
        "type": "LineString",
        "coordinates": [
          [
            73.808805,
            15.58978
          ],
          [
            73.8089033,
            15.5909367
          ],
          [
            73.8089767,
            15.5909833
          ],
          [
            73.8077967,
            15.5853
          ],
          [
            73.80664,
            15.5822
          ],
          [
            73.8063883,
            15.5758567
          ],
          [
            73.8068367,
            15.5706383
          ],
          [
            73.810075,
            15.5633183
          ],
          [
            73.8163817,
            15.5546483
          ],
          [
            73.8181483,
            15.5492533
          ],
          [
            73.8189783,
            15.54625
          ],
          [
            73.8212233,
            15.54237
          ],
          [
            73.8237217,
            15.5351067
          ],
          [
            73.8246667,
            15.5321067
          ],
          [
            73.8261317,
            15.531165
          ],
          [
            73.8280767,
            15.530865
          ],
          [
            73.829345,
            15.5283467
          ],
          [
            73.829525,
            15.5259783
          ],
          [
            73.8285067,
            15.524265
          ],
          [
            73.8300617,
            15.5185117
          ],
          [
            73.8348383,
            15.5159117
          ],
          [
            73.8353033,
            15.514715
          ],
          [
            73.8360917,
            15.5085517
          ],
          [
            73.83636,
            15.504405
          ],
          [
            73.83689,
            15.4993467
          ],
          [
            73.8365317,
            15.49917
          ],
          [
            73.8307783,
            15.5006417
          ],
          [
            73.8281083,
            15.5011717
          ],
          [
            73.8228183,
            15.5005817
          ],
          [
            73.8194417,
            15.49751
          ],
          [
            73.8173183,
            15.4926
          ],
          [
            73.81744,
            15.4874017
          ]
        ]
      },
      "properties": {
        "Vehicle_No": "GA 07 G 0681-MAP(QUICK RESPONSE)",
        "Vehicle_Name": "AT 5036A-4G",
        "Branch": "Fire Station Mapusa",
        "created": "17-01-2026 05:29:55+05:30",
        "lastUpdated": "17-01-2026 07:34:59+05:30"
      }
    },
    {
      "type": "Feature",
      "geometry": {
        "type": "LineString",
        "coordinates": [
          [
            73.7974239,
            15.7164939
          ]
        ]
      },
      "properties": {
        "Vehicle_No": "GA 07 G 0307-PER(QUICK RESPONSE)",
        "Vehicle_Name": "AT5032-4G",
        "Branch": "Fire Station Pernem",
        "created": "23-10-2025 15:19:09+05:30",
        "lastUpdated": "23-10-2025 15:19:09+05:30"
      }
    },
    {
      "type": "Feature",
      "geometry": {
        "type": "LineString",
        "coordinates": [
          [
            73.7975456,
            15.7164572
          ]
        ]
      },
      "properties": {
        "Vehicle_No": "GA 07 G 2101-PER(MS WATER TENDER)",
        "Vehicle_Name": "AT5032-4G",
        "Branch": "Fire Station Pernem",
        "created": "17-01-2026 05:27:42+05:30",
        "lastUpdated": "17-01-2026 05:27:42+05:30"
      }
    },
    {
      "type": "Feature",
      "geometry": {
        "type": "LineString",
        "coordinates": [
          [
            73.7975289,
            15.7165267
          ]
        ]
      },
      "properties": {
        "Vehicle_No": "GA 07 G 4600-PER(MINI RESCUE TENDER)",
        "Vehicle_Name": "AT 5032-4G",
        "Branch": "Fire Station Pernem",
        "created": "17-01-2026 05:29:16+05:30",
        "lastUpdated": "17-01-2026 05:29:16+05:30"
      }
    },
    {
      "type": "Feature",
      "geometry": {
        "type": "LineString",
        "coordinates": [
          [
            73.8173878,
            15.4880722
          ]
        ]
      },
      "properties": {
        "Vehicle_No": "GA 07 G 7272-PNJ(WATER TENDER)",
        "Vehicle_Name": "AT-5032-4G",
        "Branch": "Fire Station Panaji",
        "created": "17-01-2026 05:28:31+05:30",
        "lastUpdated": "17-01-2026 05:28:31+05:30"
      }
    },
    {
      "type": "Feature",
      "geometry": {
        "type": "LineString",
        "coordinates": [
          [
            74.0211006,
            15.1861639
          ]
        ]
      },
      "properties": {
        "Vehicle_No": "GA07G2384- Cuncolim",
        "Vehicle_Name": "AT 5032-4G",
        "Branch": "Fire Station Cuncolim",
        "created": "17-01-2026 05:27:54+05:30",
        "lastUpdated": "17-01-2026 05:27:54+05:30"
      }
    },
    {
      "type": "Feature",
      "geometry": {
        "type": "LineString",
        "coordinates": [
          [
            73.7975017,
            15.716485
          ],
          [
            73.79895,
            15.7172383
          ],
          [
            73.8034917,
            15.7157917
          ],
          [
            73.8088383,
            15.7131067
          ],
          [
            73.8131917,
            15.710595
          ],
          [
            73.8191733,
            15.7036317
          ],
          [
            73.8232667,
            15.6987583
          ],
          [
            73.829695,
            15.6876967
          ],
          [
            73.8325433,
            15.684265
          ],
          [
            73.8371333,
            15.6755617
          ],
          [
            73.8380617,
            15.6686317
          ],
          [
            73.8387283,
            15.65953
          ],
          [
            73.8357417,
            15.647655
          ],
          [
            73.83199,
            15.6396833
          ],
          [
            73.8306233,
            15.6361417
          ],
          [
            73.8249517,
            15.6267583
          ],
          [
            73.8227617,
            15.6143583
          ],
          [
            73.8240483,
            15.6075533
          ],
          [
            73.8246417,
            15.604445
          ],
          [
            73.8075433,
            15.5672083
          ],
          [
            73.8124667,
            15.56007
          ],
          [
            73.8152267,
            15.5562933
          ],
          [
            73.8179683,
            15.5500333
          ],
          [
            73.8184483,
            15.54685
          ],
          [
            73.8203933,
            15.5443767
          ],
          [
            73.8230467,
            15.5370583
          ],
          [
            73.8247633,
            15.5317783
          ],
          [
            73.8248217,
            15.5315967
          ],
          [
            73.8257567,
            15.52869
          ],
          [
            73.827555,
            15.5248533
          ],
          [
            73.8293867,
            15.5208583
          ],
          [
            73.8337483,
            15.51721
          ]
        ]
      },
      "properties": {
        "Vehicle_No": "GA07G2507 - PER Mid Size (Water Tender)",
        "Vehicle_Name": "5035",
        "Branch": "Fire Station Pernem",
        "created": "17-01-2026 05:29:10+05:30",
        "lastUpdated": "17-01-2026 07:34:56+05:30"
      }
    },
    {
      "type": "Feature",
      "geometry": {
        "type": "LineString",
        "coordinates": [
          [
            74.1385667,
            15.5309717
          ],
          [
            74.1391517,
            15.532
          ],
          [
            74.13785,
            15.5316167
          ],
          [
            74.1336833,
            15.5296083
          ],
          [
            74.1318117,
            15.5288083
          ],
          [
            74.1287183,
            15.52687
          ],
          [
            74.123845,
            15.5261967
          ],
          [
            74.1160567,
            15.526495
          ],
          [
            74.10883,
            15.5263933
          ],
          [
            74.1064933,
            15.5266133
          ],
          [
            74.0986483,
            15.5304817
          ],
          [
            74.0933683,
            15.5348
          ],
          [
            74.0900233,
            15.5380333
          ],
          [
            74.0810783,
            15.541565
          ],
          [
            74.0773267,
            15.5423917
          ],
          [
            74.0706617,
            15.5442817
          ],
          [
            74.0634367,
            15.5430683
          ],
          [
            74.0596433,
            15.54222
          ],
          [
            74.0547533,
            15.5461117
          ],
          [
            74.0504717,
            15.5471867
          ],
          [
            74.0451167,
            15.5483517
          ],
          [
            74.04244,
            15.545905
          ],
          [
            74.0377033,
            15.542005
          ],
          [
            74.0344883,
            15.5337567
          ],
          [
            74.0294267,
            15.53292
          ],
          [
            74.0220467,
            15.5282983
          ],
          [
            74.017945,
            15.5255467
          ],
          [
            74.016455,
            15.523765
          ],
          [
            74.0131267,
            15.521245
          ],
          [
            74.005875,
            15.5207117
          ],
          [
            74.003035,
            15.52038
          ],
          [
            74.0021567,
            15.520245
          ],
          [
            74.00236,
            15.5264767
          ],
          [
            73.9969,
            15.5273933
          ],
          [
            73.9885583,
            15.5298467
          ],
          [
            73.9828367,
            15.52902
          ],
          [
            73.9748283,
            15.5291267
          ],
          [
            73.9690517,
            15.5276933
          ],
          [
            73.9651283,
            15.5226217
          ],
          [
            73.963745,
            15.519595
          ],
          [
            73.9628333,
            15.5170417
          ],
          [
            73.96447,
            15.51344
          ],
          [
            73.9604817,
            15.511855
          ],
          [
            73.961515,
            15.5093283
          ],
          [
            73.9631267,
            15.5024133
          ],
          [
            73.961125,
            15.499215
          ],
          [
            73.957535,
            15.4962817
          ],
          [
            73.95782,
            15.4906617
          ],
          [
            73.957885,
            15.4884217
          ],
          [
            73.9552,
            15.4908717
          ],
          [
            73.9413817,
            15.4931133
          ],
          [
            73.934685,
            15.49567
          ],
          [
            73.9307217,
            15.4966833
          ],
          [
            73.9243483,
            15.4976617
          ],
          [
            73.9213533,
            15.4982817
          ],
          [
            73.9103267,
            15.49678
          ],
          [
            73.9076817,
            15.491785
          ],
          [
            73.9039633,
            15.4872133
          ],
          [
            73.8960617,
            15.4893583
          ],
          [
            73.8909267,
            15.490945
          ],
          [
            73.877735,
            15.49731
          ],
          [
            73.86643,
            15.49996
          ],
          [
            73.86359,
            15.4994017
          ],
          [
            73.85105,
            15.494315
          ],
          [
            73.8448,
            15.4914067
          ],
          [
            73.8418133,
            15.492775
          ],
          [
            73.8386633,
            15.49738
          ],
          [
            73.8349767,
            15.4995183
          ],
          [
            73.83116,
            15.5004483
          ],
          [
            73.82688,
            15.5012467
          ],
          [
            73.8263667,
            15.5011917
          ],
          [
            73.8185717,
            15.4945
          ],
          [
            73.8146817,
            15.4894367
          ]
        ]
      },
      "properties": {
        "Vehicle_No": "GA07G2505 - VAP Mid Size (Water Tender)",
        "Vehicle_Name": "5035",
        "Branch": "Fire Station Valpoi",
        "created": "17-01-2026 05:29:52+05:30",
        "lastUpdated": "17-01-2026 07:34:55+05:30"
      }
    },
    {
      "type": "Feature",
      "geometry": {
        "type": "LineString",
        "coordinates": [
          [
            73.9466967,
            15.589485
          ]
        ]
      },
      "properties": {
        "Vehicle_No": "GA07G2504 - BIC Mid Size (Water Tender)",
        "Vehicle_Name": "5035",
        "Branch": "Fire Station Bicholim",
        "created": "17-01-2026 05:29:17+05:30",
        "lastUpdated": "17-01-2026 05:29:17+05:30"
      }
    },
    {
      "type": "Feature",
      "geometry": {
        "type": "LineString",
        "coordinates": [
          [
            73.808635,
            15.5899483
          ]
        ]
      },
      "properties": {
        "Vehicle_No": "GA07G2503- MAP Mid Size (Water Tender)",
        "Vehicle_Name": "5035",
        "Branch": "Fire Station Mapusa",
        "created": "17-01-2026 05:29:05+05:30",
        "lastUpdated": "17-01-2026 05:29:05+05:30"
      }
    },
    {
      "type": "Feature",
      "geometry": {
        "type": "LineString",
        "coordinates": [
          [
            73.8171467,
            15.4870333
          ],
          [
            73.8171867,
            15.4868
          ]
        ]
      },
      "properties": {
        "Vehicle_No": "GA07G2502 - FFHQ Mid Size (Water Tender)",
        "Vehicle_Name": "5035",
        "Branch": "Fire Force Headquarters",
        "created": "17-01-2026 05:29:31+05:30",
        "lastUpdated": "17-01-2026 05:30:32+05:30"
      }
    }
  ]
}