{
  "type": "FeatureCollection",
  "metadata": {
    "date": "20251229",
    "source": "Directorate of Fire Emergency Services, Govt. of Goa",
    "description": "Daily GPS tracks of fire trucks",
    "lastUpdated": "2025-12-29T00:24:38.219Z",
    "count": 52
  },
  "features": [
    {
      "type": "Feature",
      "geometry": {
        "type": "LineString",
        "coordinates": [
          [
            73.79401,
            15.532955
          ]
        ]
      },
      "properties": {
        "Vehicle_No": "GA 07 G 0680-PIL(QUICK RESPONSE VEHICLE)",
        "Vehicle_Name": "4G",
        "Branch": "Fire Station Pilerne",
        "created": "29-12-2025 05:30:05+05:30",
        "lastUpdated": "29-12-2025 05:30:05+05:30"
      }
    },
    {
      "type": "Feature",
      "geometry": {
        "type": "LineString",
        "coordinates": [
          [
            73.914085,
            15.500347
          ]
        ]
      },
      "properties": {
        "Vehicle_No": "GA07G2506 - Mid Size (Water Tender)",
        "Vehicle_Name": "TS101",
        "Branch": "Fire Station Old Goa",
        "created": "29-12-2025 05:30:17+05:30",
        "lastUpdated": "29-12-2025 05:30:17+05:30"
      }
    },
    {
      "type": "Feature",
      "geometry": {
        "type": "LineString",
        "coordinates": [
          [
            73.82933,
            15.52329
          ],
          [
            73.829323,
            15.523035
          ]
        ]
      },
      "properties": {
        "Vehicle_No": "GA 07 G 5115-POR(MINI WATER TENDER)",
        "Vehicle_Name": "TS101",
        "Branch": "Fire Station Porvorim",
        "created": "29-12-2025 05:29:36+05:30",
        "lastUpdated": "29-12-2025 05:31:27+05:30"
      }
    },
    {
      "type": "Feature",
      "geometry": {
        "type": "LineString",
        "coordinates": [
          [
            73.97065,
            15.26944
          ],
          [
            73.970612,
            15.269412
          ]
        ]
      },
      "properties": {
        "Vehicle_No": "GA 07 G 0350-MRG(WATER TENDER)",
        "Vehicle_Name": "TS101",
        "Branch": "Fire Station Margao",
        "created": "29-12-2025 05:27:49+05:30",
        "lastUpdated": "29-12-2025 05:31:54+05:30"
      }
    },
    {
      "type": "Feature",
      "geometry": {
        "type": "LineString",
        "coordinates": [
          [
            73.808861,
            15.589888
          ],
          [
            73.808846,
            15.589907
          ]
        ]
      },
      "properties": {
        "Vehicle_No": "GA 07 G 2900-MAP(MINI RESCUE TENDER)",
        "Vehicle_Name": "TS101",
        "Branch": "Fire Station Mapusa",
        "created": "29-12-2025 05:27:53+05:30",
        "lastUpdated": "29-12-2025 05:31:58+05:30"
      }
    },
    {
      "type": "Feature",
      "geometry": {
        "type": "LineString",
        "coordinates": [
          [
            73.817116,
            15.487118
          ]
        ]
      },
      "properties": {
        "Vehicle_No": "GA 07 G 7600-FFHQ(WATER BOUSER)",
        "Vehicle_Name": "TS101",
        "Branch": "Fire Force Headquarters",
        "created": "29-12-2025 05:30:09+05:30",
        "lastUpdated": "29-12-2025 05:30:09+05:30"
      }
    },
    {
      "type": "Feature",
      "geometry": {
        "type": "LineString",
        "coordinates": [
          [
            73.817345,
            15.487402
          ],
          [
            73.81736,
            15.487323
          ]
        ]
      },
      "properties": {
        "Vehicle_No": "GA 07 G 2002-FFHQ(TURN TABLE LADDER)",
        "Vehicle_Name": "TS101",
        "Branch": "Fire Force Headquarters",
        "created": "29-12-2025 05:26:30+05:30",
        "lastUpdated": "29-12-2025 05:30:34+05:30"
      }
    },
    {
      "type": "Feature",
      "geometry": {
        "type": "LineString",
        "coordinates": [
          [
            73.817085,
            15.486855
          ],
          [
            73.816902,
            15.486723
          ]
        ]
      },
      "properties": {
        "Vehicle_No": "GA 07 G 7101-FFHQ(WATER TENDER)",
        "Vehicle_Name": "TS101",
        "Branch": "Fire Force Headquarters",
        "created": "29-12-2025 05:27:03+05:30",
        "lastUpdated": "29-12-2025 05:31:06+05:30"
      }
    },
    {
      "type": "Feature",
      "geometry": {
        "type": "LineString",
        "coordinates": [
          [
            73.817291,
            15.4872
          ],
          [
            73.817322,
            15.48725
          ],
          [
            73.817276,
            15.487222
          ],
          [
            73.817253,
            15.487227
          ],
          [
            73.817642,
            15.487053
          ],
          [
            73.819977,
            15.490995
          ],
          [
            73.821648,
            15.495422
          ],
          [
            73.82653,
            15.498118
          ],
          [
            73.831245,
            15.497728
          ],
          [
            73.832176,
            15.497403
          ],
          [
            73.835999,
            15.497352
          ],
          [
            73.836067,
            15.49819
          ],
          [
            73.826546,
            15.501172
          ],
          [
            73.825371,
            15.501062
          ],
          [
            73.815811,
            15.490715
          ]
        ]
      },
      "properties": {
        "Vehicle_No": "GA 07 G 7677-FFHQ(EMERGENCY RESCUE)",
        "Vehicle_Name": "TS101",
        "Branch": "Fire Force Headquarters",
        "created": "29-12-2025 05:30:13+05:30",
        "lastUpdated": "29-12-2025 05:54:33+05:30"
      }
    },
    {
      "type": "Feature",
      "geometry": {
        "type": "LineString",
        "coordinates": [
          [
            73.817307,
            15.487373
          ],
          [
            73.817307,
            15.487235
          ]
        ]
      },
      "properties": {
        "Vehicle_No": "GA 07 G 1121-PNJ(EMERGENCY RESCUE)",
        "Vehicle_Name": "TS101",
        "Branch": "Fire Station Panaji",
        "created": "29-12-2025 05:29:08+05:30",
        "lastUpdated": "29-12-2025 05:31:07+05:30"
      }
    },
    {
      "type": "Feature",
      "geometry": {
        "type": "LineString",
        "coordinates": [
          [
            73.817665,
            15.486797
          ],
          [
            73.817612,
            15.486543
          ]
        ]
      },
      "properties": {
        "Vehicle_No": "GA 07 G 1571-FFHQ(QUICK RESPONSE)",
        "Vehicle_Name": "TS101",
        "Branch": "Fire Force Headquarters",
        "created": "29-12-2025 05:26:51+05:30",
        "lastUpdated": "29-12-2025 05:30:55+05:30"
      }
    },
    {
      "type": "Feature",
      "geometry": {
        "type": "LineString",
        "coordinates": [
          [
            73.808556,
            15.590047
          ],
          [
            73.808777,
            15.589977
          ]
        ]
      },
      "properties": {
        "Vehicle_No": "GA 07 G 8101-MAP(WATER TENDER)",
        "Vehicle_Name": "TS101",
        "Branch": "Fire Station Mapusa",
        "created": "29-12-2025 05:30:06+05:30",
        "lastUpdated": "29-12-2025 05:32:02+05:30"
      }
    },
    {
      "type": "Feature",
      "geometry": {
        "type": "LineString",
        "coordinates": [
          [
            73.9701666,
            15.26941
          ],
          [
            73.9701416,
            15.2694133
          ],
          [
            73.970255,
            15.2693483
          ],
          [
            73.9701083,
            15.26934
          ],
          [
            73.9700433,
            15.269415
          ],
          [
            73.96984,
            15.2693749
          ],
          [
            73.9699783,
            15.2693833
          ],
          [
            73.9700933,
            15.269325
          ],
          [
            73.9702466,
            15.26945
          ],
          [
            73.9699783,
            15.269505
          ],
          [
            73.9700283,
            15.2694533
          ],
          [
            73.9700033,
            15.2693783
          ],
          [
            73.9700116,
            15.2693666
          ],
          [
            73.9701666,
            15.2694266
          ],
          [
            73.97006,
            15.2694516
          ],
          [
            73.9702466,
            15.2691283
          ],
          [
            73.9701666,
            15.26937
          ],
          [
            73.97019,
            15.2691949
          ],
          [
            73.9701016,
            15.2693016
          ],
          [
            73.9701016,
            15.2694166
          ],
          [
            73.970125,
            15.269395
          ]
        ]
      },
      "properties": {
        "Vehicle_No": "GA 07 G 2317-MRG(EMERGENCY RESCUE TENDER)",
        "Vehicle_Name": "5035",
        "Branch": "Fire Station Margao",
        "created": "29-12-2025 05:29:40+05:30",
        "lastUpdated": "29-12-2025 05:54:02+05:30"
      }
    },
    {
      "type": "Feature",
      "geometry": {
        "type": "LineString",
        "coordinates": [
          [
            73.851335,
            15.3888066
          ]
        ]
      },
      "properties": {
        "Vehicle_No": "GA 07 G 1570-VAS(QUICK RESPONSE FIRE TENDER)",
        "Vehicle_Name": "5035",
        "Branch": "Fire Station Vasco",
        "created": "29-12-2025 05:30:06+05:30",
        "lastUpdated": "29-12-2025 05:30:06+05:30"
      }
    },
    {
      "type": "Feature",
      "geometry": {
        "type": "LineString",
        "coordinates": [
          [
            73.851245,
            15.3888566
          ]
        ]
      },
      "properties": {
        "Vehicle_No": "GA 07 G 4101-VAS(MS WATER TENDER)",
        "Vehicle_Name": "5035",
        "Branch": "Fire Station Vasco",
        "created": "29-12-2025 05:30:17+05:30",
        "lastUpdated": "29-12-2025 05:30:17+05:30"
      }
    },
    {
      "type": "Feature",
      "geometry": {
        "type": "LineString",
        "coordinates": [
          [
            73.85131,
            15.3889183
          ]
        ]
      },
      "properties": {
        "Vehicle_No": "GA 07 G 0819-VAS(WATER/FOAM TENDER)",
        "Vehicle_Name": "4G",
        "Branch": "Fire Station Vasco",
        "created": "29-12-2025 05:29:56+05:30",
        "lastUpdated": "29-12-2025 05:29:56+05:30"
      }
    },
    {
      "type": "Feature",
      "geometry": {
        "type": "LineString",
        "coordinates": [
          [
            73.969955,
            15.2692683
          ],
          [
            73.9699866,
            15.2695516
          ]
        ]
      },
      "properties": {
        "Vehicle_No": "GA 07 G 7100-MRG(WATER BOUSER)",
        "Vehicle_Name": "5035",
        "Branch": "Fire Station Margao",
        "created": "29-12-2025 05:29:25+05:30",
        "lastUpdated": "29-12-2025 05:30:23+05:30"
      }
    },
    {
      "type": "Feature",
      "geometry": {
        "type": "LineString",
        "coordinates": [
          [
            73.9704266,
            15.2693966
          ]
        ]
      },
      "properties": {
        "Vehicle_No": "GA 07 G 1568-MRG(QUICK RESPONSE )",
        "Vehicle_Name": "5035",
        "Branch": "Fire Station Margao",
        "created": "29-12-2025 05:30:11+05:30",
        "lastUpdated": "29-12-2025 05:30:11+05:30"
      }
    },
    {
      "type": "Feature",
      "geometry": {
        "type": "LineString",
        "coordinates": [
          [
            73.9701416,
            15.26935
          ]
        ]
      },
      "properties": {
        "Vehicle_No": "GA 07 G 6101-MRG(WATER TENDER)",
        "Vehicle_Name": "5035",
        "Branch": "Fire Station Margao",
        "created": "29-12-2025 05:29:43+05:30",
        "lastUpdated": "29-12-2025 05:29:43+05:30"
      }
    },
    {
      "type": "Feature",
      "geometry": {
        "type": "LineString",
        "coordinates": [
          [
            73.969955,
            15.2694766
          ],
          [
            73.9701166,
            15.2693283
          ]
        ]
      },
      "properties": {
        "Vehicle_No": "GA 07 G 1001-MRG(AERIAL LADDER PLATFORM)",
        "Vehicle_Name": "5035",
        "Branch": "Fire Station Margao",
        "created": "29-12-2025 05:29:40+05:30",
        "lastUpdated": "29-12-2025 05:30:38+05:30"
      }
    },
    {
      "type": "Feature",
      "geometry": {
        "type": "LineString",
        "coordinates": [
          [
            74.0027828,
            15.4027978
          ]
        ]
      },
      "properties": {
        "Vehicle_No": "GA 07 G 0820-BIC(WATER TEDNER)",
        "Vehicle_Name": "5026",
        "Branch": "Fire Station Bicholim",
        "created": "29-12-2025 05:28:13+05:30",
        "lastUpdated": "29-12-2025 05:28:13+05:30"
      }
    },
    {
      "type": "Feature",
      "geometry": {
        "type": "LineString",
        "coordinates": [
          [
            73.91399,
            15.5003216
          ]
        ]
      },
      "properties": {
        "Vehicle_No": "GA 07 G 5101-OLG(MS WATER TENDER)",
        "Vehicle_Name": "5035",
        "Branch": "Fire Station Old Goa",
        "created": "29-12-2025 05:29:09+05:30",
        "lastUpdated": "29-12-2025 05:29:09+05:30"
      }
    },
    {
      "type": "Feature",
      "geometry": {
        "type": "LineString",
        "coordinates": [
          [
            73.9464516,
            15.58916
          ],
          [
            73.9465416,
            15.589375
          ],
          [
            73.9465649,
            15.58941
          ],
          [
            73.9464683,
            15.5892366
          ],
          [
            73.9464116,
            15.5890833
          ],
          [
            73.9462883,
            15.5890366
          ],
          [
            73.9463383,
            15.589175
          ],
          [
            73.9464266,
            15.589255
          ],
          [
            73.9465333,
            15.5894383
          ],
          [
            73.9465499,
            15.5893133
          ],
          [
            73.9465416,
            15.5893583
          ],
          [
            73.9464933,
            15.5891033
          ],
          [
            73.9463866,
            15.5888816
          ],
          [
            73.9466466,
            15.5896
          ],
          [
            73.9465416,
            15.5895583
          ]
        ]
      },
      "properties": {
        "Vehicle_No": "GA 07 G 3101-BIC(MS WATER TENDER)",
        "Vehicle_Name": "5035",
        "Branch": "Fire Station Bicholim",
        "created": "29-12-2025 05:30:03+05:30",
        "lastUpdated": "29-12-2025 05:53:45+05:30"
      }
    },
    {
      "type": "Feature",
      "geometry": {
        "type": "LineString",
        "coordinates": [
          [
            73.9467283,
            15.5895033
          ]
        ]
      },
      "properties": {
        "Vehicle_No": "GA 07 G 1941-BIC(QUICK RESPONSE)",
        "Vehicle_Name": "5035",
        "Branch": "Fire Station Bicholim",
        "created": "29-12-2025 05:30:06+05:30",
        "lastUpdated": "29-12-2025 05:30:06+05:30"
      }
    },
    {
      "type": "Feature",
      "geometry": {
        "type": "LineString",
        "coordinates": [
          [
            73.8513833,
            15.3888666
          ]
        ]
      },
      "properties": {
        "Vehicle_No": "GA 07 G 2319-VAS (EMERGENCY RESCUE TENDER)",
        "Vehicle_Name": "5035",
        "Branch": "Fire Station Vasco",
        "created": "29-12-2025 05:29:25+05:30",
        "lastUpdated": "29-12-2025 05:29:25+05:30"
      }
    },
    {
      "type": "Feature",
      "geometry": {
        "type": "LineString",
        "coordinates": [
          [
            74.13864,
            15.5310266
          ]
        ]
      },
      "properties": {
        "Vehicle_No": "GA 07 G 3737-VAP(WATER TENDER)",
        "Vehicle_Name": "5035",
        "Branch": "Fire Station Valpoi",
        "created": "29-12-2025 05:29:52+05:30",
        "lastUpdated": "29-12-2025 05:29:52+05:30"
      }
    },
    {
      "type": "Feature",
      "geometry": {
        "type": "LineString",
        "coordinates": [
          [
            74.0027099,
            15.4028416
          ]
        ]
      },
      "properties": {
        "Vehicle_No": "GA 07 G 2318-PND(EMERGENCY RESCUE TENDER)",
        "Vehicle_Name": "5035",
        "Branch": "Fire Station Ponda",
        "created": "29-12-2025 05:29:48+05:30",
        "lastUpdated": "29-12-2025 05:29:48+05:30"
      }
    },
    {
      "type": "Feature",
      "geometry": {
        "type": "LineString",
        "coordinates": [
          [
            74.002775,
            15.402725
          ]
        ]
      },
      "properties": {
        "Vehicle_No": "GA 07 G 2004-PND(QUICK RESPONSE)",
        "Vehicle_Name": "5035",
        "Branch": "Fire Station Ponda",
        "created": "29-12-2025 05:30:12+05:30",
        "lastUpdated": "29-12-2025 05:30:12+05:30"
      }
    },
    {
      "type": "Feature",
      "geometry": {
        "type": "LineString",
        "coordinates": [
          [
            74.0028316,
            15.4027033
          ]
        ]
      },
      "properties": {
        "Vehicle_No": "GA 07 G 9101-PND(WATER TENDER)",
        "Vehicle_Name": "5035",
        "Branch": "Fire Station Ponda",
        "created": "29-12-2025 05:29:21+05:30",
        "lastUpdated": "29-12-2025 05:29:21+05:30"
      }
    },
    {
      "type": "Feature",
      "geometry": {
        "type": "LineString",
        "coordinates": [
          [
            74.002865,
            15.4027466
          ]
        ]
      },
      "properties": {
        "Vehicle_No": "GA 07 G 9797-PND(WATER BOUSER)",
        "Vehicle_Name": "5035",
        "Branch": "Fire Station Ponda",
        "created": "29-12-2025 05:29:58+05:30",
        "lastUpdated": "29-12-2025 05:29:58+05:30"
      }
    },
    {
      "type": "Feature",
      "geometry": {
        "type": "LineString",
        "coordinates": [
          [
            74.0440833,
            15.0234033
          ]
        ]
      },
      "properties": {
        "Vehicle_No": "GA 07 G 6363-CAN(WATER TENDER)",
        "Vehicle_Name": "5035",
        "Branch": "Fire Station Canacona",
        "created": "29-12-2025 01:31:19+05:30",
        "lastUpdated": "29-12-2025 01:31:19+05:30"
      }
    },
    {
      "type": "Feature",
      "geometry": {
        "type": "LineString",
        "coordinates": [
          [
            74.0441,
            15.0236449
          ]
        ]
      },
      "properties": {
        "Vehicle_No": "GA 07 G 1567-CAN(QUICK RESPONSE FT)",
        "Vehicle_Name": "5035",
        "Branch": "Fire Station Canacona",
        "created": "28-12-2025 14:29:16+05:30",
        "lastUpdated": "28-12-2025 14:29:16+05:30"
      }
    },
    {
      "type": "Feature",
      "geometry": {
        "type": "LineString",
        "coordinates": [
          [
            73.9355949,
            15.3701433
          ],
          [
            73.93545,
            15.3696566
          ]
        ]
      },
      "properties": {
        "Vehicle_No": "GA 07 G 1569-VRN(QUICK RESPONSE)",
        "Vehicle_Name": "5035",
        "Branch": "Fire Station Verna",
        "created": "29-12-2025 05:30:15+05:30",
        "lastUpdated": "29-12-2025 05:38:01+05:30"
      }
    },
    {
      "type": "Feature",
      "geometry": {
        "type": "LineString",
        "coordinates": [
          [
            73.93558,
            15.370125
          ]
        ]
      },
      "properties": {
        "Vehicle_No": "GA 07 G 9909-VRN(ADVANCE MULTI-PURPOSE)",
        "Vehicle_Name": "5035",
        "Branch": "Fire Station Verna",
        "created": "29-12-2025 05:30:01+05:30",
        "lastUpdated": "29-12-2025 05:30:01+05:30"
      }
    },
    {
      "type": "Feature",
      "geometry": {
        "type": "LineString",
        "coordinates": [
          [
            74.13877,
            15.5310566
          ]
        ]
      },
      "properties": {
        "Vehicle_No": "GA 07 G 1942-VAP(QUICK RESPONSE)",
        "Vehicle_Name": "5035",
        "Branch": "Fire Station Valpoi",
        "created": "29-12-2025 05:29:56+05:30",
        "lastUpdated": "29-12-2025 05:29:56+05:30"
      }
    },
    {
      "type": "Feature",
      "geometry": {
        "type": "LineString",
        "coordinates": [
          [
            74.1036133,
            15.2600933
          ],
          [
            74.10363,
            15.260205
          ]
        ]
      },
      "properties": {
        "Vehicle_No": "GA 07 G 2003-CUR(QUICK RESPONSE)",
        "Vehicle_Name": "5035",
        "Branch": "Fire Station Curchorem",
        "created": "29-12-2025 05:29:56+05:30",
        "lastUpdated": "29-12-2025 05:30:34+05:30"
      }
    },
    {
      "type": "Feature",
      "geometry": {
        "type": "LineString",
        "coordinates": [
          [
            74.1037033,
            15.26048
          ]
        ]
      },
      "properties": {
        "Vehicle_No": "GA 07 G 7447-CUR(EMERGENCY RESCUE)",
        "Vehicle_Name": "5035",
        "Branch": "Fire Station Curchorem",
        "created": "29-12-2025 05:30:12+05:30",
        "lastUpdated": "29-12-2025 05:30:12+05:30"
      }
    },
    {
      "type": "Feature",
      "geometry": {
        "type": "LineString",
        "coordinates": [
          [
            74.10385,
            15.2604233
          ]
        ]
      },
      "properties": {
        "Vehicle_No": "GA 07 G 7557-CUR(WATER TENDER)",
        "Vehicle_Name": "5035",
        "Branch": "Fire Station Curchorem",
        "created": "29-12-2025 05:30:20+05:30",
        "lastUpdated": "29-12-2025 05:30:20+05:30"
      }
    },
    {
      "type": "Feature",
      "geometry": {
        "type": "LineString",
        "coordinates": [
          [
            73.9930183,
            15.14383
          ]
        ]
      },
      "properties": {
        "Vehicle_No": "GA 07 G 7667-CUR(WATER BOUSER)",
        "Vehicle_Name": "5035",
        "Branch": "Fire Station Curchorem",
        "created": "29-12-2025 05:29:27+05:30",
        "lastUpdated": "29-12-2025 05:29:27+05:30"
      }
    },
    {
      "type": "Feature",
      "geometry": {
        "type": "LineString",
        "coordinates": [
          [
            73.9726233,
            15.4631383
          ],
          [
            73.9725833,
            15.4629033
          ]
        ]
      },
      "properties": {
        "Vehicle_No": "GA 07 G 4989-KUN(WATER TENDER)",
        "Vehicle_Name": "G-100",
        "Branch": "Fire Station Kundaim",
        "created": "29-12-2025 05:30:04+05:30",
        "lastUpdated": "29-12-2025 05:36:06+05:30"
      }
    },
    {
      "type": "Feature",
      "geometry": {
        "type": "LineString",
        "coordinates": [
          [
            73.7939578,
            15.5330028
          ]
        ]
      },
      "properties": {
        "Vehicle_No": "GA 07 G 2242-PIL(WATER TENDER)",
        "Vehicle_Name": "5026",
        "Branch": "Fire Station Pilerne",
        "created": "29-12-2025 05:30:11+05:30",
        "lastUpdated": "29-12-2025 05:30:11+05:30"
      }
    },
    {
      "type": "Feature",
      "geometry": {
        "type": "LineString",
        "coordinates": [
          [
            73.8086667,
            15.5898967
          ]
        ]
      },
      "properties": {
        "Vehicle_No": "GA 07 G 0681-MAP(QUICK RESPONSE)",
        "Vehicle_Name": "AT 5036A-4G",
        "Branch": "Fire Station Mapusa",
        "created": "29-12-2025 05:30:18+05:30",
        "lastUpdated": "29-12-2025 05:30:18+05:30"
      }
    },
    {
      "type": "Feature",
      "geometry": {
        "type": "LineString",
        "coordinates": [
          [
            73.7974239,
            15.7164939
          ]
        ]
      },
      "properties": {
        "Vehicle_No": "GA 07 G 0307-PER(QUICK RESPONSE)",
        "Vehicle_Name": "AT5032-4G",
        "Branch": "Fire Station Pernem",
        "created": "23-10-2025 15:19:09+05:30",
        "lastUpdated": "23-10-2025 15:19:09+05:30"
      }
    },
    {
      "type": "Feature",
      "geometry": {
        "type": "LineString",
        "coordinates": [
          [
            73.7975006,
            15.7165772
          ]
        ]
      },
      "properties": {
        "Vehicle_No": "GA 07 G 2101-PER(MS WATER TENDER)",
        "Vehicle_Name": "AT5032-4G",
        "Branch": "Fire Station Pernem",
        "created": "29-12-2025 05:29:54+05:30",
        "lastUpdated": "29-12-2025 05:29:54+05:30"
      }
    },
    {
      "type": "Feature",
      "geometry": {
        "type": "LineString",
        "coordinates": [
          [
            73.7975206,
            15.7164789
          ]
        ]
      },
      "properties": {
        "Vehicle_No": "GA 07 G 4600-PER(MINI RESCUE TENDER)",
        "Vehicle_Name": "AT 5032-4G",
        "Branch": "Fire Station Pernem",
        "created": "29-12-2025 05:28:21+05:30",
        "lastUpdated": "29-12-2025 05:28:21+05:30"
      }
    },
    {
      "type": "Feature",
      "geometry": {
        "type": "LineString",
        "coordinates": [
          [
            73.8169461,
            15.4861833
          ]
        ]
      },
      "properties": {
        "Vehicle_No": "GA 07 G 7272-PNJ(WATER TENDER)",
        "Vehicle_Name": "AT-5032-4G",
        "Branch": "Fire Station Panaji",
        "created": "29-12-2025 05:29:14+05:30",
        "lastUpdated": "29-12-2025 05:29:14+05:30"
      }
    },
    {
      "type": "Feature",
      "geometry": {
        "type": "LineString",
        "coordinates": [
          [
            74.0210317,
            15.1861828
          ]
        ]
      },
      "properties": {
        "Vehicle_No": "GA07G2384- Cuncolim",
        "Vehicle_Name": "AT 5032-4G",
        "Branch": "Fire Station Cuncolim",
        "created": "29-12-2025 05:28:18+05:30",
        "lastUpdated": "29-12-2025 05:28:18+05:30"
      }
    },
    {
      "type": "Feature",
      "geometry": {
        "type": "LineString",
        "coordinates": [
          [
            73.79768,
            15.7165033
          ]
        ]
      },
      "properties": {
        "Vehicle_No": "GA07G2507 - Mid Size (Water Tender)",
        "Vehicle_Name": "5035",
        "Branch": "Fire Station Pernem",
        "created": "29-12-2025 05:30:05+05:30",
        "lastUpdated": "29-12-2025 05:30:05+05:30"
      }
    },
    {
      "type": "Feature",
      "geometry": {
        "type": "LineString",
        "coordinates": [
          [
            74.138615,
            15.5309533
          ]
        ]
      },
      "properties": {
        "Vehicle_No": "GA07G2505 - Mid Size (Water Tender)",
        "Vehicle_Name": "5035",
        "Branch": "Fire Station Valpoi",
        "created": "29-12-2025 05:29:32+05:30",
        "lastUpdated": "29-12-2025 05:29:32+05:30"
      }
    },
    {
      "type": "Feature",
      "geometry": {
        "type": "LineString",
        "coordinates": [
          [
            73.946655,
            15.5895267
          ]
        ]
      },
      "properties": {
        "Vehicle_No": "GA07G2504 - Mid Size (Water Tender)",
        "Vehicle_Name": "5035",
        "Branch": "Fire Station Bicholim",
        "created": "29-12-2025 05:29:56+05:30",
        "lastUpdated": "29-12-2025 05:29:56+05:30"
      }
    },
    {
      "type": "Feature",
      "geometry": {
        "type": "LineString",
        "coordinates": [
          [
            73.8087567,
            15.590035
          ],
          [
            73.8103683,
            15.5907367
          ],
          [
            73.81333,
            15.588825
          ],
          [
            73.8170733,
            15.5896
          ]
        ]
      },
      "properties": {
        "Vehicle_No": "GA07G2503-Mid Size (Water Tender)",
        "Vehicle_Name": "5035",
        "Branch": "Fire Station Mapusa",
        "created": "29-12-2025 05:29:28+05:30",
        "lastUpdated": "29-12-2025 05:54:37+05:30"
      }
    },
    {
      "type": "Feature",
      "geometry": {
        "type": "LineString",
        "coordinates": [
          [
            73.817155,
            15.4871583
          ]
        ]
      },
      "properties": {
        "Vehicle_No": "GA07G2502 - Mid Size (Water Tender)",
        "Vehicle_Name": "5035",
        "Branch": "Fire Force Headquarters",
        "created": "29-12-2025 05:29:38+05:30",
        "lastUpdated": "29-12-2025 05:29:38+05:30"
      }
    }
  ]
}