{
  "type": "FeatureCollection",
  "metadata": {
    "date": "20251123",
    "source": "Directorate of Fire Emergency Services, Govt. of Goa",
    "description": "Daily GPS tracks of fire trucks",
    "lastUpdated": "2025-11-23T09:29:58.206Z",
    "count": 52
  },
  "features": [
    {
      "type": "Feature",
      "geometry": {
        "type": "LineString",
        "coordinates": [
          [
            73.7655517,
            15.6293333
          ]
        ]
      },
      "properties": {
        "Vehicle_No": "GA 07 G 0680-PIL(QUICK RESPONSE VEHICLE)",
        "Vehicle_Name": "4G",
        "Branch": "Fire Station Pilerne",
        "created": "23-11-2025 06:30:57",
        "lastUpdated": "23-11-2025 06:30:57"
      }
    },
    {
      "type": "Feature",
      "geometry": {
        "type": "LineString",
        "coordinates": [
          [
            73.914131,
            15.500313
          ],
          [
            73.914124,
            15.500315
          ],
          [
            73.893898,
            15.480902
          ],
          [
            73.885628,
            15.464978
          ],
          [
            73.880562,
            15.460848
          ],
          [
            73.920631,
            15.485695
          ],
          [
            73.922523,
            15.48496
          ],
          [
            73.914238,
            15.500225
          ]
        ]
      },
      "properties": {
        "Vehicle_No": "GA07G2506 - Mid Size (Water Tender)",
        "Vehicle_Name": "TS101",
        "Branch": "Fire Station Old Goa",
        "created": "23-11-2025 06:30:01",
        "lastUpdated": "23-11-2025 14:40:12"
      }
    },
    {
      "type": "Feature",
      "geometry": {
        "type": "LineString",
        "coordinates": [
          [
            73.829338,
            15.523182
          ],
          [
            73.829414,
            15.523067
          ],
          [
            73.829407,
            15.522943
          ],
          [
            73.829399,
            15.52302
          ]
        ]
      },
      "properties": {
        "Vehicle_No": "GA 07 G 5115-POR(MINI WATER TENDER)",
        "Vehicle_Name": "TS101",
        "Branch": "Fire Station Porvorim",
        "created": "23-11-2025 06:30:49",
        "lastUpdated": "23-11-2025 10:48:13"
      }
    },
    {
      "type": "Feature",
      "geometry": {
        "type": "LineString",
        "coordinates": [
          [
            73.970566,
            15.2694
          ],
          [
            73.970573,
            15.26944
          ],
          [
            73.970604,
            15.26944
          ],
          [
            73.970139,
            15.26939
          ],
          [
            73.970276,
            15.269333
          ],
          [
            73.970131,
            15.26944
          ]
        ]
      },
      "properties": {
        "Vehicle_No": "GA 07 G 0350-MRG(WATER TENDER)",
        "Vehicle_Name": "TS101",
        "Branch": "Fire Station Margao",
        "created": "23-11-2025 06:29:44",
        "lastUpdated": "23-11-2025 12:58:36"
      }
    },
    {
      "type": "Feature",
      "geometry": {
        "type": "LineString",
        "coordinates": [
          [
            73.808762,
            15.590167
          ],
          [
            73.808655,
            15.589858
          ],
          [
            73.797577,
            15.561758
          ],
          [
            73.796844,
            15.561383
          ],
          [
            73.796783,
            15.56137
          ],
          [
            73.797302,
            15.561738
          ]
        ]
      },
      "properties": {
        "Vehicle_No": "GA 07 G 2900-MAP(MINI RESCUE TENDER)",
        "Vehicle_Name": "TS101",
        "Branch": "Fire Station Mapusa",
        "created": "23-11-2025 06:29:58",
        "lastUpdated": "23-11-2025 14:59:50"
      }
    },
    {
      "type": "Feature",
      "geometry": {
        "type": "LineString",
        "coordinates": [
          [
            73.81736,
            15.48702
          ]
        ]
      },
      "properties": {
        "Vehicle_No": "GA 07 G 7600-FFHQ(WATER BOUSER)",
        "Vehicle_Name": "TS101",
        "Branch": "Fire Force Headquarters",
        "created": "15-11-2025 18:44:08",
        "lastUpdated": "15-11-2025 18:44:08"
      }
    },
    {
      "type": "Feature",
      "geometry": {
        "type": "LineString",
        "coordinates": [
          [
            73.817291,
            15.487438
          ],
          [
            73.817261,
            15.487437
          ],
          [
            73.817261,
            15.487428
          ]
        ]
      },
      "properties": {
        "Vehicle_No": "GA 07 G 2002-FFHQ(TURN TABLE LADDER)",
        "Vehicle_Name": "TS101",
        "Branch": "Fire Force Headquarters",
        "created": "23-11-2025 06:31:05",
        "lastUpdated": "23-11-2025 11:17:57"
      }
    },
    {
      "type": "Feature",
      "geometry": {
        "type": "LineString",
        "coordinates": [
          [
            73.817039,
            15.486992
          ],
          [
            73.817085,
            15.493915
          ]
        ]
      },
      "properties": {
        "Vehicle_No": "GA 07 G 7101-FFHQ(WATER TENDER)",
        "Vehicle_Name": "TS101",
        "Branch": "Fire Force Headquarters",
        "created": "23-11-2025 06:30:21",
        "lastUpdated": "23-11-2025 09:29:27"
      }
    },
    {
      "type": "Feature",
      "geometry": {
        "type": "LineString",
        "coordinates": [
          [
            73.817238,
            15.487445
          ],
          [
            73.817146,
            15.487095
          ]
        ]
      },
      "properties": {
        "Vehicle_No": "GA 07 G 7677-FFHQ(EMERGENCY RESCUE)",
        "Vehicle_Name": "TS101",
        "Branch": "Fire Force Headquarters",
        "created": "23-11-2025 00:03:36",
        "lastUpdated": "23-11-2025 11:04:52"
      }
    },
    {
      "type": "Feature",
      "geometry": {
        "type": "LineString",
        "coordinates": [
          [
            73.817345,
            15.487403
          ],
          [
            73.817169,
            15.487233
          ],
          [
            73.817238,
            15.4871
          ]
        ]
      },
      "properties": {
        "Vehicle_No": "GA 07 G 1121-PNJ(EMERGENCY RESCUE)",
        "Vehicle_Name": "TS101",
        "Branch": "Fire Station Panaji",
        "created": "23-11-2025 06:31:02",
        "lastUpdated": "23-11-2025 12:03:31"
      }
    },
    {
      "type": "Feature",
      "geometry": {
        "type": "LineString",
        "coordinates": [
          [
            73.817528,
            15.486678
          ],
          [
            73.817162,
            15.486202
          ],
          [
            73.817474,
            15.486455
          ],
          [
            73.817535,
            15.486293
          ],
          [
            73.817352,
            15.48667
          ],
          [
            73.817596,
            15.48642
          ],
          [
            73.817047,
            15.486428
          ]
        ]
      },
      "properties": {
        "Vehicle_No": "GA 07 G 1571-FFHQ(QUICK RESPONSE)",
        "Vehicle_Name": "TS101",
        "Branch": "Fire Force Headquarters",
        "created": "23-11-2025 06:22:26",
        "lastUpdated": "23-11-2025 14:21:00"
      }
    },
    {
      "type": "Feature",
      "geometry": {
        "type": "LineString",
        "coordinates": [
          [
            73.829544,
            15.523137
          ],
          [
            73.829529,
            15.523093
          ],
          [
            73.827034,
            15.525927
          ],
          [
            73.82695,
            15.525973
          ]
        ]
      },
      "properties": {
        "Vehicle_No": "GA 07 G 8101-MAP(WATER TENDER)",
        "Vehicle_Name": "TS101",
        "Branch": "Fire Station Mapusa",
        "created": "23-11-2025 06:29:36",
        "lastUpdated": "23-11-2025 11:05:19"
      }
    },
    {
      "type": "Feature",
      "geometry": {
        "type": "LineString",
        "coordinates": [
          [
            73.9700683,
            15.2693916
          ],
          [
            73.9701416,
            15.269385
          ],
          [
            73.9699783,
            15.2694483
          ],
          [
            73.9701083,
            15.26934
          ],
          [
            73.97019,
            15.26932
          ],
          [
            73.9734699,
            15.2681883
          ],
          [
            73.9672766,
            15.2595683
          ],
          [
            73.9704099,
            15.2694033
          ],
          [
            73.9702966,
            15.2694216
          ],
          [
            73.97015,
            15.26938
          ],
          [
            73.9701333,
            15.2694866
          ],
          [
            73.9697583,
            15.2692116
          ],
          [
            73.9702066,
            15.2693766
          ],
          [
            73.9700283,
            15.26943
          ],
          [
            73.9702066,
            15.269475
          ],
          [
            73.970385,
            15.2694233
          ],
          [
            73.9701583,
            15.269385
          ],
          [
            73.9702716,
            15.2693333
          ],
          [
            73.9701816,
            15.269365
          ],
          [
            73.970385,
            15.2693666
          ]
        ]
      },
      "properties": {
        "Vehicle_No": "GA 07 G 2317-MRG(EMERGENCY RESCUE TENDER)",
        "Vehicle_Name": "5035",
        "Branch": "Fire Station Margao",
        "created": "23-11-2025 06:31:22",
        "lastUpdated": "23-11-2025 14:59:16"
      }
    },
    {
      "type": "Feature",
      "geometry": {
        "type": "LineString",
        "coordinates": [
          [
            73.8511316,
            15.3890133
          ]
        ]
      },
      "properties": {
        "Vehicle_No": "GA 07 G 1570-VAS(QUICK RESPONSE FIRE TENDER)",
        "Vehicle_Name": "5035",
        "Branch": "Fire Station Vasco",
        "created": "23-11-2025 06:30:59",
        "lastUpdated": "23-11-2025 06:30:59"
      }
    },
    {
      "type": "Feature",
      "geometry": {
        "type": "LineString",
        "coordinates": [
          [
            73.8512366,
            15.3888483
          ]
        ]
      },
      "properties": {
        "Vehicle_No": "GA 07 G 4101-VAS(MS WATER TENDER)",
        "Vehicle_Name": "5035",
        "Branch": "Fire Station Vasco",
        "created": "23-11-2025 06:30:25",
        "lastUpdated": "23-11-2025 06:30:25"
      }
    },
    {
      "type": "Feature",
      "geometry": {
        "type": "LineString",
        "coordinates": [
          [
            73.8512783,
            15.3888583
          ],
          [
            73.851245,
            15.3887383
          ],
          [
            73.8512617,
            15.3888617
          ]
        ]
      },
      "properties": {
        "Vehicle_No": "GA 07 G 0819-VAS(WATER/FOAM TENDER)",
        "Vehicle_Name": "4G",
        "Branch": "Fire Station Vasco",
        "created": "23-11-2025 06:31:04",
        "lastUpdated": "23-11-2025 11:07:13"
      }
    },
    {
      "type": "Feature",
      "geometry": {
        "type": "LineString",
        "coordinates": [
          [
            73.9476066,
            15.3665383
          ]
        ]
      },
      "properties": {
        "Vehicle_No": "GA 07 G 7100-MRG(WATER BOUSER)",
        "Vehicle_Name": "5035",
        "Branch": "Fire Station Margao",
        "created": "23-11-2025 06:30:55",
        "lastUpdated": "23-11-2025 06:30:55"
      }
    },
    {
      "type": "Feature",
      "geometry": {
        "type": "LineString",
        "coordinates": [
          [
            73.9704999,
            15.26943
          ]
        ]
      },
      "properties": {
        "Vehicle_No": "GA 07 G 1568-MRG(QUICK RESPONSE )",
        "Vehicle_Name": "5035",
        "Branch": "Fire Station Margao",
        "created": "23-11-2025 06:30:13",
        "lastUpdated": "23-11-2025 06:30:13"
      }
    },
    {
      "type": "Feature",
      "geometry": {
        "type": "LineString",
        "coordinates": [
          [
            73.9701583,
            15.2694533
          ],
          [
            73.970215,
            15.26941
          ],
          [
            73.9699783,
            15.2695033
          ],
          [
            73.9701983,
            15.269115
          ],
          [
            73.9701166,
            15.269395
          ],
          [
            73.9700283,
            15.2695183
          ],
          [
            73.9700683,
            15.2695116
          ],
          [
            73.9700116,
            15.269505
          ],
          [
            73.969995,
            15.26953
          ]
        ]
      },
      "properties": {
        "Vehicle_No": "GA 07 G 6101-MRG(WATER TENDER)",
        "Vehicle_Name": "5035",
        "Branch": "Fire Station Margao",
        "created": "23-11-2025 06:30:40",
        "lastUpdated": "23-11-2025 11:27:35"
      }
    },
    {
      "type": "Feature",
      "geometry": {
        "type": "LineString",
        "coordinates": [
          [
            73.9697916,
            15.2696983
          ],
          [
            73.9696866,
            15.269535
          ],
          [
            73.9699783,
            15.2694683
          ],
          [
            73.9697583,
            15.2696983
          ]
        ]
      },
      "properties": {
        "Vehicle_No": "GA 07 G 1001-MRG(AERIAL LADDER PLATFORM)",
        "Vehicle_Name": "5035",
        "Branch": "Fire Station Margao",
        "created": "23-11-2025 06:30:34",
        "lastUpdated": "23-11-2025 12:04:19"
      }
    },
    {
      "type": "Feature",
      "geometry": {
        "type": "LineString",
        "coordinates": [
          [
            74.0029922,
            15.4026567
          ]
        ]
      },
      "properties": {
        "Vehicle_No": "GA 07 G 0820-BIC(WATER TEDNER)",
        "Vehicle_Name": "5026",
        "Branch": "Fire Station Bicholim",
        "created": "23-11-2025 06:31:22",
        "lastUpdated": "23-11-2025 06:31:22"
      }
    },
    {
      "type": "Feature",
      "geometry": {
        "type": "LineString",
        "coordinates": [
          [
            73.914005,
            15.50031
          ],
          [
            73.9141683,
            15.50022
          ],
          [
            73.910465,
            15.501865
          ],
          [
            73.91241,
            15.5093166
          ],
          [
            73.9123783,
            15.509355
          ],
          [
            73.9139966,
            15.50007
          ],
          [
            73.9135333,
            15.506705
          ],
          [
            73.9123533,
            15.5093166
          ],
          [
            73.9124916,
            15.5090966
          ],
          [
            73.9108483,
            15.5041333
          ],
          [
            73.912395,
            15.509305
          ],
          [
            73.91368,
            15.50522
          ],
          [
            73.914185,
            15.5002
          ],
          [
            73.9142166,
            15.5001966
          ],
          [
            73.9140783,
            15.50031
          ]
        ]
      },
      "properties": {
        "Vehicle_No": "GA 07 G 5101-OLG(MS WATER TENDER)",
        "Vehicle_Name": "5035",
        "Branch": "Fire Station Old Goa",
        "created": "23-11-2025 06:30:52",
        "lastUpdated": "23-11-2025 14:21:11"
      }
    },
    {
      "type": "Feature",
      "geometry": {
        "type": "LineString",
        "coordinates": [
          [
            73.9464933,
            15.5890683
          ],
          [
            73.9464933,
            15.5892399
          ],
          [
            73.9453783,
            15.5896966
          ],
          [
            73.9465983,
            15.5888833
          ],
          [
            73.947005,
            15.5894733
          ],
          [
            73.9463533,
            15.5891333
          ],
          [
            73.9470533,
            15.5895066
          ],
          [
            73.946615,
            15.5890183
          ],
          [
            73.94624,
            15.5890833
          ],
          [
            73.9464266,
            15.589085
          ],
          [
            73.9471116,
            15.5899949
          ],
          [
            73.9459066,
            15.5877566
          ],
          [
            73.9458983,
            15.58825
          ],
          [
            73.9455083,
            15.592435
          ]
        ]
      },
      "properties": {
        "Vehicle_No": "GA 07 G 3101-BIC(MS WATER TENDER)",
        "Vehicle_Name": "5035",
        "Branch": "Fire Station Bicholim",
        "created": "23-11-2025 06:30:12",
        "lastUpdated": "23-11-2025 14:59:55"
      }
    },
    {
      "type": "Feature",
      "geometry": {
        "type": "LineString",
        "coordinates": [
          [
            73.914135,
            15.5001466
          ],
          [
            73.9132733,
            15.5012133
          ]
        ]
      },
      "properties": {
        "Vehicle_No": "GA 07 G 1941-BIC(QUICK RESPONSE)",
        "Vehicle_Name": "5035",
        "Branch": "Fire Station Bicholim",
        "created": "23-11-2025 06:30:50",
        "lastUpdated": "23-11-2025 10:48:38"
      }
    },
    {
      "type": "Feature",
      "geometry": {
        "type": "LineString",
        "coordinates": [
          [
            73.85122,
            15.3888116
          ]
        ]
      },
      "properties": {
        "Vehicle_No": "GA 07 G 2319-VAS (EMERGENCY RESCUE TENDER)",
        "Vehicle_Name": "5035",
        "Branch": "Fire Station Vasco",
        "created": "23-11-2025 06:30:37",
        "lastUpdated": "23-11-2025 06:30:37"
      }
    },
    {
      "type": "Feature",
      "geometry": {
        "type": "LineString",
        "coordinates": [
          [
            74.1386716,
            15.53099
          ],
          [
            74.138705,
            15.531
          ]
        ]
      },
      "properties": {
        "Vehicle_No": "GA 07 G 3737-VAP(WATER TENDER)",
        "Vehicle_Name": "5035",
        "Branch": "Fire Station Valpoi",
        "created": "23-11-2025 06:30:08",
        "lastUpdated": "23-11-2025 08:30:14"
      }
    },
    {
      "type": "Feature",
      "geometry": {
        "type": "LineString",
        "coordinates": [
          [
            74.0027016,
            15.40293
          ],
          [
            74.0374666,
            15.4174283
          ],
          [
            74.0079266,
            15.406545
          ],
          [
            74.0028483,
            15.4027483
          ]
        ]
      },
      "properties": {
        "Vehicle_No": "GA 07 G 2318-PND(EMERGENCY RESCUE TENDER)",
        "Vehicle_Name": "5035",
        "Branch": "Fire Station Ponda",
        "created": "23-11-2025 06:30:55",
        "lastUpdated": "23-11-2025 11:17:52"
      }
    },
    {
      "type": "Feature",
      "geometry": {
        "type": "LineString",
        "coordinates": [
          [
            74.0028566,
            15.4027683
          ],
          [
            73.995475,
            15.4061483
          ],
          [
            73.9113199,
            15.5017133
          ],
          [
            73.910245,
            15.5018933
          ]
        ]
      },
      "properties": {
        "Vehicle_No": "GA 07 G 2004-PND(QUICK RESPONSE)",
        "Vehicle_Name": "5035",
        "Branch": "Fire Station Ponda",
        "created": "23-11-2025 06:30:43",
        "lastUpdated": "23-11-2025 11:06:39"
      }
    },
    {
      "type": "Feature",
      "geometry": {
        "type": "LineString",
        "coordinates": [
          [
            74.0030116,
            15.4026833
          ],
          [
            74.0026766,
            15.4027849
          ]
        ]
      },
      "properties": {
        "Vehicle_No": "GA 07 G 9101-PND(WATER TENDER)",
        "Vehicle_Name": "5035",
        "Branch": "Fire Station Ponda",
        "created": "23-11-2025 06:30:59",
        "lastUpdated": "23-11-2025 12:59:18"
      }
    },
    {
      "type": "Feature",
      "geometry": {
        "type": "LineString",
        "coordinates": [
          [
            73.9143883,
            15.5005883
          ],
          [
            73.9135016,
            15.4991916
          ],
          [
            73.910515,
            15.5014166
          ],
          [
            73.9104816,
            15.5014283
          ]
        ]
      },
      "properties": {
        "Vehicle_No": "GA 07 G 9797-PND(WATER BOUSER)",
        "Vehicle_Name": "5035",
        "Branch": "Fire Station Ponda",
        "created": "23-11-2025 06:30:02",
        "lastUpdated": "23-11-2025 12:42:06"
      }
    },
    {
      "type": "Feature",
      "geometry": {
        "type": "LineString",
        "coordinates": [
          [
            74.0440183,
            15.0236016
          ],
          [
            74.0440266,
            15.0236433
          ]
        ]
      },
      "properties": {
        "Vehicle_No": "GA 07 G 6363-CAN(WATER TENDER)",
        "Vehicle_Name": "5035",
        "Branch": "Fire Station Canacona",
        "created": "22-11-2025 00:34:51",
        "lastUpdated": "23-11-2025 10:25:53"
      }
    },
    {
      "type": "Feature",
      "geometry": {
        "type": "LineString",
        "coordinates": [
          [
            74.0440916,
            15.0236883
          ]
        ]
      },
      "properties": {
        "Vehicle_No": "GA 07 G 1567-CAN(QUICK RESPONSE FT)",
        "Vehicle_Name": "5035",
        "Branch": "Fire Station Canacona",
        "created": "20-11-2025 14:51:24",
        "lastUpdated": "20-11-2025 14:51:24"
      }
    },
    {
      "type": "Feature",
      "geometry": {
        "type": "LineString",
        "coordinates": [
          [
            73.9356033,
            15.3696616
          ],
          [
            73.93575,
            15.36965
          ],
          [
            73.9355466,
            15.36931
          ]
        ]
      },
      "properties": {
        "Vehicle_No": "GA 07 G 1569-VRN(QUICK RESPONSE)",
        "Vehicle_Name": "5035",
        "Branch": "Fire Station Verna",
        "created": "23-11-2025 06:30:30",
        "lastUpdated": "23-11-2025 14:59:33"
      }
    },
    {
      "type": "Feature",
      "geometry": {
        "type": "LineString",
        "coordinates": [
          [
            73.9342933,
            15.3697283
          ],
          [
            73.93549,
            15.369655
          ],
          [
            73.93558,
            15.3695966
          ],
          [
            73.935645,
            15.36957
          ],
          [
            73.9362216,
            15.3695333
          ],
          [
            73.9358716,
            15.3698466
          ]
        ]
      },
      "properties": {
        "Vehicle_No": "GA 07 G 9909-VRN(ADVANCE MULTI-PURPOSE)",
        "Vehicle_Name": "5035",
        "Branch": "Fire Station Verna",
        "created": "23-11-2025 06:30:53",
        "lastUpdated": "23-11-2025 14:21:48"
      }
    },
    {
      "type": "Feature",
      "geometry": {
        "type": "LineString",
        "coordinates": [
          [
            73.9141116,
            15.5001816
          ],
          [
            73.9137783,
            15.504495
          ]
        ]
      },
      "properties": {
        "Vehicle_No": "GA 07 G 1942-VAP(QUICK RESPONSE)",
        "Vehicle_Name": "5035",
        "Branch": "Fire Station Valpoi",
        "created": "23-11-2025 06:31:04",
        "lastUpdated": "23-11-2025 12:04:34"
      }
    },
    {
      "type": "Feature",
      "geometry": {
        "type": "LineString",
        "coordinates": [
          [
            74.1038566,
            15.2602783
          ],
          [
            74.10376,
            15.260285
          ],
          [
            74.1035883,
            15.2604616
          ],
          [
            74.10345,
            15.2598
          ]
        ]
      },
      "properties": {
        "Vehicle_No": "GA 07 G 2003-CUR(QUICK RESPONSE)",
        "Vehicle_Name": "5035",
        "Branch": "Fire Station Curchorem",
        "created": "23-11-2025 06:31:05",
        "lastUpdated": "23-11-2025 13:20:45"
      }
    },
    {
      "type": "Feature",
      "geometry": {
        "type": "LineString",
        "coordinates": [
          [
            74.1037033,
            15.260415
          ]
        ]
      },
      "properties": {
        "Vehicle_No": "GA 07 G 7447-CUR(EMERGENCY RESCUE)",
        "Vehicle_Name": "5035",
        "Branch": "Fire Station Curchorem",
        "created": "23-11-2025 06:30:50",
        "lastUpdated": "23-11-2025 06:30:50"
      }
    },
    {
      "type": "Feature",
      "geometry": {
        "type": "LineString",
        "coordinates": [
          [
            74.10376,
            15.2604266
          ],
          [
            74.1037116,
            15.260395
          ],
          [
            74.1036783,
            15.26039
          ]
        ]
      },
      "properties": {
        "Vehicle_No": "GA 07 G 7557-CUR(WATER TENDER)",
        "Vehicle_Name": "5035",
        "Branch": "Fire Station Curchorem",
        "created": "23-11-2025 06:31:09",
        "lastUpdated": "23-11-2025 12:59:17"
      }
    },
    {
      "type": "Feature",
      "geometry": {
        "type": "LineString",
        "coordinates": [
          [
            74.1036466,
            15.260345
          ],
          [
            74.1037116,
            15.2602483
          ],
          [
            74.10376,
            15.26035
          ]
        ]
      },
      "properties": {
        "Vehicle_No": "GA 07 G 7667-CUR(WATER BOUSER)",
        "Vehicle_Name": "5035",
        "Branch": "Fire Station Curchorem",
        "created": "23-11-2025 06:30:28",
        "lastUpdated": "23-11-2025 10:07:55"
      }
    },
    {
      "type": "Feature",
      "geometry": {
        "type": "LineString",
        "coordinates": [
          [
            73.97242,
            15.462555
          ]
        ]
      },
      "properties": {
        "Vehicle_No": "GA 07 G 4989-KUN(WATER TENDER)",
        "Vehicle_Name": "G-100",
        "Branch": "Fire Station Kundaim",
        "created": "23-11-2025 06:31:17",
        "lastUpdated": "23-11-2025 06:31:17"
      }
    },
    {
      "type": "Feature",
      "geometry": {
        "type": "LineString",
        "coordinates": [
          [
            73.7938311,
            15.5330783
          ],
          [
            73.79383,
            15.5330844
          ],
          [
            73.7940294,
            15.5329533
          ]
        ]
      },
      "properties": {
        "Vehicle_No": "GA 07 G 2242-PIL(WATER TENDER)",
        "Vehicle_Name": "5026",
        "Branch": "Fire Station Pilerne",
        "created": "23-11-2025 06:28:45",
        "lastUpdated": "23-11-2025 12:04:15"
      }
    },
    {
      "type": "Feature",
      "geometry": {
        "type": "LineString",
        "coordinates": [
          [
            73.8087,
            15.5898417
          ],
          [
            73.769385,
            15.5614217
          ],
          [
            73.7592617,
            15.563755
          ]
        ]
      },
      "properties": {
        "Vehicle_No": "GA 07 G 0681-MAP(QUICK RESPONSE)",
        "Vehicle_Name": "AT 5036A-4G",
        "Branch": "Fire Station Mapusa",
        "created": "23-11-2025 06:31:16",
        "lastUpdated": "23-11-2025 10:08:36"
      }
    },
    {
      "type": "Feature",
      "geometry": {
        "type": "LineString",
        "coordinates": [
          [
            73.7974239,
            15.7164939
          ]
        ]
      },
      "properties": {
        "Vehicle_No": "GA 07 G 0307-PER(QUICK RESPONSE)",
        "Vehicle_Name": "AT5032-4G",
        "Branch": "Fire Station Pernem",
        "created": "23-10-2025 15:19:09",
        "lastUpdated": "23-10-2025 15:19:09"
      }
    },
    {
      "type": "Feature",
      "geometry": {
        "type": "LineString",
        "coordinates": [
          [
            73.7974917,
            15.7164956
          ],
          [
            73.7974589,
            15.7164267
          ],
          [
            73.7974683,
            15.7164539
          ]
        ]
      },
      "properties": {
        "Vehicle_No": "GA 07 G 2101-PER(MS WATER TENDER)",
        "Vehicle_Name": "AT5032-4G",
        "Branch": "Fire Station Pernem",
        "created": "23-11-2025 06:30:38",
        "lastUpdated": "23-11-2025 11:05:26"
      }
    },
    {
      "type": "Feature",
      "geometry": {
        "type": "LineString",
        "coordinates": [
          [
            73.7977522,
            15.716525
          ],
          [
            73.797495,
            15.7163911
          ],
          [
            73.7975433,
            15.7164522
          ],
          [
            73.7975372,
            15.716445
          ],
          [
            73.7975717,
            15.7164767
          ],
          [
            73.7975889,
            15.7164617
          ]
        ]
      },
      "properties": {
        "Vehicle_No": "GA 07 G 4600-PER(MINI RESCUE TENDER)",
        "Vehicle_Name": "AT 5032-4G",
        "Branch": "Fire Station Pernem",
        "created": "23-11-2025 06:30:28",
        "lastUpdated": "23-11-2025 11:25:11"
      }
    },
    {
      "type": "Feature",
      "geometry": {
        "type": "LineString",
        "coordinates": [
          [
            73.8171939,
            15.4871139
          ],
          [
            73.8169867,
            15.4867478
          ],
          [
            73.8172556,
            15.4872389
          ],
          [
            73.8171928,
            15.4871544
          ],
          [
            73.8175961,
            15.4878767
          ]
        ]
      },
      "properties": {
        "Vehicle_No": "GA 07 G 7272-PNJ(WATER TENDER)",
        "Vehicle_Name": "AT-5032-4G",
        "Branch": "Fire Station Panaji",
        "created": "23-11-2025 06:29:12",
        "lastUpdated": "23-11-2025 12:03:10"
      }
    },
    {
      "type": "Feature",
      "geometry": {
        "type": "LineString",
        "coordinates": [
          [
            74.0210706,
            15.1862606
          ],
          [
            74.0209728,
            15.186305
          ],
          [
            74.0210139,
            15.1862972
          ],
          [
            74.0209194,
            15.18607
          ],
          [
            73.9944739,
            15.1744494
          ],
          [
            73.9961844,
            15.1695756
          ],
          [
            74.0211011,
            15.1861528
          ],
          [
            74.02106,
            15.1861783
          ]
        ]
      },
      "properties": {
        "Vehicle_No": "GA07G2384- Cuncolim",
        "Vehicle_Name": "AT 5032-4G",
        "Branch": "Fire Station Cuncolim",
        "created": "23-11-2025 06:30:40",
        "lastUpdated": "23-11-2025 14:06:34"
      }
    },
    {
      "type": "Feature",
      "geometry": {
        "type": "LineString",
        "coordinates": [
          [
            73.8170567,
            15.4865967
          ],
          [
            73.8205233,
            15.4983433
          ]
        ]
      },
      "properties": {
        "Vehicle_No": "GA07G2507",
        "Vehicle_Name": "5035",
        "Branch": "Fire Force Headquarters",
        "created": "23-11-2025 06:31:01",
        "lastUpdated": "23-11-2025 08:30:31"
      }
    },
    {
      "type": "Feature",
      "geometry": {
        "type": "LineString",
        "coordinates": [
          [
            74.13864,
            15.5309667
          ]
        ]
      },
      "properties": {
        "Vehicle_No": "GA07G2505 - Mid Size (Water Tender)",
        "Vehicle_Name": "5035",
        "Branch": "Fire Station Valpoi",
        "created": "23-11-2025 06:30:34",
        "lastUpdated": "23-11-2025 06:30:34"
      }
    },
    {
      "type": "Feature",
      "geometry": {
        "type": "LineString",
        "coordinates": [
          [
            73.9465083,
            15.5893583
          ],
          [
            73.9462967,
            15.5888583
          ]
        ]
      },
      "properties": {
        "Vehicle_No": "GA07G2504 - Mid Size (Water Tender)",
        "Vehicle_Name": "5035",
        "Branch": "Fire Station Bicholim",
        "created": "23-11-2025 06:30:55",
        "lastUpdated": "23-11-2025 12:58:40"
      }
    },
    {
      "type": "Feature",
      "geometry": {
        "type": "LineString",
        "coordinates": [
          [
            73.8087,
            15.5900017
          ],
          [
            73.8086433,
            15.5900017
          ]
        ]
      },
      "properties": {
        "Vehicle_No": "GA07G2503-Mid Size (Water Tender)",
        "Vehicle_Name": "5035",
        "Branch": "Fire Station Mapusa",
        "created": "23-11-2025 06:30:48",
        "lastUpdated": "23-11-2025 08:30:58"
      }
    },
    {
      "type": "Feature",
      "geometry": {
        "type": "LineString",
        "coordinates": [
          [
            73.81709,
            15.4868767
          ],
          [
            73.8170333,
            15.48705
          ],
          [
            73.8209633,
            15.49585
          ],
          [
            73.8295,
            15.5231383
          ],
          [
            73.8198567,
            15.545235
          ],
          [
            73.8093667,
            15.5893717
          ],
          [
            73.7418617,
            15.5923867
          ]
        ]
      },
      "properties": {
        "Vehicle_No": "GA07G2502 - Mid Size (Water Tender)",
        "Vehicle_Name": "5035",
        "Branch": "Fire Force Headquarters",
        "created": "23-11-2025 06:31:19",
        "lastUpdated": "23-11-2025 12:04:27"
      }
    }
  ]
}