{
  "type": "FeatureCollection",
  "metadata": {
    "date": "20251130",
    "source": "Directorate of Fire Emergency Services, Govt. of Goa",
    "description": "Daily GPS tracks of fire trucks",
    "lastUpdated": "2025-11-30T01:19:13.426Z",
    "count": 52
  },
  "features": [
    {
      "type": "Feature",
      "geometry": {
        "type": "LineString",
        "coordinates": [
          [
            73.7655517,
            15.6293333
          ]
        ]
      },
      "properties": {
        "Vehicle_No": "GA 07 G 0680-PIL(QUICK RESPONSE VEHICLE)",
        "Vehicle_Name": "4G",
        "Branch": "Fire Station Pilerne",
        "created": "30-11-2025 06:49:04",
        "lastUpdated": "30-11-2025 06:49:04"
      }
    },
    {
      "type": "Feature",
      "geometry": {
        "type": "LineString",
        "coordinates": [
          [
            74.002914,
            15.402758
          ]
        ]
      },
      "properties": {
        "Vehicle_No": "GA07G2506 - Mid Size (Water Tender)",
        "Vehicle_Name": "TS101",
        "Branch": "Fire Station Old Goa",
        "created": "30-11-2025 06:47:21",
        "lastUpdated": "30-11-2025 06:47:21"
      }
    },
    {
      "type": "Feature",
      "geometry": {
        "type": "LineString",
        "coordinates": [
          [
            73.82946,
            15.522958
          ]
        ]
      },
      "properties": {
        "Vehicle_No": "GA 07 G 5115-POR(MINI WATER TENDER)",
        "Vehicle_Name": "TS101",
        "Branch": "Fire Station Porvorim",
        "created": "30-11-2025 06:47:36",
        "lastUpdated": "30-11-2025 06:47:36"
      }
    },
    {
      "type": "Feature",
      "geometry": {
        "type": "LineString",
        "coordinates": [
          [
            73.970596,
            15.269415
          ]
        ]
      },
      "properties": {
        "Vehicle_No": "GA 07 G 0350-MRG(WATER TENDER)",
        "Vehicle_Name": "TS101",
        "Branch": "Fire Station Margao",
        "created": "30-11-2025 06:48:56",
        "lastUpdated": "30-11-2025 06:48:56"
      }
    },
    {
      "type": "Feature",
      "geometry": {
        "type": "LineString",
        "coordinates": [
          [
            73.808815,
            15.589965
          ]
        ]
      },
      "properties": {
        "Vehicle_No": "GA 07 G 2900-MAP(MINI RESCUE TENDER)",
        "Vehicle_Name": "TS101",
        "Branch": "Fire Station Mapusa",
        "created": "30-11-2025 06:48:15",
        "lastUpdated": "30-11-2025 06:48:15"
      }
    },
    {
      "type": "Feature",
      "geometry": {
        "type": "LineString",
        "coordinates": [
          [
            73.81736,
            15.48702
          ]
        ]
      },
      "properties": {
        "Vehicle_No": "GA 07 G 7600-FFHQ(WATER BOUSER)",
        "Vehicle_Name": "TS101",
        "Branch": "Fire Force Headquarters",
        "created": "15-11-2025 18:44:08",
        "lastUpdated": "15-11-2025 18:44:08"
      }
    },
    {
      "type": "Feature",
      "geometry": {
        "type": "LineString",
        "coordinates": [
          [
            73.817436,
            15.486285
          ]
        ]
      },
      "properties": {
        "Vehicle_No": "GA 07 G 2002-FFHQ(TURN TABLE LADDER)",
        "Vehicle_Name": "TS101",
        "Branch": "Fire Force Headquarters",
        "created": "30-11-2025 06:47:30",
        "lastUpdated": "30-11-2025 06:47:30"
      }
    },
    {
      "type": "Feature",
      "geometry": {
        "type": "LineString",
        "coordinates": [
          [
            73.817062,
            15.486915
          ]
        ]
      },
      "properties": {
        "Vehicle_No": "GA 07 G 7101-FFHQ(WATER TENDER)",
        "Vehicle_Name": "TS101",
        "Branch": "Fire Force Headquarters",
        "created": "30-11-2025 06:47:52",
        "lastUpdated": "30-11-2025 06:47:52"
      }
    },
    {
      "type": "Feature",
      "geometry": {
        "type": "LineString",
        "coordinates": [
          [
            73.817101,
            15.48704
          ]
        ]
      },
      "properties": {
        "Vehicle_No": "GA 07 G 7677-FFHQ(EMERGENCY RESCUE)",
        "Vehicle_Name": "TS101",
        "Branch": "Fire Force Headquarters",
        "created": "30-11-2025 06:48:06",
        "lastUpdated": "30-11-2025 06:48:06"
      }
    },
    {
      "type": "Feature",
      "geometry": {
        "type": "LineString",
        "coordinates": [
          [
            73.817268,
            15.48729
          ]
        ]
      },
      "properties": {
        "Vehicle_No": "GA 07 G 1121-PNJ(EMERGENCY RESCUE)",
        "Vehicle_Name": "TS101",
        "Branch": "Fire Station Panaji",
        "created": "30-11-2025 06:49:08",
        "lastUpdated": "30-11-2025 06:49:08"
      }
    },
    {
      "type": "Feature",
      "geometry": {
        "type": "LineString",
        "coordinates": [
          [
            73.817482,
            15.486475
          ]
        ]
      },
      "properties": {
        "Vehicle_No": "GA 07 G 1571-FFHQ(QUICK RESPONSE)",
        "Vehicle_Name": "TS101",
        "Branch": "Fire Force Headquarters",
        "created": "30-11-2025 06:45:57",
        "lastUpdated": "30-11-2025 06:45:57"
      }
    },
    {
      "type": "Feature",
      "geometry": {
        "type": "LineString",
        "coordinates": [
          [
            73.808617,
            15.58988
          ]
        ]
      },
      "properties": {
        "Vehicle_No": "GA 07 G 8101-MAP(WATER TENDER)",
        "Vehicle_Name": "TS101",
        "Branch": "Fire Station Mapusa",
        "created": "30-11-2025 06:45:32",
        "lastUpdated": "30-11-2025 06:45:32"
      }
    },
    {
      "type": "Feature",
      "geometry": {
        "type": "LineString",
        "coordinates": [
          [
            73.970035,
            15.2693366
          ]
        ]
      },
      "properties": {
        "Vehicle_No": "GA 07 G 2317-MRG(EMERGENCY RESCUE TENDER)",
        "Vehicle_Name": "5035",
        "Branch": "Fire Station Margao",
        "created": "30-11-2025 06:49:09",
        "lastUpdated": "30-11-2025 06:49:09"
      }
    },
    {
      "type": "Feature",
      "geometry": {
        "type": "LineString",
        "coordinates": [
          [
            73.8716633,
            15.3815366
          ]
        ]
      },
      "properties": {
        "Vehicle_No": "GA 07 G 1570-VAS(QUICK RESPONSE FIRE TENDER)",
        "Vehicle_Name": "5035",
        "Branch": "Fire Station Vasco",
        "created": "30-11-2025 06:49:03",
        "lastUpdated": "30-11-2025 06:49:03"
      }
    },
    {
      "type": "Feature",
      "geometry": {
        "type": "LineString",
        "coordinates": [
          [
            73.8718016,
            15.375855
          ]
        ]
      },
      "properties": {
        "Vehicle_No": "GA 07 G 4101-VAS(MS WATER TENDER)",
        "Vehicle_Name": "5035",
        "Branch": "Fire Station Vasco",
        "created": "30-11-2025 06:49:05",
        "lastUpdated": "30-11-2025 06:49:05"
      }
    },
    {
      "type": "Feature",
      "geometry": {
        "type": "LineString",
        "coordinates": [
          [
            73.8717767,
            15.3815817
          ]
        ]
      },
      "properties": {
        "Vehicle_No": "GA 07 G 0819-VAS(WATER/FOAM TENDER)",
        "Vehicle_Name": "4G",
        "Branch": "Fire Station Vasco",
        "created": "30-11-2025 06:49:00",
        "lastUpdated": "30-11-2025 06:49:00"
      }
    },
    {
      "type": "Feature",
      "geometry": {
        "type": "LineString",
        "coordinates": [
          [
            73.9698733,
            15.2696166
          ]
        ]
      },
      "properties": {
        "Vehicle_No": "GA 07 G 7100-MRG(WATER BOUSER)",
        "Vehicle_Name": "5035",
        "Branch": "Fire Station Margao",
        "created": "30-11-2025 06:48:01",
        "lastUpdated": "30-11-2025 06:48:01"
      }
    },
    {
      "type": "Feature",
      "geometry": {
        "type": "LineString",
        "coordinates": [
          [
            73.9704583,
            15.26943
          ]
        ]
      },
      "properties": {
        "Vehicle_No": "GA 07 G 1568-MRG(QUICK RESPONSE )",
        "Vehicle_Name": "5035",
        "Branch": "Fire Station Margao",
        "created": "30-11-2025 06:48:17",
        "lastUpdated": "30-11-2025 06:48:17"
      }
    },
    {
      "type": "Feature",
      "geometry": {
        "type": "LineString",
        "coordinates": [
          [
            73.8672533,
            15.3794916
          ]
        ]
      },
      "properties": {
        "Vehicle_No": "GA 07 G 6101-MRG(WATER TENDER)",
        "Vehicle_Name": "5035",
        "Branch": "Fire Station Margao",
        "created": "30-11-2025 06:49:12",
        "lastUpdated": "30-11-2025 06:49:12"
      }
    },
    {
      "type": "Feature",
      "geometry": {
        "type": "LineString",
        "coordinates": [
          [
            73.9701166,
            15.26926
          ]
        ]
      },
      "properties": {
        "Vehicle_No": "GA 07 G 1001-MRG(AERIAL LADDER PLATFORM)",
        "Vehicle_Name": "5035",
        "Branch": "Fire Station Margao",
        "created": "30-11-2025 06:48:28",
        "lastUpdated": "30-11-2025 06:48:28"
      }
    },
    {
      "type": "Feature",
      "geometry": {
        "type": "LineString",
        "coordinates": [
          [
            74.0028494,
            15.4028106
          ]
        ]
      },
      "properties": {
        "Vehicle_No": "GA 07 G 0820-BIC(WATER TEDNER)",
        "Vehicle_Name": "5026",
        "Branch": "Fire Station Bicholim",
        "created": "30-11-2025 06:49:05",
        "lastUpdated": "30-11-2025 06:49:05"
      }
    },
    {
      "type": "Feature",
      "geometry": {
        "type": "LineString",
        "coordinates": [
          [
            73.914005,
            15.5003416
          ]
        ]
      },
      "properties": {
        "Vehicle_No": "GA 07 G 5101-OLG(MS WATER TENDER)",
        "Vehicle_Name": "5035",
        "Branch": "Fire Station Old Goa",
        "created": "30-11-2025 06:48:58",
        "lastUpdated": "30-11-2025 06:48:58"
      }
    },
    {
      "type": "Feature",
      "geometry": {
        "type": "LineString",
        "coordinates": [
          [
            73.9463216,
            15.5891383
          ]
        ]
      },
      "properties": {
        "Vehicle_No": "GA 07 G 3101-BIC(MS WATER TENDER)",
        "Vehicle_Name": "5035",
        "Branch": "Fire Station Bicholim",
        "created": "30-11-2025 06:48:40",
        "lastUpdated": "30-11-2025 06:48:40"
      }
    },
    {
      "type": "Feature",
      "geometry": {
        "type": "LineString",
        "coordinates": [
          [
            73.9132083,
            15.5012
          ]
        ]
      },
      "properties": {
        "Vehicle_No": "GA 07 G 1941-BIC(QUICK RESPONSE)",
        "Vehicle_Name": "5035",
        "Branch": "Fire Station Bicholim",
        "created": "30-11-2025 06:48:16",
        "lastUpdated": "30-11-2025 06:48:16"
      }
    },
    {
      "type": "Feature",
      "geometry": {
        "type": "LineString",
        "coordinates": [
          [
            73.8512366,
            15.3888583
          ]
        ]
      },
      "properties": {
        "Vehicle_No": "GA 07 G 2319-VAS (EMERGENCY RESCUE TENDER)",
        "Vehicle_Name": "5035",
        "Branch": "Fire Station Vasco",
        "created": "30-11-2025 06:48:56",
        "lastUpdated": "30-11-2025 06:48:56"
      }
    },
    {
      "type": "Feature",
      "geometry": {
        "type": "LineString",
        "coordinates": [
          [
            74.13864,
            15.530945
          ]
        ]
      },
      "properties": {
        "Vehicle_No": "GA 07 G 3737-VAP(WATER TENDER)",
        "Vehicle_Name": "5035",
        "Branch": "Fire Station Valpoi",
        "created": "30-11-2025 06:48:14",
        "lastUpdated": "30-11-2025 06:48:14"
      }
    },
    {
      "type": "Feature",
      "geometry": {
        "type": "LineString",
        "coordinates": [
          [
            74.0028883,
            15.4027066
          ]
        ]
      },
      "properties": {
        "Vehicle_No": "GA 07 G 2318-PND(EMERGENCY RESCUE TENDER)",
        "Vehicle_Name": "5035",
        "Branch": "Fire Station Ponda",
        "created": "30-11-2025 06:48:43",
        "lastUpdated": "30-11-2025 06:48:43"
      }
    },
    {
      "type": "Feature",
      "geometry": {
        "type": "LineString",
        "coordinates": [
          [
            73.91023,
            15.5018783
          ]
        ]
      },
      "properties": {
        "Vehicle_No": "GA 07 G 2004-PND(QUICK RESPONSE)",
        "Vehicle_Name": "5035",
        "Branch": "Fire Station Ponda",
        "created": "30-11-2025 06:49:03",
        "lastUpdated": "30-11-2025 06:49:03"
      }
    },
    {
      "type": "Feature",
      "geometry": {
        "type": "LineString",
        "coordinates": [
          [
            73.8719,
            15.3807766
          ]
        ]
      },
      "properties": {
        "Vehicle_No": "GA 07 G 9101-PND(WATER TENDER)",
        "Vehicle_Name": "5035",
        "Branch": "Fire Station Ponda",
        "created": "30-11-2025 06:47:51",
        "lastUpdated": "30-11-2025 06:47:51"
      }
    },
    {
      "type": "Feature",
      "geometry": {
        "type": "LineString",
        "coordinates": [
          [
            73.910425,
            15.5014283
          ]
        ]
      },
      "properties": {
        "Vehicle_No": "GA 07 G 9797-PND(WATER BOUSER)",
        "Vehicle_Name": "5035",
        "Branch": "Fire Station Ponda",
        "created": "30-11-2025 06:49:04",
        "lastUpdated": "30-11-2025 06:49:04"
      }
    },
    {
      "type": "Feature",
      "geometry": {
        "type": "LineString",
        "coordinates": [
          [
            74.0440349,
            15.0236666
          ]
        ]
      },
      "properties": {
        "Vehicle_No": "GA 07 G 6363-CAN(WATER TENDER)",
        "Vehicle_Name": "5035",
        "Branch": "Fire Station Canacona",
        "created": "30-11-2025 06:48:06",
        "lastUpdated": "30-11-2025 06:48:06"
      }
    },
    {
      "type": "Feature",
      "geometry": {
        "type": "LineString",
        "coordinates": [
          [
            74.1065183,
            14.99271
          ]
        ]
      },
      "properties": {
        "Vehicle_No": "GA 07 G 1567-CAN(QUICK RESPONSE FT)",
        "Vehicle_Name": "5035",
        "Branch": "Fire Station Canacona",
        "created": "30-11-2025 06:48:23",
        "lastUpdated": "30-11-2025 06:48:23"
      }
    },
    {
      "type": "Feature",
      "geometry": {
        "type": "LineString",
        "coordinates": [
          [
            74.1065349,
            14.9926516
          ]
        ]
      },
      "properties": {
        "Vehicle_No": "GA 07 G 1569-VRN(QUICK RESPONSE)",
        "Vehicle_Name": "5035",
        "Branch": "Fire Station Verna",
        "created": "30-11-2025 06:48:45",
        "lastUpdated": "30-11-2025 06:48:45"
      }
    },
    {
      "type": "Feature",
      "geometry": {
        "type": "LineString",
        "coordinates": [
          [
            73.87172,
            15.38162
          ]
        ]
      },
      "properties": {
        "Vehicle_No": "GA 07 G 9909-VRN(ADVANCE MULTI-PURPOSE)",
        "Vehicle_Name": "5035",
        "Branch": "Fire Station Verna",
        "created": "30-11-2025 06:49:10",
        "lastUpdated": "30-11-2025 06:49:10"
      }
    },
    {
      "type": "Feature",
      "geometry": {
        "type": "LineString",
        "coordinates": [
          [
            73.9135816,
            15.504405
          ]
        ]
      },
      "properties": {
        "Vehicle_No": "GA 07 G 1942-VAP(QUICK RESPONSE)",
        "Vehicle_Name": "5035",
        "Branch": "Fire Station Valpoi",
        "created": "30-11-2025 06:48:18",
        "lastUpdated": "30-11-2025 06:48:18"
      }
    },
    {
      "type": "Feature",
      "geometry": {
        "type": "LineString",
        "coordinates": [
          [
            74.103695,
            15.2603
          ]
        ]
      },
      "properties": {
        "Vehicle_No": "GA 07 G 2003-CUR(QUICK RESPONSE)",
        "Vehicle_Name": "5035",
        "Branch": "Fire Station Curchorem",
        "created": "30-11-2025 06:48:19",
        "lastUpdated": "30-11-2025 06:48:19"
      }
    },
    {
      "type": "Feature",
      "geometry": {
        "type": "LineString",
        "coordinates": [
          [
            74.1037516,
            15.260435
          ]
        ]
      },
      "properties": {
        "Vehicle_No": "GA 07 G 7447-CUR(EMERGENCY RESCUE)",
        "Vehicle_Name": "5035",
        "Branch": "Fire Station Curchorem",
        "created": "30-11-2025 06:48:51",
        "lastUpdated": "30-11-2025 06:48:51"
      }
    },
    {
      "type": "Feature",
      "geometry": {
        "type": "LineString",
        "coordinates": [
          [
            74.1037683,
            15.260415
          ]
        ]
      },
      "properties": {
        "Vehicle_No": "GA 07 G 7557-CUR(WATER TENDER)",
        "Vehicle_Name": "5035",
        "Branch": "Fire Station Curchorem",
        "created": "30-11-2025 06:48:39",
        "lastUpdated": "30-11-2025 06:48:39"
      }
    },
    {
      "type": "Feature",
      "geometry": {
        "type": "LineString",
        "coordinates": [
          [
            74.1038416,
            15.2603416
          ]
        ]
      },
      "properties": {
        "Vehicle_No": "GA 07 G 7667-CUR(WATER BOUSER)",
        "Vehicle_Name": "5035",
        "Branch": "Fire Station Curchorem",
        "created": "30-11-2025 06:48:55",
        "lastUpdated": "30-11-2025 06:48:55"
      }
    },
    {
      "type": "Feature",
      "geometry": {
        "type": "LineString",
        "coordinates": [
          [
            73.972445,
            15.46317
          ]
        ]
      },
      "properties": {
        "Vehicle_No": "GA 07 G 4989-KUN(WATER TENDER)",
        "Vehicle_Name": "G-100",
        "Branch": "Fire Station Kundaim",
        "created": "30-11-2025 06:48:25",
        "lastUpdated": "30-11-2025 06:48:25"
      }
    },
    {
      "type": "Feature",
      "geometry": {
        "type": "LineString",
        "coordinates": [
          [
            73.7941856,
            15.5328522
          ]
        ]
      },
      "properties": {
        "Vehicle_No": "GA 07 G 2242-PIL(WATER TENDER)",
        "Vehicle_Name": "5026",
        "Branch": "Fire Station Pilerne",
        "created": "30-11-2025 06:47:45",
        "lastUpdated": "30-11-2025 06:47:45"
      }
    },
    {
      "type": "Feature",
      "geometry": {
        "type": "LineString",
        "coordinates": [
          [
            73.8088133,
            15.5902317
          ]
        ]
      },
      "properties": {
        "Vehicle_No": "GA 07 G 0681-MAP(QUICK RESPONSE)",
        "Vehicle_Name": "AT 5036A-4G",
        "Branch": "Fire Station Mapusa",
        "created": "30-11-2025 06:49:06",
        "lastUpdated": "30-11-2025 06:49:06"
      }
    },
    {
      "type": "Feature",
      "geometry": {
        "type": "LineString",
        "coordinates": [
          [
            73.7974239,
            15.7164939
          ]
        ]
      },
      "properties": {
        "Vehicle_No": "GA 07 G 0307-PER(QUICK RESPONSE)",
        "Vehicle_Name": "AT5032-4G",
        "Branch": "Fire Station Pernem",
        "created": "23-10-2025 15:19:09",
        "lastUpdated": "23-10-2025 15:19:09"
      }
    },
    {
      "type": "Feature",
      "geometry": {
        "type": "LineString",
        "coordinates": [
          [
            73.7974511,
            15.7164806
          ]
        ]
      },
      "properties": {
        "Vehicle_No": "GA 07 G 2101-PER(MS WATER TENDER)",
        "Vehicle_Name": "AT5032-4G",
        "Branch": "Fire Station Pernem",
        "created": "30-11-2025 06:47:54",
        "lastUpdated": "30-11-2025 06:47:54"
      }
    },
    {
      "type": "Feature",
      "geometry": {
        "type": "LineString",
        "coordinates": [
          [
            73.7975078,
            15.7165133
          ]
        ]
      },
      "properties": {
        "Vehicle_No": "GA 07 G 4600-PER(MINI RESCUE TENDER)",
        "Vehicle_Name": "AT 5032-4G",
        "Branch": "Fire Station Pernem",
        "created": "30-11-2025 06:47:10",
        "lastUpdated": "30-11-2025 06:47:10"
      }
    },
    {
      "type": "Feature",
      "geometry": {
        "type": "LineString",
        "coordinates": [
          [
            73.8171683,
            15.4870111
          ]
        ]
      },
      "properties": {
        "Vehicle_No": "GA 07 G 7272-PNJ(WATER TENDER)",
        "Vehicle_Name": "AT-5032-4G",
        "Branch": "Fire Station Panaji",
        "created": "30-11-2025 06:49:04",
        "lastUpdated": "30-11-2025 06:49:04"
      }
    },
    {
      "type": "Feature",
      "geometry": {
        "type": "LineString",
        "coordinates": [
          [
            74.0210494,
            15.1863061
          ]
        ]
      },
      "properties": {
        "Vehicle_No": "GA07G2384- Cuncolim",
        "Vehicle_Name": "AT 5032-4G",
        "Branch": "Fire Station Cuncolim",
        "created": "30-11-2025 06:48:13",
        "lastUpdated": "30-11-2025 06:48:13"
      }
    },
    {
      "type": "Feature",
      "geometry": {
        "type": "LineString",
        "coordinates": [
          [
            73.8170733,
            15.4866083
          ]
        ]
      },
      "properties": {
        "Vehicle_No": "GA07G2507",
        "Vehicle_Name": "5035",
        "Branch": "Fire Force Headquarters",
        "created": "30-11-2025 06:48:13",
        "lastUpdated": "30-11-2025 06:48:13"
      }
    },
    {
      "type": "Feature",
      "geometry": {
        "type": "LineString",
        "coordinates": [
          [
            74.1064933,
            14.9928683
          ]
        ]
      },
      "properties": {
        "Vehicle_No": "GA07G2505 - Mid Size (Water Tender)",
        "Vehicle_Name": "5035",
        "Branch": "Fire Station Valpoi",
        "created": "30-11-2025 06:48:38",
        "lastUpdated": "30-11-2025 06:48:38"
      }
    },
    {
      "type": "Feature",
      "geometry": {
        "type": "LineString",
        "coordinates": [
          [
            73.9476483,
            15.591785
          ]
        ]
      },
      "properties": {
        "Vehicle_No": "GA07G2504 - Mid Size (Water Tender)",
        "Vehicle_Name": "5035",
        "Branch": "Fire Station Bicholim",
        "created": "30-11-2025 06:48:45",
        "lastUpdated": "30-11-2025 06:48:45"
      }
    },
    {
      "type": "Feature",
      "geometry": {
        "type": "LineString",
        "coordinates": [
          [
            73.8087883,
            15.5899767
          ]
        ]
      },
      "properties": {
        "Vehicle_No": "GA07G2503-Mid Size (Water Tender)",
        "Vehicle_Name": "5035",
        "Branch": "Fire Station Mapusa",
        "created": "30-11-2025 06:49:02",
        "lastUpdated": "30-11-2025 06:49:02"
      }
    },
    {
      "type": "Feature",
      "geometry": {
        "type": "LineString",
        "coordinates": [
          [
            73.8169917,
            15.4869167
          ]
        ]
      },
      "properties": {
        "Vehicle_No": "GA07G2502 - Mid Size (Water Tender)",
        "Vehicle_Name": "5035",
        "Branch": "Fire Force Headquarters",
        "created": "30-11-2025 06:49:11",
        "lastUpdated": "30-11-2025 06:49:11"
      }
    }
  ]
}