{
  "type": "FeatureCollection",
  "metadata": {
    "date": "20260127",
    "source": "Directorate of Fire Emergency Services, Govt. of Goa",
    "description": "Daily GPS tracks of fire trucks",
    "lastUpdated": "2026-01-27T02:22:44.033Z",
    "count": 51
  },
  "features": [
    {
      "type": "Feature",
      "geometry": {
        "type": "LineString",
        "coordinates": [
          [
            73.8169683,
            15.4865217
          ]
        ]
      },
      "properties": {
        "Vehicle_No": "GA 07 G 0680-PIL(QUICK RESPONSE VEHICLE)",
        "Vehicle_Name": "4G",
        "Branch": "Fire Station Pilerne",
        "created": "27-01-2026 05:30:29+05:30",
        "lastUpdated": "27-01-2026 05:30:29+05:30"
      }
    },
    {
      "type": "Feature",
      "geometry": {
        "type": "LineString",
        "coordinates": [
          [
            73.914055,
            15.50033
          ]
        ]
      },
      "properties": {
        "Vehicle_No": "GA07G2506 - OLG Mid Size (Water Tender)",
        "Vehicle_Name": "TS101",
        "Branch": "Fire Station Old Goa",
        "created": "27-01-2026 05:30:13+05:30",
        "lastUpdated": "27-01-2026 05:30:13+05:30"
      }
    },
    {
      "type": "Feature",
      "geometry": {
        "type": "LineString",
        "coordinates": [
          [
            73.829155,
            15.523093
          ],
          [
            73.82933,
            15.523162
          ]
        ]
      },
      "properties": {
        "Vehicle_No": "GA 07 G 5115-POR(MINI WATER TENDER)",
        "Vehicle_Name": "TS101",
        "Branch": "Fire Station Porvorim",
        "created": "27-01-2026 05:29:17+05:30",
        "lastUpdated": "27-01-2026 05:31:15+05:30"
      }
    },
    {
      "type": "Feature",
      "geometry": {
        "type": "LineString",
        "coordinates": [
          [
            73.94516,
            15.134905
          ],
          [
            73.945107,
            15.135102
          ],
          [
            73.946136,
            15.135523
          ]
        ]
      },
      "properties": {
        "Vehicle_No": "GA 07 G 0350-MRG(WATER TENDER)",
        "Vehicle_Name": "TS101",
        "Branch": "Fire Station Margao",
        "created": "27-01-2026 05:26:59+05:30",
        "lastUpdated": "27-01-2026 07:51:09+05:30"
      }
    },
    {
      "type": "Feature",
      "geometry": {
        "type": "LineString",
        "coordinates": [
          [
            73.808769,
            15.589968
          ]
        ]
      },
      "properties": {
        "Vehicle_No": "GA 07 G 2900-MAP(MINI RESCUE TENDER)",
        "Vehicle_Name": "TS101",
        "Branch": "Fire Station Mapusa",
        "created": "27-01-2026 05:30:24+05:30",
        "lastUpdated": "27-01-2026 05:30:24+05:30"
      }
    },
    {
      "type": "Feature",
      "geometry": {
        "type": "LineString",
        "coordinates": [
          [
            73.817184,
            15.487268
          ],
          [
            73.817268,
            15.487303
          ],
          [
            73.817345,
            15.48725
          ]
        ]
      },
      "properties": {
        "Vehicle_No": "GA 07 G 7600-FFHQ(WATER BOUSER)",
        "Vehicle_Name": "TS101",
        "Branch": "Fire Force Headquarters",
        "created": "27-01-2026 05:27:57+05:30",
        "lastUpdated": "27-01-2026 07:52:33+05:30"
      }
    },
    {
      "type": "Feature",
      "geometry": {
        "type": "LineString",
        "coordinates": [
          [
            73.817184,
            15.487308
          ],
          [
            73.817284,
            15.487437
          ],
          [
            73.817314,
            15.487345
          ],
          [
            73.817329,
            15.4874
          ],
          [
            73.814545,
            15.489375
          ],
          [
            73.819061,
            15.49613
          ],
          [
            73.824226,
            15.500928
          ],
          [
            73.834351,
            15.499702
          ],
          [
            73.835274,
            15.4994
          ],
          [
            73.828239,
            15.501135
          ],
          [
            73.820808,
            15.499652
          ],
          [
            73.817902,
            15.493048
          ],
          [
            73.816383,
            15.48798
          ],
          [
            73.817146,
            15.486885
          ],
          [
            73.817276,
            15.487317
          ]
        ]
      },
      "properties": {
        "Vehicle_No": "GA 07 G 2002-FFHQ(TURN TABLE LADDER)",
        "Vehicle_Name": "TS101",
        "Branch": "Fire Force Headquarters",
        "created": "27-01-2026 05:28:57+05:30",
        "lastUpdated": "27-01-2026 07:47:13+05:30"
      }
    },
    {
      "type": "Feature",
      "geometry": {
        "type": "LineString",
        "coordinates": [
          [
            73.816994,
            15.486895
          ]
        ]
      },
      "properties": {
        "Vehicle_No": "GA 07 G 7101-FFHQ(WATER TENDER)",
        "Vehicle_Name": "TS101",
        "Branch": "Fire Force Headquarters",
        "created": "27-01-2026 05:30:07+05:30",
        "lastUpdated": "27-01-2026 05:30:07+05:30"
      }
    },
    {
      "type": "Feature",
      "geometry": {
        "type": "LineString",
        "coordinates": [
          [
            73.817261,
            15.486953
          ]
        ]
      },
      "properties": {
        "Vehicle_No": "GA 07 G 7677-FFHQ(EMERGENCY RESCUE)",
        "Vehicle_Name": "TS101",
        "Branch": "Fire Force Headquarters",
        "created": "24-01-2026 15:04:10+05:30",
        "lastUpdated": "24-01-2026 15:04:10+05:30"
      }
    },
    {
      "type": "Feature",
      "geometry": {
        "type": "LineString",
        "coordinates": [
          [
            73.817101,
            15.487037
          ],
          [
            73.817268,
            15.487348
          ],
          [
            73.817177,
            15.487275
          ],
          [
            73.817757,
            15.486858
          ],
          [
            73.817307,
            15.4864
          ],
          [
            73.817314,
            15.486403
          ],
          [
            73.817322,
            15.486398
          ],
          [
            73.817345,
            15.486392
          ],
          [
            73.817108,
            15.486495
          ],
          [
            73.817192,
            15.486898
          ],
          [
            73.817101,
            15.486945
          ],
          [
            73.817169,
            15.487087
          ]
        ]
      },
      "properties": {
        "Vehicle_No": "GA 07 G 1121-PNJ(EMERGENCY RESCUE)",
        "Vehicle_Name": "TS101",
        "Branch": "Fire Station Panaji",
        "created": "27-01-2026 05:26:48+05:30",
        "lastUpdated": "27-01-2026 07:18:27+05:30"
      }
    },
    {
      "type": "Feature",
      "geometry": {
        "type": "LineString",
        "coordinates": [
          [
            73.816917,
            15.486622
          ],
          [
            73.81723,
            15.486415
          ],
          [
            73.817085,
            15.486915
          ],
          [
            73.817085,
            15.48693
          ],
          [
            73.817085,
            15.486918
          ],
          [
            73.817078,
            15.486902
          ],
          [
            73.817108,
            15.486847
          ],
          [
            73.817101,
            15.486818
          ],
          [
            73.817101,
            15.486825
          ],
          [
            73.817108,
            15.486795
          ],
          [
            73.817116,
            15.486795
          ],
          [
            73.817131,
            15.486795
          ],
          [
            73.817139,
            15.486788
          ],
          [
            73.817329,
            15.486403
          ],
          [
            73.81723,
            15.486417
          ]
        ]
      },
      "properties": {
        "Vehicle_No": "GA 07 G 1571-FFHQ(QUICK RESPONSE)",
        "Vehicle_Name": "TS101",
        "Branch": "Fire Force Headquarters",
        "created": "27-01-2026 05:30:25+05:30",
        "lastUpdated": "27-01-2026 07:38:17+05:30"
      }
    },
    {
      "type": "Feature",
      "geometry": {
        "type": "LineString",
        "coordinates": [
          [
            73.808731,
            15.589962
          ],
          [
            73.808586,
            15.589837
          ]
        ]
      },
      "properties": {
        "Vehicle_No": "GA 07 G 8101-MAP(WATER TENDER)",
        "Vehicle_Name": "TS101",
        "Branch": "Fire Station Mapusa",
        "created": "27-01-2026 05:27:43+05:30",
        "lastUpdated": "27-01-2026 05:31:48+05:30"
      }
    },
    {
      "type": "Feature",
      "geometry": {
        "type": "LineString",
        "coordinates": [
          [
            73.9701816,
            15.2694199
          ],
          [
            73.9700933,
            15.269415
          ],
          [
            73.970255,
            15.2693966
          ],
          [
            73.9703366,
            15.269325
          ],
          [
            73.97024,
            15.269355
          ],
          [
            73.9702883,
            15.269325
          ],
          [
            73.970345,
            15.2693383
          ],
          [
            73.9703616,
            15.2693783
          ],
          [
            73.9703133,
            15.2693466
          ],
          [
            73.9701166,
            15.2693116
          ],
          [
            73.9701733,
            15.2693833
          ],
          [
            73.9701666,
            15.2693783
          ],
          [
            73.970035,
            15.2694633
          ],
          [
            73.970085,
            15.2694133
          ],
          [
            73.9701583,
            15.2694333
          ],
          [
            73.97019,
            15.26937
          ],
          [
            73.9701333,
            15.2693933
          ],
          [
            73.969955,
            15.26934
          ],
          [
            73.9701083,
            15.269305
          ],
          [
            73.9698733,
            15.26936
          ],
          [
            73.9700933,
            15.2693833
          ],
          [
            73.9701666,
            15.2694349
          ],
          [
            73.96989,
            15.2694616
          ],
          [
            73.9703533,
            15.2690566
          ],
          [
            73.9702316,
            15.269325
          ],
          [
            73.970215,
            15.2693483
          ],
          [
            73.9701333,
            15.2692216
          ],
          [
            73.970125,
            15.2693433
          ],
          [
            73.9703366,
            15.2693616
          ],
          [
            73.97024,
            15.26945
          ],
          [
            73.9701666,
            15.2693749
          ],
          [
            73.9699783,
            15.2694199
          ],
          [
            73.96989,
            15.269355
          ],
          [
            73.970035,
            15.2692266
          ],
          [
            73.9698,
            15.2694416
          ],
          [
            73.9698816,
            15.26943
          ],
          [
            73.9701416,
            15.2692366
          ],
          [
            73.9701166,
            15.26938
          ],
          [
            73.9701816,
            15.269405
          ],
          [
            73.9699633,
            15.2694483
          ],
          [
            73.9700766,
            15.2693316
          ],
          [
            73.970035,
            15.2693016
          ],
          [
            73.969955,
            15.2694766
          ],
          [
            73.969955,
            15.2693683
          ],
          [
            73.9700033,
            15.26936
          ],
          [
            73.9701016,
            15.26932
          ],
          [
            73.9700933,
            15.2692
          ],
          [
            73.969865,
            15.2693766
          ],
          [
            73.9700283,
            15.26934
          ],
          [
            73.9700933,
            15.26923
          ],
          [
            73.970125,
            15.2692933
          ],
          [
            73.9701333,
            15.26926
          ],
          [
            73.9702066,
            15.2693316
          ],
          [
            73.970125,
            15.269245
          ],
          [
            73.970085,
            15.2693299
          ],
          [
            73.970255,
            15.2692466
          ],
          [
            73.97015,
            15.2693033
          ],
          [
            73.9702233,
            15.2692883
          ],
          [
            73.9700516,
            15.2694799
          ],
          [
            73.9691083,
            15.270435
          ],
          [
            73.9699783,
            15.2693833
          ],
          [
            73.970085,
            15.2693983
          ],
          [
            73.9699866,
            15.26936
          ],
          [
            73.9700516,
            15.269365
          ],
          [
            73.9698483,
            15.2693983
          ],
          [
            73.9700933,
            15.2693766
          ],
          [
            73.9699466,
            15.2694766
          ],
          [
            73.970125,
            15.2692316
          ],
          [
            73.970125,
            15.2694216
          ],
          [
            73.969955,
            15.2694233
          ],
          [
            73.9700433,
            15.2694383
          ],
          [
            73.9701733,
            15.26935
          ],
          [
            73.97019,
            15.2694416
          ],
          [
            73.9702466,
            15.2695666
          ],
          [
            73.9701816,
            15.26941
          ],
          [
            73.9701666,
            15.269295
          ],
          [
            73.97019,
            15.2692866
          ],
          [
            73.9700933,
            15.2692916
          ],
          [
            73.9701083,
            15.269355
          ],
          [
            73.9701016,
            15.2693583
          ],
          [
            73.9701333,
            15.2693733
          ],
          [
            73.9702233,
            15.2693983
          ],
          [
            73.9701016,
            15.2696066
          ],
          [
            73.9700033,
            15.26932
          ],
          [
            73.9698816,
            15.2693383
          ],
          [
            73.9699466,
            15.2695033
          ],
          [
            73.9698816,
            15.2693966
          ],
          [
            73.970085,
            15.2695033
          ],
          [
            73.97002,
            15.2693783
          ],
          [
            73.9700933,
            15.2693333
          ],
          [
            73.9701083,
            15.2692683
          ],
          [
            73.9699633,
            15.2695516
          ],
          [
            73.9702883,
            15.2695833
          ],
          [
            73.9700116,
            15.2694566
          ],
          [
            73.97015,
            15.2695616
          ],
          [
            73.9702316,
            15.2695533
          ],
          [
            73.9700433,
            15.269475
          ],
          [
            73.9700933,
            15.269445
          ],
          [
            73.9702066,
            15.2693466
          ],
          [
            73.970035,
            15.269385
          ],
          [
            73.9699633,
            15.2693883
          ],
          [
            73.9699783,
            15.2693383
          ]
        ]
      },
      "properties": {
        "Vehicle_No": "GA 07 G 2317-MRG(EMERGENCY RESCUE TENDER)",
        "Vehicle_Name": "5035",
        "Branch": "Fire Station Margao",
        "created": "27-01-2026 05:29:58+05:30",
        "lastUpdated": "27-01-2026 07:52:42+05:30"
      }
    },
    {
      "type": "Feature",
      "geometry": {
        "type": "LineString",
        "coordinates": [
          [
            73.8169683,
            15.4865033
          ],
          [
            73.8169766,
            15.4865016
          ],
          [
            73.817,
            15.4864733
          ]
        ]
      },
      "properties": {
        "Vehicle_No": "GA 07 G 1570-VAS(QUICK RESPONSE FIRE TENDER)",
        "Vehicle_Name": "5035",
        "Branch": "Fire Station Vasco",
        "created": "27-01-2026 05:29:56+05:30",
        "lastUpdated": "27-01-2026 07:00:12+05:30"
      }
    },
    {
      "type": "Feature",
      "geometry": {
        "type": "LineString",
        "coordinates": [
          [
            73.8513516,
            15.3888833
          ]
        ]
      },
      "properties": {
        "Vehicle_No": "GA 07 G 4101-VAS(MS WATER TENDER)",
        "Vehicle_Name": "5035",
        "Branch": "Fire Station Vasco",
        "created": "27-01-2026 05:30:06+05:30",
        "lastUpdated": "27-01-2026 05:30:06+05:30"
      }
    },
    {
      "type": "Feature",
      "geometry": {
        "type": "LineString",
        "coordinates": [
          [
            73.8512933,
            15.3886317
          ]
        ]
      },
      "properties": {
        "Vehicle_No": "GA 07 G 0819-VAS(WATER/FOAM TENDER)",
        "Vehicle_Name": "4G",
        "Branch": "Fire Station Vasco",
        "created": "27-01-2026 05:30:17+05:30",
        "lastUpdated": "27-01-2026 05:30:17+05:30"
      }
    },
    {
      "type": "Feature",
      "geometry": {
        "type": "LineString",
        "coordinates": [
          [
            73.945085,
            15.1350666
          ],
          [
            73.9480883,
            15.138265
          ],
          [
            73.9480066,
            15.1381233
          ]
        ]
      },
      "properties": {
        "Vehicle_No": "GA 07 G 7100-MRG(WATER BOUSER)",
        "Vehicle_Name": "5035",
        "Branch": "Fire Station Margao",
        "created": "27-01-2026 05:29:56+05:30",
        "lastUpdated": "27-01-2026 07:50:18+05:30"
      }
    },
    {
      "type": "Feature",
      "geometry": {
        "type": "LineString",
        "coordinates": [
          [
            73.97006,
            15.2693433
          ]
        ]
      },
      "properties": {
        "Vehicle_No": "GA 07 G 1568-MRG(QUICK RESPONSE )",
        "Vehicle_Name": "5035",
        "Branch": "Fire Station Margao",
        "created": "27-01-2026 05:29:47+05:30",
        "lastUpdated": "27-01-2026 05:29:47+05:30"
      }
    },
    {
      "type": "Feature",
      "geometry": {
        "type": "LineString",
        "coordinates": [
          [
            73.9702466,
            15.2693016
          ]
        ]
      },
      "properties": {
        "Vehicle_No": "GA 07 G 6101-MRG(WATER TENDER)",
        "Vehicle_Name": "5035",
        "Branch": "Fire Station Margao",
        "created": "27-01-2026 05:30:32+05:30",
        "lastUpdated": "27-01-2026 05:30:32+05:30"
      }
    },
    {
      "type": "Feature",
      "geometry": {
        "type": "LineString",
        "coordinates": [
          [
            73.969905,
            15.2695333
          ]
        ]
      },
      "properties": {
        "Vehicle_No": "GA 07 G 1001-MRG(AERIAL LADDER PLATFORM)",
        "Vehicle_Name": "5035",
        "Branch": "Fire Station Margao",
        "created": "23-01-2026 11:19:51+05:30",
        "lastUpdated": "23-01-2026 11:19:51+05:30"
      }
    },
    {
      "type": "Feature",
      "geometry": {
        "type": "LineString",
        "coordinates": [
          [
            74.0027672,
            15.4027733
          ]
        ]
      },
      "properties": {
        "Vehicle_No": "GA 07 G 0820-BIC(WATER TEDNER)",
        "Vehicle_Name": "5026",
        "Branch": "Fire Station Bicholim",
        "created": "27-01-2026 05:27:25+05:30",
        "lastUpdated": "27-01-2026 05:27:25+05:30"
      }
    },
    {
      "type": "Feature",
      "geometry": {
        "type": "LineString",
        "coordinates": [
          [
            73.9140466,
            15.50025
          ]
        ]
      },
      "properties": {
        "Vehicle_No": "GA 07 G 5101-OLG(MS WATER TENDER)",
        "Vehicle_Name": "5035",
        "Branch": "Fire Station Old Goa",
        "created": "27-01-2026 05:30:11+05:30",
        "lastUpdated": "27-01-2026 05:30:11+05:30"
      }
    },
    {
      "type": "Feature",
      "geometry": {
        "type": "LineString",
        "coordinates": [
          [
            73.9463866,
            15.58907
          ],
          [
            73.946785,
            15.5893866
          ],
          [
            73.9464683,
            15.5893916
          ],
          [
            73.94672,
            15.5891016
          ],
          [
            73.9468016,
            15.589305
          ],
          [
            73.9468183,
            15.5893833
          ],
          [
            73.94681,
            15.5892616
          ],
          [
            73.9467933,
            15.5892616
          ],
          [
            73.94694,
            15.5896583
          ],
          [
            73.94703,
            15.5896083
          ],
          [
            73.9468016,
            15.5893816
          ],
          [
            73.9464599,
            15.588935
          ],
          [
            73.9464683,
            15.58892
          ],
          [
            73.9462966,
            15.58894
          ],
          [
            73.9463383,
            15.588945
          ],
          [
            73.9464599,
            15.5891483
          ],
          [
            73.9464599,
            15.58916
          ],
          [
            73.9465,
            15.5888566
          ],
          [
            73.946435,
            15.58878
          ],
          [
            73.9464683,
            15.5887016
          ],
          [
            73.9464766,
            15.588695
          ],
          [
            73.9466883,
            15.5894383
          ],
          [
            73.946525,
            15.5893416
          ],
          [
            73.9465499,
            15.5893866
          ],
          [
            73.94659,
            15.5893333
          ],
          [
            73.9467033,
            15.589355
          ],
          [
            73.9467033,
            15.5893633
          ],
          [
            73.9466883,
            15.5895166
          ],
          [
            73.9467533,
            15.5895683
          ],
          [
            73.94668,
            15.5895066
          ],
          [
            73.9467283,
            15.5895016
          ],
          [
            73.9468583,
            15.5895833
          ],
          [
            73.94755,
            15.588575
          ],
          [
            73.95057,
            15.5880916
          ],
          [
            73.9557299,
            15.5859666
          ],
          [
            73.9640699,
            15.583045
          ],
          [
            73.9696783,
            15.5811
          ],
          [
            73.97111,
            15.5800183
          ],
          [
            73.9793299,
            15.57701
          ],
          [
            73.9799316,
            15.5307233
          ],
          [
            73.981665,
            15.53259
          ],
          [
            73.9822833,
            15.5342183
          ],
          [
            73.9835366,
            15.5375533
          ],
          [
            73.9840583,
            15.53857
          ],
          [
            73.9837483,
            15.5381333
          ],
          [
            73.9835766,
            15.537525
          ],
          [
            73.9835616,
            15.5374883
          ],
          [
            73.9835533,
            15.5374983
          ],
          [
            73.983545,
            15.5374783
          ],
          [
            73.9835283,
            15.5374816
          ],
          [
            73.983545,
            15.5374899
          ],
          [
            73.9835366,
            15.5375116
          ],
          [
            73.9835533,
            15.53752
          ],
          [
            73.9835533,
            15.5372116
          ],
          [
            73.9810383,
            15.531755
          ],
          [
            73.9848066,
            15.5320166
          ],
          [
            73.9865966,
            15.5387233
          ],
          [
            73.98894,
            15.5472983
          ],
          [
            73.9927483,
            15.5508733
          ],
          [
            73.9984449,
            15.5562066
          ],
          [
            74.0008299,
            15.562045
          ],
          [
            74.006055,
            15.56144
          ],
          [
            74.006705,
            15.5639083
          ],
          [
            74.0022133,
            15.5671833
          ],
          [
            73.9987633,
            15.571775
          ],
          [
            73.99423,
            15.5747033
          ],
          [
            73.994165,
            15.57465
          ],
          [
            73.994255,
            15.57467
          ],
          [
            73.994255,
            15.57468
          ]
        ]
      },
      "properties": {
        "Vehicle_No": "GA 07 G 3101-BIC(MS WATER TENDER)",
        "Vehicle_Name": "5035",
        "Branch": "Fire Station Bicholim",
        "created": "27-01-2026 05:30:03+05:30",
        "lastUpdated": "27-01-2026 07:52:37+05:30"
      }
    },
    {
      "type": "Feature",
      "geometry": {
        "type": "LineString",
        "coordinates": [
          [
            73.94668,
            15.5894366
          ]
        ]
      },
      "properties": {
        "Vehicle_No": "GA 07 G 1941-BIC(QUICK RESPONSE)",
        "Vehicle_Name": "5035",
        "Branch": "Fire Station Bicholim",
        "created": "27-01-2026 05:29:51+05:30",
        "lastUpdated": "27-01-2026 05:29:51+05:30"
      }
    },
    {
      "type": "Feature",
      "geometry": {
        "type": "LineString",
        "coordinates": [
          [
            73.8512783,
            15.388815
          ]
        ]
      },
      "properties": {
        "Vehicle_No": "GA 07 G 2319-VAS (EMERGENCY RESCUE TENDER)",
        "Vehicle_Name": "5035",
        "Branch": "Fire Station Vasco",
        "created": "27-01-2026 05:30:35+05:30",
        "lastUpdated": "27-01-2026 05:30:35+05:30"
      }
    },
    {
      "type": "Feature",
      "geometry": {
        "type": "LineString",
        "coordinates": [
          [
            74.1385666,
            15.5309766
          ],
          [
            74.1386316,
            15.5309116
          ],
          [
            74.1386316,
            15.53091
          ],
          [
            74.13864,
            15.5309166
          ],
          [
            74.1386316,
            15.530915
          ],
          [
            74.1386233,
            15.5309166
          ],
          [
            74.138615,
            15.530915
          ],
          [
            74.138615,
            15.53092
          ],
          [
            74.1386066,
            15.5309283
          ]
        ]
      },
      "properties": {
        "Vehicle_No": "GA 07 G 3737-VAP(WATER TENDER)",
        "Vehicle_Name": "5035",
        "Branch": "Fire Station Valpoi",
        "created": "27-01-2026 05:29:18+05:30",
        "lastUpdated": "27-01-2026 07:00:11+05:30"
      }
    },
    {
      "type": "Feature",
      "geometry": {
        "type": "LineString",
        "coordinates": [
          [
            74.0028733,
            15.4029016
          ]
        ]
      },
      "properties": {
        "Vehicle_No": "GA 07 G 2318-PND(EMERGENCY RESCUE TENDER)",
        "Vehicle_Name": "5035",
        "Branch": "Fire Station Ponda",
        "created": "27-01-2026 05:30:34+05:30",
        "lastUpdated": "27-01-2026 05:30:34+05:30"
      }
    },
    {
      "type": "Feature",
      "geometry": {
        "type": "LineString",
        "coordinates": [
          [
            74.0028816,
            15.4027316
          ]
        ]
      },
      "properties": {
        "Vehicle_No": "GA 07 G 2004-PND(QUICK RESPONSE)",
        "Vehicle_Name": "5035",
        "Branch": "Fire Station Ponda",
        "created": "27-01-2026 05:30:25+05:30",
        "lastUpdated": "27-01-2026 05:30:25+05:30"
      }
    },
    {
      "type": "Feature",
      "geometry": {
        "type": "LineString",
        "coordinates": [
          [
            74.0028883,
            15.40272
          ]
        ]
      },
      "properties": {
        "Vehicle_No": "GA 07 G 9101-PND(WATER TENDER)",
        "Vehicle_Name": "5035",
        "Branch": "Fire Station Ponda",
        "created": "27-01-2026 05:30:32+05:30",
        "lastUpdated": "27-01-2026 05:30:32+05:30"
      }
    },
    {
      "type": "Feature",
      "geometry": {
        "type": "LineString",
        "coordinates": [
          [
            73.948315,
            15.139015
          ]
        ]
      },
      "properties": {
        "Vehicle_No": "GA 07 G 9797-PND(WATER BOUSER)",
        "Vehicle_Name": "5035",
        "Branch": "Fire Station Ponda",
        "created": "27-01-2026 05:30:01+05:30",
        "lastUpdated": "27-01-2026 05:30:01+05:30"
      }
    },
    {
      "type": "Feature",
      "geometry": {
        "type": "LineString",
        "coordinates": [
          [
            74.0439616,
            15.0236483
          ]
        ]
      },
      "properties": {
        "Vehicle_No": "GA 07 G 6363-CAN(WATER TENDER)",
        "Vehicle_Name": "5035",
        "Branch": "Fire Station Canacona",
        "created": "27-01-2026 05:30:31+05:30",
        "lastUpdated": "27-01-2026 05:30:31+05:30"
      }
    },
    {
      "type": "Feature",
      "geometry": {
        "type": "LineString",
        "coordinates": [
          [
            73.9455566,
            15.135095
          ],
          [
            73.9451333,
            15.1352249
          ],
          [
            73.945255,
            15.13511
          ]
        ]
      },
      "properties": {
        "Vehicle_No": "GA 07 G 1567-CAN(QUICK RESPONSE FT)",
        "Vehicle_Name": "5035",
        "Branch": "Fire Station Canacona",
        "created": "27-01-2026 05:29:50+05:30",
        "lastUpdated": "27-01-2026 06:32:04+05:30"
      }
    },
    {
      "type": "Feature",
      "geometry": {
        "type": "LineString",
        "coordinates": [
          [
            73.9452066,
            15.1349549
          ]
        ]
      },
      "properties": {
        "Vehicle_No": "GA 07 G 1569-VRN(QUICK RESPONSE)",
        "Vehicle_Name": "5035",
        "Branch": "Fire Station Verna",
        "created": "27-01-2026 05:30:17+05:30",
        "lastUpdated": "27-01-2026 05:30:17+05:30"
      }
    },
    {
      "type": "Feature",
      "geometry": {
        "type": "LineString",
        "coordinates": [
          [
            73.9357183,
            15.3696533
          ],
          [
            73.9362716,
            15.3696316
          ],
          [
            73.9372066,
            15.3698083
          ]
        ]
      },
      "properties": {
        "Vehicle_No": "GA 07 G 9909-VRN(ADVANCE MULTI-PURPOSE)",
        "Vehicle_Name": "5035",
        "Branch": "Fire Station Verna",
        "created": "27-01-2026 05:29:23+05:30",
        "lastUpdated": "27-01-2026 07:45:51+05:30"
      }
    },
    {
      "type": "Feature",
      "geometry": {
        "type": "LineString",
        "coordinates": [
          [
            74.138835,
            15.5311649
          ]
        ]
      },
      "properties": {
        "Vehicle_No": "GA 07 G 1942-VAP(QUICK RESPONSE)",
        "Vehicle_Name": "5035",
        "Branch": "Fire Station Valpoi",
        "created": "27-01-2026 05:29:54+05:30",
        "lastUpdated": "27-01-2026 05:29:54+05:30"
      }
    },
    {
      "type": "Feature",
      "geometry": {
        "type": "LineString",
        "coordinates": [
          [
            74.1037516,
            15.2601183
          ],
          [
            74.1037183,
            15.2603133
          ]
        ]
      },
      "properties": {
        "Vehicle_No": "GA 07 G 2003-CUR(QUICK RESPONSE)",
        "Vehicle_Name": "5035",
        "Branch": "Fire Station Curchorem",
        "created": "27-01-2026 05:29:16+05:30",
        "lastUpdated": "27-01-2026 05:32:16+05:30"
      }
    },
    {
      "type": "Feature",
      "geometry": {
        "type": "LineString",
        "coordinates": [
          [
            74.1038416,
            15.2604016
          ]
        ]
      },
      "properties": {
        "Vehicle_No": "GA 07 G 7447-CUR(EMERGENCY RESCUE)",
        "Vehicle_Name": "5035",
        "Branch": "Fire Station Curchorem",
        "created": "27-01-2026 05:29:56+05:30",
        "lastUpdated": "27-01-2026 05:29:56+05:30"
      }
    },
    {
      "type": "Feature",
      "geometry": {
        "type": "LineString",
        "coordinates": [
          [
            74.1037033,
            15.260395
          ]
        ]
      },
      "properties": {
        "Vehicle_No": "GA 07 G 7557-CUR(WATER TENDER)",
        "Vehicle_Name": "5035",
        "Branch": "Fire Station Curchorem",
        "created": "27-01-2026 05:29:35+05:30",
        "lastUpdated": "27-01-2026 05:29:35+05:30"
      }
    },
    {
      "type": "Feature",
      "geometry": {
        "type": "LineString",
        "coordinates": [
          [
            74.1038333,
            15.2603433
          ]
        ]
      },
      "properties": {
        "Vehicle_No": "GA 07 G 7667-CUR(WATER BOUSER)",
        "Vehicle_Name": "5035",
        "Branch": "Fire Station Curchorem",
        "created": "27-01-2026 05:29:07+05:30",
        "lastUpdated": "27-01-2026 05:29:07+05:30"
      }
    },
    {
      "type": "Feature",
      "geometry": {
        "type": "LineString",
        "coordinates": [
          [
            73.9725833,
            15.4631117
          ],
          [
            73.9726233,
            15.462485
          ],
          [
            73.97115,
            15.4651717
          ],
          [
            73.97216,
            15.462545
          ],
          [
            73.972615,
            15.4628033
          ],
          [
            73.9713783,
            15.4635033
          ],
          [
            73.9713383,
            15.463655
          ],
          [
            73.972445,
            15.4631233
          ],
          [
            73.9728517,
            15.4629033
          ],
          [
            73.972835,
            15.4628667
          ],
          [
            73.9723467,
            15.46316
          ],
          [
            73.97264,
            15.4636717
          ],
          [
            73.972615,
            15.46396
          ],
          [
            73.9725917,
            15.4631017
          ],
          [
            73.9723883,
            15.4629483
          ],
          [
            73.9724767,
            15.4630367
          ]
        ]
      },
      "properties": {
        "Vehicle_No": "GA 07 G 4989-KUN(WATER TENDER)",
        "Vehicle_Name": "G-100",
        "Branch": "Fire Station Kundaim",
        "created": "27-01-2026 05:29:40+05:30",
        "lastUpdated": "27-01-2026 07:39:15+05:30"
      }
    },
    {
      "type": "Feature",
      "geometry": {
        "type": "LineString",
        "coordinates": [
          [
            73.7940383,
            15.5329889
          ]
        ]
      },
      "properties": {
        "Vehicle_No": "GA 07 G 2242-PIL(WATER TENDER)",
        "Vehicle_Name": "5026",
        "Branch": "Fire Station Pilerne",
        "created": "27-01-2026 05:29:52+05:30",
        "lastUpdated": "27-01-2026 05:29:52+05:30"
      }
    },
    {
      "type": "Feature",
      "geometry": {
        "type": "LineString",
        "coordinates": [
          [
            73.80857,
            15.5899033
          ]
        ]
      },
      "properties": {
        "Vehicle_No": "GA 07 G 0681-MAP(QUICK RESPONSE)",
        "Vehicle_Name": "AT 5036A-4G",
        "Branch": "Fire Station Mapusa",
        "created": "27-01-2026 05:30:28+05:30",
        "lastUpdated": "27-01-2026 05:30:28+05:30"
      }
    },
    {
      "type": "Feature",
      "geometry": {
        "type": "LineString",
        "coordinates": [
          [
            73.79756,
            15.7164589
          ]
        ]
      },
      "properties": {
        "Vehicle_No": "GA 07 G 2101-PER(MS WATER TENDER)",
        "Vehicle_Name": "AT5032-4G",
        "Branch": "Fire Station Pernem",
        "created": "27-01-2026 05:27:52+05:30",
        "lastUpdated": "27-01-2026 05:27:52+05:30"
      }
    },
    {
      "type": "Feature",
      "geometry": {
        "type": "LineString",
        "coordinates": [
          [
            73.7976144,
            15.7164817
          ],
          [
            73.7975422,
            15.7165433
          ],
          [
            73.7975478,
            15.7165378
          ],
          [
            73.7975539,
            15.7165289
          ]
        ]
      },
      "properties": {
        "Vehicle_No": "GA 07 G 4600-PER(MINI RESCUE TENDER)",
        "Vehicle_Name": "AT 5032-4G",
        "Branch": "Fire Station Pernem",
        "created": "27-01-2026 05:29:33+05:30",
        "lastUpdated": "27-01-2026 07:52:42+05:30"
      }
    },
    {
      "type": "Feature",
      "geometry": {
        "type": "LineString",
        "coordinates": [
          [
            73.8172383,
            15.4870917
          ],
          [
            73.8174256,
            15.4875967
          ],
          [
            73.8173572,
            15.4875044
          ],
          [
            73.8172794,
            15.4864417
          ],
          [
            73.8173256,
            15.4863356
          ],
          [
            73.8171239,
            15.486725
          ],
          [
            73.8172467,
            15.4870761
          ]
        ]
      },
      "properties": {
        "Vehicle_No": "GA 07 G 7272-PNJ(WATER TENDER)",
        "Vehicle_Name": "AT-5032-4G",
        "Branch": "Fire Station Panaji",
        "created": "27-01-2026 05:30:24+05:30",
        "lastUpdated": "27-01-2026 06:35:35+05:30"
      }
    },
    {
      "type": "Feature",
      "geometry": {
        "type": "LineString",
        "coordinates": [
          [
            74.0210122,
            15.1862533
          ]
        ]
      },
      "properties": {
        "Vehicle_No": "GA07G2384- Cuncolim",
        "Vehicle_Name": "AT 5032-4G",
        "Branch": "Fire Station Cuncolim",
        "created": "27-01-2026 05:27:59+05:30",
        "lastUpdated": "27-01-2026 05:27:59+05:30"
      }
    },
    {
      "type": "Feature",
      "geometry": {
        "type": "LineString",
        "coordinates": [
          [
            73.7976317,
            15.7163683
          ]
        ]
      },
      "properties": {
        "Vehicle_No": "GA07G2507 - PER Mid Size (Water Tender)",
        "Vehicle_Name": "5035",
        "Branch": "Fire Station Pernem",
        "created": "27-01-2026 05:30:31+05:30",
        "lastUpdated": "27-01-2026 05:30:31+05:30"
      }
    },
    {
      "type": "Feature",
      "geometry": {
        "type": "LineString",
        "coordinates": [
          [
            73.945125,
            15.1350033
          ]
        ]
      },
      "properties": {
        "Vehicle_No": "GA07G2505 - VAP Mid Size (Water Tender)",
        "Vehicle_Name": "5035",
        "Branch": "Fire Station Valpoi",
        "created": "27-01-2026 05:29:42+05:30",
        "lastUpdated": "27-01-2026 05:29:42+05:30"
      }
    },
    {
      "type": "Feature",
      "geometry": {
        "type": "LineString",
        "coordinates": [
          [
            73.946745,
            15.58941
          ]
        ]
      },
      "properties": {
        "Vehicle_No": "GA07G2504 - BIC Mid Size (Water Tender)",
        "Vehicle_Name": "5035",
        "Branch": "Fire Station Bicholim",
        "created": "27-01-2026 05:30:29+05:30",
        "lastUpdated": "27-01-2026 05:30:29+05:30"
      }
    },
    {
      "type": "Feature",
      "geometry": {
        "type": "LineString",
        "coordinates": [
          [
            73.8087483,
            15.5899233
          ]
        ]
      },
      "properties": {
        "Vehicle_No": "GA07G2503- MAP Mid Size (Water Tender)",
        "Vehicle_Name": "5035",
        "Branch": "Fire Station Mapusa",
        "created": "27-01-2026 05:29:36+05:30",
        "lastUpdated": "27-01-2026 05:29:36+05:30"
      }
    },
    {
      "type": "Feature",
      "geometry": {
        "type": "LineString",
        "coordinates": [
          [
            73.8170733,
            15.48714
          ],
          [
            73.8170567,
            15.48717
          ]
        ]
      },
      "properties": {
        "Vehicle_No": "GA07G2502 - FFHQ Mid Size (Water Tender)",
        "Vehicle_Name": "5035",
        "Branch": "Fire Force Headquarters",
        "created": "27-01-2026 05:30:35+05:30",
        "lastUpdated": "27-01-2026 07:16:44+05:30"
      }
    }
  ]
}