{
  "type": "FeatureCollection",
  "metadata": {
    "date": "20260102",
    "source": "Directorate of Fire Emergency Services, Govt. of Goa",
    "description": "Daily GPS tracks of fire trucks",
    "lastUpdated": "2026-01-02T01:49:47.224Z",
    "count": 52
  },
  "features": [
    {
      "type": "Feature",
      "geometry": {
        "type": "LineString",
        "coordinates": [
          [
            73.7940667,
            15.53318
          ]
        ]
      },
      "properties": {
        "Vehicle_No": "GA 07 G 0680-PIL(QUICK RESPONSE VEHICLE)",
        "Vehicle_Name": "4G",
        "Branch": "Fire Station Pilerne",
        "created": "02-01-2026 05:30:39+05:30",
        "lastUpdated": "02-01-2026 05:30:39+05:30"
      }
    },
    {
      "type": "Feature",
      "geometry": {
        "type": "LineString",
        "coordinates": [
          [
            73.914055,
            15.50038
          ]
        ]
      },
      "properties": {
        "Vehicle_No": "GA07G2506 - Mid Size (Water Tender)",
        "Vehicle_Name": "TS101",
        "Branch": "Fire Station Old Goa",
        "created": "02-01-2026 05:30:18+05:30",
        "lastUpdated": "02-01-2026 05:30:18+05:30"
      }
    },
    {
      "type": "Feature",
      "geometry": {
        "type": "LineString",
        "coordinates": [
          [
            73.82933,
            15.522987
          ]
        ]
      },
      "properties": {
        "Vehicle_No": "GA 07 G 5115-POR(MINI WATER TENDER)",
        "Vehicle_Name": "TS101",
        "Branch": "Fire Station Porvorim",
        "created": "02-01-2026 05:30:23+05:30",
        "lastUpdated": "02-01-2026 05:30:23+05:30"
      }
    },
    {
      "type": "Feature",
      "geometry": {
        "type": "LineString",
        "coordinates": [
          [
            73.970596,
            15.269432
          ]
        ]
      },
      "properties": {
        "Vehicle_No": "GA 07 G 0350-MRG(WATER TENDER)",
        "Vehicle_Name": "TS101",
        "Branch": "Fire Station Margao",
        "created": "02-01-2026 05:30:30+05:30",
        "lastUpdated": "02-01-2026 05:30:30+05:30"
      }
    },
    {
      "type": "Feature",
      "geometry": {
        "type": "LineString",
        "coordinates": [
          [
            73.808853,
            15.589933
          ],
          [
            73.808815,
            15.58981
          ]
        ]
      },
      "properties": {
        "Vehicle_No": "GA 07 G 2900-MAP(MINI RESCUE TENDER)",
        "Vehicle_Name": "TS101",
        "Branch": "Fire Station Mapusa",
        "created": "02-01-2026 05:28:21+05:30",
        "lastUpdated": "02-01-2026 05:32:27+05:30"
      }
    },
    {
      "type": "Feature",
      "geometry": {
        "type": "LineString",
        "coordinates": [
          [
            73.817215,
            15.487573
          ],
          [
            73.817215,
            15.487178
          ],
          [
            73.81723,
            15.487325
          ],
          [
            73.817253,
            15.487392
          ],
          [
            73.817261,
            15.48735
          ],
          [
            73.817261,
            15.487372
          ],
          [
            73.817261,
            15.4874
          ],
          [
            73.817245,
            15.487403
          ],
          [
            73.817238,
            15.487338
          ],
          [
            73.817238,
            15.48734
          ],
          [
            73.817268,
            15.487368
          ],
          [
            73.817268,
            15.487388
          ],
          [
            73.817253,
            15.487338
          ],
          [
            73.817261,
            15.487327
          ],
          [
            73.817245,
            15.487347
          ],
          [
            73.817276,
            15.487397
          ],
          [
            73.817245,
            15.487358
          ],
          [
            73.81723,
            15.487347
          ]
        ]
      },
      "properties": {
        "Vehicle_No": "GA 07 G 7600-FFHQ(WATER BOUSER)",
        "Vehicle_Name": "TS101",
        "Branch": "Fire Force Headquarters",
        "created": "02-01-2026 05:29:36+05:30",
        "lastUpdated": "02-01-2026 07:17:19+05:30"
      }
    },
    {
      "type": "Feature",
      "geometry": {
        "type": "LineString",
        "coordinates": [
          [
            73.817253,
            15.487383
          ],
          [
            73.817268,
            15.487367
          ],
          [
            73.817276,
            15.487423
          ],
          [
            73.817284,
            15.487407
          ],
          [
            73.817146,
            15.487445
          ],
          [
            73.814316,
            15.489083
          ],
          [
            73.810188,
            15.484452
          ],
          [
            73.808937,
            15.482035
          ],
          [
            73.80851,
            15.474607
          ],
          [
            73.805984,
            15.465035
          ],
          [
            73.803635,
            15.457853
          ],
          [
            73.803543,
            15.458902
          ],
          [
            73.806511,
            15.466182
          ],
          [
            73.808151,
            15.472282
          ],
          [
            73.808479,
            15.480115
          ],
          [
            73.810471,
            15.484915
          ],
          [
            73.814606,
            15.489503
          ],
          [
            73.81781,
            15.48676
          ],
          [
            73.817146,
            15.486812
          ],
          [
            73.817291,
            15.48636
          ],
          [
            73.817307,
            15.486358
          ],
          [
            73.817314,
            15.486357
          ],
          [
            73.817329,
            15.486348
          ],
          [
            73.817352,
            15.486348
          ],
          [
            73.817162,
            15.486913
          ],
          [
            73.817032,
            15.487123
          ],
          [
            73.817055,
            15.487155
          ]
        ]
      },
      "properties": {
        "Vehicle_No": "GA 07 G 2002-FFHQ(TURN TABLE LADDER)",
        "Vehicle_Name": "TS101",
        "Branch": "Fire Force Headquarters",
        "created": "02-01-2026 05:29:37+05:30",
        "lastUpdated": "02-01-2026 07:19:08+05:30"
      }
    },
    {
      "type": "Feature",
      "geometry": {
        "type": "LineString",
        "coordinates": [
          [
            73.816986,
            15.486857
          ],
          [
            73.817017,
            15.486852
          ]
        ]
      },
      "properties": {
        "Vehicle_No": "GA 07 G 7101-FFHQ(WATER TENDER)",
        "Vehicle_Name": "TS101",
        "Branch": "Fire Force Headquarters",
        "created": "02-01-2026 05:29:17+05:30",
        "lastUpdated": "02-01-2026 05:33:22+05:30"
      }
    },
    {
      "type": "Feature",
      "geometry": {
        "type": "LineString",
        "coordinates": [
          [
            73.816933,
            15.487142
          ],
          [
            73.817101,
            15.487032
          ],
          [
            73.81736,
            15.486823
          ]
        ]
      },
      "properties": {
        "Vehicle_No": "GA 07 G 7677-FFHQ(EMERGENCY RESCUE)",
        "Vehicle_Name": "TS101",
        "Branch": "Fire Force Headquarters",
        "created": "02-01-2026 05:29:16+05:30",
        "lastUpdated": "02-01-2026 05:43:18+05:30"
      }
    },
    {
      "type": "Feature",
      "geometry": {
        "type": "LineString",
        "coordinates": [
          [
            73.817268,
            15.48716
          ],
          [
            73.817245,
            15.487195
          ]
        ]
      },
      "properties": {
        "Vehicle_No": "GA 07 G 1121-PNJ(EMERGENCY RESCUE)",
        "Vehicle_Name": "TS101",
        "Branch": "Fire Station Panaji",
        "created": "02-01-2026 05:29:12+05:30",
        "lastUpdated": "02-01-2026 05:33:19+05:30"
      }
    },
    {
      "type": "Feature",
      "geometry": {
        "type": "LineString",
        "coordinates": [
          [
            73.817215,
            15.48647
          ],
          [
            73.817459,
            15.486637
          ]
        ]
      },
      "properties": {
        "Vehicle_No": "GA 07 G 1571-FFHQ(QUICK RESPONSE)",
        "Vehicle_Name": "TS101",
        "Branch": "Fire Force Headquarters",
        "created": "02-01-2026 05:28:40+05:30",
        "lastUpdated": "02-01-2026 05:32:46+05:30"
      }
    },
    {
      "type": "Feature",
      "geometry": {
        "type": "LineString",
        "coordinates": [
          [
            73.808556,
            15.589825
          ]
        ]
      },
      "properties": {
        "Vehicle_No": "GA 07 G 8101-MAP(WATER TENDER)",
        "Vehicle_Name": "TS101",
        "Branch": "Fire Station Mapusa",
        "created": "02-01-2026 05:30:17+05:30",
        "lastUpdated": "02-01-2026 05:30:17+05:30"
      }
    },
    {
      "type": "Feature",
      "geometry": {
        "type": "LineString",
        "coordinates": [
          [
            73.9699466,
            15.2694233
          ],
          [
            73.9701333,
            15.2693033
          ],
          [
            73.9701166,
            15.269365
          ],
          [
            73.9701816,
            15.2693616
          ],
          [
            73.9703283,
            15.2693483
          ],
          [
            73.9701016,
            15.26941
          ],
          [
            73.969955,
            15.269425
          ],
          [
            73.9699466,
            15.2694666
          ],
          [
            73.9701333,
            15.26935
          ],
          [
            73.9702233,
            15.2694216
          ],
          [
            73.97002,
            15.2690616
          ],
          [
            73.96997,
            15.2693216
          ],
          [
            73.9702716,
            15.2693233
          ],
          [
            73.9701983,
            15.269395
          ],
          [
            73.9701083,
            15.269505
          ],
          [
            73.9701333,
            15.26935
          ],
          [
            73.97002,
            15.2693783
          ],
          [
            73.9698733,
            15.2694783
          ],
          [
            73.9700433,
            15.26941
          ],
          [
            73.9700766,
            15.2694483
          ],
          [
            73.970035,
            15.2693516
          ],
          [
            73.97015,
            15.2694133
          ],
          [
            73.9707683,
            15.27006
          ],
          [
            73.9702233,
            15.2694966
          ],
          [
            73.9701166,
            15.269475
          ],
          [
            73.97015,
            15.2693966
          ],
          [
            73.9700433,
            15.2691466
          ],
          [
            73.9700033,
            15.2693483
          ],
          [
            73.9701666,
            15.2694116
          ],
          [
            73.9701016,
            15.269395
          ],
          [
            73.97015,
            15.2694333
          ],
          [
            73.969995,
            15.2695699
          ],
          [
            73.9700433,
            15.269385
          ],
          [
            73.9701666,
            15.2695833
          ],
          [
            73.9701333,
            15.269415
          ],
          [
            73.970215,
            15.2696366
          ],
          [
            73.9700283,
            15.2697466
          ],
          [
            73.9701016,
            15.2694199
          ],
          [
            73.9703366,
            15.269145
          ],
          [
            73.9701983,
            15.2693483
          ],
          [
            73.9701983,
            15.2693983
          ],
          [
            73.970085,
            15.2693783
          ],
          [
            73.970085,
            15.2693833
          ],
          [
            73.9700283,
            15.2693433
          ],
          [
            73.9701733,
            15.26936
          ],
          [
            73.9706383,
            15.26934
          ],
          [
            73.9701983,
            15.269395
          ],
          [
            73.970125,
            15.2692849
          ],
          [
            73.9701333,
            15.2693216
          ],
          [
            73.9702966,
            15.2693733
          ],
          [
            73.97019,
            15.2693833
          ],
          [
            73.970125,
            15.2694216
          ],
          [
            73.97019,
            15.2694166
          ],
          [
            73.9699383,
            15.269405
          ],
          [
            73.9704099,
            15.2693933
          ],
          [
            73.9703533,
            15.2693566
          ],
          [
            73.97006,
            15.26949
          ],
          [
            73.9701816,
            15.2692966
          ],
          [
            73.9701666,
            15.2693933
          ],
          [
            73.9701666,
            15.2693483
          ],
          [
            73.9702233,
            15.2693616
          ],
          [
            73.9702466,
            15.2693466
          ],
          [
            73.9701083,
            15.2693766
          ],
          [
            73.9701733,
            15.269355
          ],
          [
            73.9700033,
            15.2692283
          ],
          [
            73.9702233,
            15.26936
          ],
          [
            73.9702316,
            15.269305
          ],
          [
            73.9701016,
            15.2692683
          ],
          [
            73.9701333,
            15.2693566
          ],
          [
            73.9702066,
            15.2694066
          ],
          [
            73.97028,
            15.2693883
          ],
          [
            73.9702883,
            15.2693766
          ],
          [
            73.9704016,
            15.2693566
          ],
          [
            73.9701816,
            15.2694066
          ],
          [
            73.970435,
            15.2692233
          ],
          [
            73.9701733,
            15.2693733
          ],
          [
            73.970305,
            15.2694199
          ],
          [
            73.97028,
            15.26944
          ],
          [
            73.970035,
            15.2694883
          ],
          [
            73.9697266,
            15.269275
          ],
          [
            73.9701166,
            15.2694416
          ],
          [
            73.9700766,
            15.2693483
          ],
          [
            73.96993,
            15.2693983
          ],
          [
            73.969995,
            15.2694266
          ],
          [
            73.9700116,
            15.2694033
          ],
          [
            73.970215,
            15.26941
          ],
          [
            73.97037,
            15.269425
          ],
          [
            73.9701016,
            15.2694483
          ],
          [
            73.9701666,
            15.269395
          ],
          [
            73.9700516,
            15.2693916
          ],
          [
            73.97054,
            15.26919
          ],
          [
            73.9702716,
            15.2693983
          ],
          [
            73.9701333,
            15.2694133
          ]
        ]
      },
      "properties": {
        "Vehicle_No": "GA 07 G 2317-MRG(EMERGENCY RESCUE TENDER)",
        "Vehicle_Name": "5035",
        "Branch": "Fire Station Margao",
        "created": "02-01-2026 05:30:28+05:30",
        "lastUpdated": "02-01-2026 07:19:41+05:30"
      }
    },
    {
      "type": "Feature",
      "geometry": {
        "type": "LineString",
        "coordinates": [
          [
            73.8513183,
            15.388785
          ],
          [
            73.85131,
            15.38877
          ]
        ]
      },
      "properties": {
        "Vehicle_No": "GA 07 G 1570-VAS(QUICK RESPONSE FIRE TENDER)",
        "Vehicle_Name": "5035",
        "Branch": "Fire Station Vasco",
        "created": "02-01-2026 05:30:29+05:30",
        "lastUpdated": "02-01-2026 05:54:38+05:30"
      }
    },
    {
      "type": "Feature",
      "geometry": {
        "type": "LineString",
        "coordinates": [
          [
            73.8512616,
            15.3888266
          ]
        ]
      },
      "properties": {
        "Vehicle_No": "GA 07 G 4101-VAS(MS WATER TENDER)",
        "Vehicle_Name": "5035",
        "Branch": "Fire Station Vasco",
        "created": "02-01-2026 05:29:56+05:30",
        "lastUpdated": "02-01-2026 05:29:56+05:30"
      }
    },
    {
      "type": "Feature",
      "geometry": {
        "type": "LineString",
        "coordinates": [
          [
            73.85127,
            15.388835
          ]
        ]
      },
      "properties": {
        "Vehicle_No": "GA 07 G 0819-VAS(WATER/FOAM TENDER)",
        "Vehicle_Name": "4G",
        "Branch": "Fire Station Vasco",
        "created": "02-01-2026 05:30:35+05:30",
        "lastUpdated": "02-01-2026 05:30:35+05:30"
      }
    },
    {
      "type": "Feature",
      "geometry": {
        "type": "LineString",
        "coordinates": [
          [
            73.9700116,
            15.26978
          ]
        ]
      },
      "properties": {
        "Vehicle_No": "GA 07 G 7100-MRG(WATER BOUSER)",
        "Vehicle_Name": "5035",
        "Branch": "Fire Station Margao",
        "created": "02-01-2026 05:30:43+05:30",
        "lastUpdated": "02-01-2026 05:30:43+05:30"
      }
    },
    {
      "type": "Feature",
      "geometry": {
        "type": "LineString",
        "coordinates": [
          [
            73.9705966,
            15.2693333
          ]
        ]
      },
      "properties": {
        "Vehicle_No": "GA 07 G 1568-MRG(QUICK RESPONSE )",
        "Vehicle_Name": "5035",
        "Branch": "Fire Station Margao",
        "created": "02-01-2026 05:30:14+05:30",
        "lastUpdated": "02-01-2026 05:30:14+05:30"
      }
    },
    {
      "type": "Feature",
      "geometry": {
        "type": "LineString",
        "coordinates": [
          [
            73.97015,
            15.2693683
          ],
          [
            73.9701733,
            15.26946
          ],
          [
            73.97019,
            15.269415
          ],
          [
            73.9699133,
            15.269395
          ],
          [
            73.969905,
            15.2693466
          ],
          [
            73.9700283,
            15.2693299
          ],
          [
            73.970125,
            15.2693483
          ],
          [
            73.9700683,
            15.2693333
          ],
          [
            73.9701666,
            15.2694383
          ],
          [
            73.9701583,
            15.2694333
          ],
          [
            73.9701816,
            15.2694616
          ],
          [
            73.9701416,
            15.269425
          ],
          [
            73.970035,
            15.2693416
          ],
          [
            73.9700933,
            15.2693466
          ],
          [
            73.9701083,
            15.2693733
          ],
          [
            73.970125,
            15.2693933
          ],
          [
            73.97015,
            15.2694383
          ],
          [
            73.9701816,
            15.2694199
          ],
          [
            73.9701733,
            15.2694383
          ],
          [
            73.9699783,
            15.2695066
          ],
          [
            73.970085,
            15.2694533
          ],
          [
            73.9702066,
            15.2693983
          ],
          [
            73.9701983,
            15.269395
          ]
        ]
      },
      "properties": {
        "Vehicle_No": "GA 07 G 6101-MRG(WATER TENDER)",
        "Vehicle_Name": "5035",
        "Branch": "Fire Station Margao",
        "created": "02-01-2026 05:30:49+05:30",
        "lastUpdated": "02-01-2026 07:08:15+05:30"
      }
    },
    {
      "type": "Feature",
      "geometry": {
        "type": "LineString",
        "coordinates": [
          [
            73.97002,
            15.2694683
          ]
        ]
      },
      "properties": {
        "Vehicle_No": "GA 07 G 1001-MRG(AERIAL LADDER PLATFORM)",
        "Vehicle_Name": "5035",
        "Branch": "Fire Station Margao",
        "created": "02-01-2026 05:30:31+05:30",
        "lastUpdated": "02-01-2026 05:30:31+05:30"
      }
    },
    {
      "type": "Feature",
      "geometry": {
        "type": "LineString",
        "coordinates": [
          [
            74.0027722,
            15.4028306
          ]
        ]
      },
      "properties": {
        "Vehicle_No": "GA 07 G 0820-BIC(WATER TEDNER)",
        "Vehicle_Name": "5026",
        "Branch": "Fire Station Bicholim",
        "created": "02-01-2026 05:29:54+05:30",
        "lastUpdated": "02-01-2026 05:29:54+05:30"
      }
    },
    {
      "type": "Feature",
      "geometry": {
        "type": "LineString",
        "coordinates": [
          [
            73.91407,
            15.5003166
          ]
        ]
      },
      "properties": {
        "Vehicle_No": "GA 07 G 5101-OLG(MS WATER TENDER)",
        "Vehicle_Name": "5035",
        "Branch": "Fire Station Old Goa",
        "created": "02-01-2026 05:29:29+05:30",
        "lastUpdated": "02-01-2026 05:29:29+05:30"
      }
    },
    {
      "type": "Feature",
      "geometry": {
        "type": "LineString",
        "coordinates": [
          [
            73.9464433,
            15.58927
          ],
          [
            73.946395,
            15.5891216
          ],
          [
            73.9464933,
            15.58916
          ],
          [
            73.9465333,
            15.5892366
          ],
          [
            73.9459883,
            15.5890966
          ],
          [
            73.9463383,
            15.5892783
          ],
          [
            73.94642,
            15.5891949
          ],
          [
            73.9463616,
            15.58927
          ],
          [
            73.9465816,
            15.5895633
          ],
          [
            73.9465983,
            15.5894416
          ],
          [
            73.9465733,
            15.5894916
          ],
          [
            73.9465083,
            15.58934
          ],
          [
            73.9465166,
            15.5892316
          ],
          [
            73.9466466,
            15.5892916
          ],
          [
            73.9467933,
            15.5893866
          ],
          [
            73.946485,
            15.5887083
          ],
          [
            73.9464599,
            15.5887166
          ],
          [
            73.9466633,
            15.5891416
          ],
          [
            73.9468016,
            15.5893616
          ],
          [
            73.9467933,
            15.5893283
          ],
          [
            73.9466233,
            15.58931
          ]
        ]
      },
      "properties": {
        "Vehicle_No": "GA 07 G 3101-BIC(MS WATER TENDER)",
        "Vehicle_Name": "5035",
        "Branch": "Fire Station Bicholim",
        "created": "02-01-2026 05:30:25+05:30",
        "lastUpdated": "02-01-2026 07:19:27+05:30"
      }
    },
    {
      "type": "Feature",
      "geometry": {
        "type": "LineString",
        "coordinates": [
          [
            73.9466383,
            15.5893533
          ]
        ]
      },
      "properties": {
        "Vehicle_No": "GA 07 G 1941-BIC(QUICK RESPONSE)",
        "Vehicle_Name": "5035",
        "Branch": "Fire Station Bicholim",
        "created": "02-01-2026 05:29:58+05:30",
        "lastUpdated": "02-01-2026 05:29:58+05:30"
      }
    },
    {
      "type": "Feature",
      "geometry": {
        "type": "LineString",
        "coordinates": [
          [
            73.8512283,
            15.38884
          ]
        ]
      },
      "properties": {
        "Vehicle_No": "GA 07 G 2319-VAS (EMERGENCY RESCUE TENDER)",
        "Vehicle_Name": "5035",
        "Branch": "Fire Station Vasco",
        "created": "02-01-2026 05:30:23+05:30",
        "lastUpdated": "02-01-2026 05:30:23+05:30"
      }
    },
    {
      "type": "Feature",
      "geometry": {
        "type": "LineString",
        "coordinates": [
          [
            74.1386633,
            15.5309016
          ]
        ]
      },
      "properties": {
        "Vehicle_No": "GA 07 G 3737-VAP(WATER TENDER)",
        "Vehicle_Name": "5035",
        "Branch": "Fire Station Valpoi",
        "created": "02-01-2026 05:30:49+05:30",
        "lastUpdated": "02-01-2026 05:30:49+05:30"
      }
    },
    {
      "type": "Feature",
      "geometry": {
        "type": "LineString",
        "coordinates": [
          [
            74.0029783,
            15.4028416
          ]
        ]
      },
      "properties": {
        "Vehicle_No": "GA 07 G 2318-PND(EMERGENCY RESCUE TENDER)",
        "Vehicle_Name": "5035",
        "Branch": "Fire Station Ponda",
        "created": "02-01-2026 05:30:11+05:30",
        "lastUpdated": "02-01-2026 05:30:11+05:30"
      }
    },
    {
      "type": "Feature",
      "geometry": {
        "type": "LineString",
        "coordinates": [
          [
            73.9073083,
            15.4141016
          ]
        ]
      },
      "properties": {
        "Vehicle_No": "GA 07 G 2004-PND(QUICK RESPONSE)",
        "Vehicle_Name": "5035",
        "Branch": "Fire Station Ponda",
        "created": "30-12-2025 13:47:09+05:30",
        "lastUpdated": "30-12-2025 13:47:09+05:30"
      }
    },
    {
      "type": "Feature",
      "geometry": {
        "type": "LineString",
        "coordinates": [
          [
            74.0027433,
            15.40276
          ],
          [
            74.0032716,
            15.403005
          ]
        ]
      },
      "properties": {
        "Vehicle_No": "GA 07 G 9101-PND(WATER TENDER)",
        "Vehicle_Name": "5035",
        "Branch": "Fire Station Ponda",
        "created": "02-01-2026 05:30:11+05:30",
        "lastUpdated": "02-01-2026 05:38:19+05:30"
      }
    },
    {
      "type": "Feature",
      "geometry": {
        "type": "LineString",
        "coordinates": [
          [
            74.0027433,
            15.4031233
          ]
        ]
      },
      "properties": {
        "Vehicle_No": "GA 07 G 9797-PND(WATER BOUSER)",
        "Vehicle_Name": "5035",
        "Branch": "Fire Station Ponda",
        "created": "02-01-2026 05:30:14+05:30",
        "lastUpdated": "02-01-2026 05:30:14+05:30"
      }
    },
    {
      "type": "Feature",
      "geometry": {
        "type": "LineString",
        "coordinates": [
          [
            74.0440666,
            15.0235966
          ]
        ]
      },
      "properties": {
        "Vehicle_No": "GA 07 G 6363-CAN(WATER TENDER)",
        "Vehicle_Name": "5035",
        "Branch": "Fire Station Canacona",
        "created": "01-01-2026 23:45:45+05:30",
        "lastUpdated": "01-01-2026 23:45:45+05:30"
      }
    },
    {
      "type": "Feature",
      "geometry": {
        "type": "LineString",
        "coordinates": [
          [
            74.0400966,
            15.0178066
          ]
        ]
      },
      "properties": {
        "Vehicle_No": "GA 07 G 1567-CAN(QUICK RESPONSE FT)",
        "Vehicle_Name": "5035",
        "Branch": "Fire Station Canacona",
        "created": "31-12-2025 22:45:49+05:30",
        "lastUpdated": "31-12-2025 22:45:49+05:30"
      }
    },
    {
      "type": "Feature",
      "geometry": {
        "type": "LineString",
        "coordinates": [
          [
            73.9359783,
            15.3697933
          ],
          [
            73.93558,
            15.36965
          ]
        ]
      },
      "properties": {
        "Vehicle_No": "GA 07 G 1569-VRN(QUICK RESPONSE)",
        "Vehicle_Name": "5035",
        "Branch": "Fire Station Verna",
        "created": "02-01-2026 05:29:56+05:30",
        "lastUpdated": "02-01-2026 05:30:54+05:30"
      }
    },
    {
      "type": "Feature",
      "geometry": {
        "type": "LineString",
        "coordinates": [
          [
            73.9359216,
            15.3696416
          ],
          [
            73.9317633,
            15.3691116
          ]
        ]
      },
      "properties": {
        "Vehicle_No": "GA 07 G 9909-VRN(ADVANCE MULTI-PURPOSE)",
        "Vehicle_Name": "5035",
        "Branch": "Fire Station Verna",
        "created": "02-01-2026 05:30:15+05:30",
        "lastUpdated": "02-01-2026 05:46:04+05:30"
      }
    },
    {
      "type": "Feature",
      "geometry": {
        "type": "LineString",
        "coordinates": [
          [
            74.138785,
            15.5310833
          ]
        ]
      },
      "properties": {
        "Vehicle_No": "GA 07 G 1942-VAP(QUICK RESPONSE)",
        "Vehicle_Name": "5035",
        "Branch": "Fire Station Valpoi",
        "created": "02-01-2026 05:30:12+05:30",
        "lastUpdated": "02-01-2026 05:30:12+05:30"
      }
    },
    {
      "type": "Feature",
      "geometry": {
        "type": "LineString",
        "coordinates": [
          [
            74.1037516,
            15.2603066
          ]
        ]
      },
      "properties": {
        "Vehicle_No": "GA 07 G 2003-CUR(QUICK RESPONSE)",
        "Vehicle_Name": "5035",
        "Branch": "Fire Station Curchorem",
        "created": "02-01-2026 05:30:28+05:30",
        "lastUpdated": "02-01-2026 05:30:28+05:30"
      }
    },
    {
      "type": "Feature",
      "geometry": {
        "type": "LineString",
        "coordinates": [
          [
            74.1037916,
            15.2604266
          ]
        ]
      },
      "properties": {
        "Vehicle_No": "GA 07 G 7447-CUR(EMERGENCY RESCUE)",
        "Vehicle_Name": "5035",
        "Branch": "Fire Station Curchorem",
        "created": "02-01-2026 05:30:31+05:30",
        "lastUpdated": "02-01-2026 05:30:31+05:30"
      }
    },
    {
      "type": "Feature",
      "geometry": {
        "type": "LineString",
        "coordinates": [
          [
            74.1038083,
            15.2604416
          ]
        ]
      },
      "properties": {
        "Vehicle_No": "GA 07 G 7557-CUR(WATER TENDER)",
        "Vehicle_Name": "5035",
        "Branch": "Fire Station Curchorem",
        "created": "02-01-2026 05:30:30+05:30",
        "lastUpdated": "02-01-2026 05:30:30+05:30"
      }
    },
    {
      "type": "Feature",
      "geometry": {
        "type": "LineString",
        "coordinates": [
          [
            74.103825,
            15.26025
          ]
        ]
      },
      "properties": {
        "Vehicle_No": "GA 07 G 7667-CUR(WATER BOUSER)",
        "Vehicle_Name": "5035",
        "Branch": "Fire Station Curchorem",
        "created": "02-01-2026 05:30:12+05:30",
        "lastUpdated": "02-01-2026 05:30:12+05:30"
      }
    },
    {
      "type": "Feature",
      "geometry": {
        "type": "LineString",
        "coordinates": [
          [
            73.9724683,
            15.4630567
          ],
          [
            73.9728183,
            15.46322
          ],
          [
            73.9727867,
            15.4632683
          ],
          [
            73.9725417,
            15.463195
          ],
          [
            73.9716717,
            15.46317
          ],
          [
            73.97177,
            15.4624067
          ],
          [
            73.971655,
            15.462565
          ],
          [
            73.9718267,
            15.4622383
          ]
        ]
      },
      "properties": {
        "Vehicle_No": "GA 07 G 4989-KUN(WATER TENDER)",
        "Vehicle_Name": "G-100",
        "Branch": "Fire Station Kundaim",
        "created": "02-01-2026 05:29:55+05:30",
        "lastUpdated": "02-01-2026 07:19:03+05:30"
      }
    },
    {
      "type": "Feature",
      "geometry": {
        "type": "LineString",
        "coordinates": [
          [
            73.7940344,
            15.5328478
          ],
          [
            73.7941128,
            15.532825
          ],
          [
            73.7940872,
            15.5329289
          ],
          [
            73.7942861,
            15.5330844
          ]
        ]
      },
      "properties": {
        "Vehicle_No": "GA 07 G 2242-PIL(WATER TENDER)",
        "Vehicle_Name": "5026",
        "Branch": "Fire Station Pilerne",
        "created": "02-01-2026 05:29:10+05:30",
        "lastUpdated": "02-01-2026 07:18:37+05:30"
      }
    },
    {
      "type": "Feature",
      "geometry": {
        "type": "LineString",
        "coordinates": [
          [
            73.808715,
            15.58973
          ]
        ]
      },
      "properties": {
        "Vehicle_No": "GA 07 G 0681-MAP(QUICK RESPONSE)",
        "Vehicle_Name": "AT 5036A-4G",
        "Branch": "Fire Station Mapusa",
        "created": "02-01-2026 05:30:41+05:30",
        "lastUpdated": "02-01-2026 05:30:41+05:30"
      }
    },
    {
      "type": "Feature",
      "geometry": {
        "type": "LineString",
        "coordinates": [
          [
            73.7974239,
            15.7164939
          ]
        ]
      },
      "properties": {
        "Vehicle_No": "GA 07 G 0307-PER(QUICK RESPONSE)",
        "Vehicle_Name": "AT5032-4G",
        "Branch": "Fire Station Pernem",
        "created": "23-10-2025 15:19:09+05:30",
        "lastUpdated": "23-10-2025 15:19:09+05:30"
      }
    },
    {
      "type": "Feature",
      "geometry": {
        "type": "LineString",
        "coordinates": [
          [
            73.7974633,
            15.7163311
          ]
        ]
      },
      "properties": {
        "Vehicle_No": "GA 07 G 2101-PER(MS WATER TENDER)",
        "Vehicle_Name": "AT5032-4G",
        "Branch": "Fire Station Pernem",
        "created": "02-01-2026 05:28:21+05:30",
        "lastUpdated": "02-01-2026 05:28:21+05:30"
      }
    },
    {
      "type": "Feature",
      "geometry": {
        "type": "LineString",
        "coordinates": [
          [
            73.7975433,
            15.7164906
          ]
        ]
      },
      "properties": {
        "Vehicle_No": "GA 07 G 4600-PER(MINI RESCUE TENDER)",
        "Vehicle_Name": "AT 5032-4G",
        "Branch": "Fire Station Pernem",
        "created": "02-01-2026 05:28:38+05:30",
        "lastUpdated": "02-01-2026 05:28:38+05:30"
      }
    },
    {
      "type": "Feature",
      "geometry": {
        "type": "LineString",
        "coordinates": [
          [
            73.8171533,
            15.4868267
          ],
          [
            73.8177422,
            15.4873233
          ],
          [
            73.8172539,
            15.487195
          ]
        ]
      },
      "properties": {
        "Vehicle_No": "GA 07 G 7272-PNJ(WATER TENDER)",
        "Vehicle_Name": "AT-5032-4G",
        "Branch": "Fire Station Panaji",
        "created": "02-01-2026 05:25:40+05:30",
        "lastUpdated": "02-01-2026 06:56:39+05:30"
      }
    },
    {
      "type": "Feature",
      "geometry": {
        "type": "LineString",
        "coordinates": [
          [
            74.0209956,
            15.1861822
          ]
        ]
      },
      "properties": {
        "Vehicle_No": "GA07G2384- Cuncolim",
        "Vehicle_Name": "AT 5032-4G",
        "Branch": "Fire Station Cuncolim",
        "created": "02-01-2026 05:29:41+05:30",
        "lastUpdated": "02-01-2026 05:29:41+05:30"
      }
    },
    {
      "type": "Feature",
      "geometry": {
        "type": "LineString",
        "coordinates": [
          [
            73.7976233,
            15.7163833
          ]
        ]
      },
      "properties": {
        "Vehicle_No": "GA07G2507 - Mid Size (Water Tender)",
        "Vehicle_Name": "5035",
        "Branch": "Fire Station Pernem",
        "created": "02-01-2026 05:30:19+05:30",
        "lastUpdated": "02-01-2026 05:30:19+05:30"
      }
    },
    {
      "type": "Feature",
      "geometry": {
        "type": "LineString",
        "coordinates": [
          [
            74.1385583,
            15.53093
          ]
        ]
      },
      "properties": {
        "Vehicle_No": "GA07G2505 - Mid Size (Water Tender)",
        "Vehicle_Name": "5035",
        "Branch": "Fire Station Valpoi",
        "created": "02-01-2026 05:30:27+05:30",
        "lastUpdated": "02-01-2026 05:30:27+05:30"
      }
    },
    {
      "type": "Feature",
      "geometry": {
        "type": "LineString",
        "coordinates": [
          [
            73.9465583,
            15.589405
          ]
        ]
      },
      "properties": {
        "Vehicle_No": "GA07G2504 - Mid Size (Water Tender)",
        "Vehicle_Name": "5035",
        "Branch": "Fire Station Bicholim",
        "created": "02-01-2026 05:30:11+05:30",
        "lastUpdated": "02-01-2026 05:30:11+05:30"
      }
    },
    {
      "type": "Feature",
      "geometry": {
        "type": "LineString",
        "coordinates": [
          [
            73.8087483,
            15.58996
          ]
        ]
      },
      "properties": {
        "Vehicle_No": "GA07G2503-Mid Size (Water Tender)",
        "Vehicle_Name": "5035",
        "Branch": "Fire Station Mapusa",
        "created": "02-01-2026 05:30:27+05:30",
        "lastUpdated": "02-01-2026 05:30:27+05:30"
      }
    },
    {
      "type": "Feature",
      "geometry": {
        "type": "LineString",
        "coordinates": [
          [
            73.8172367,
            15.487055
          ],
          [
            73.81464,
            15.4893033
          ]
        ]
      },
      "properties": {
        "Vehicle_No": "GA07G2502 - Mid Size (Water Tender)",
        "Vehicle_Name": "5035",
        "Branch": "Fire Force Headquarters",
        "created": "02-01-2026 05:30:09+05:30",
        "lastUpdated": "02-01-2026 07:19:33+05:30"
      }
    }
  ]
}