{
  "type": "FeatureCollection",
  "metadata": {
    "date": "20260104",
    "source": "Directorate of Fire Emergency Services, Govt. of Goa",
    "description": "Daily GPS tracks of fire trucks",
    "lastUpdated": "2026-01-04T03:20:28.581Z",
    "count": 52
  },
  "features": [
    {
      "type": "Feature",
      "geometry": {
        "type": "LineString",
        "coordinates": [
          [
            73.7939533,
            15.532985
          ]
        ]
      },
      "properties": {
        "Vehicle_No": "GA 07 G 0680-PIL(QUICK RESPONSE VEHICLE)",
        "Vehicle_Name": "4G",
        "Branch": "Fire Station Pilerne",
        "created": "04-01-2026 05:30:07+05:30",
        "lastUpdated": "04-01-2026 05:30:07+05:30"
      }
    },
    {
      "type": "Feature",
      "geometry": {
        "type": "LineString",
        "coordinates": [
          [
            73.914154,
            15.500313
          ],
          [
            73.914055,
            15.500297
          ]
        ]
      },
      "properties": {
        "Vehicle_No": "GA07G2506 - Mid Size (Water Tender)",
        "Vehicle_Name": "TS101",
        "Branch": "Fire Station Old Goa",
        "created": "04-01-2026 05:27:41+05:30",
        "lastUpdated": "04-01-2026 05:31:45+05:30"
      }
    },
    {
      "type": "Feature",
      "geometry": {
        "type": "LineString",
        "coordinates": [
          [
            73.829475,
            15.523013
          ],
          [
            73.829407,
            15.522993
          ]
        ]
      },
      "properties": {
        "Vehicle_No": "GA 07 G 5115-POR(MINI WATER TENDER)",
        "Vehicle_Name": "TS101",
        "Branch": "Fire Station Porvorim",
        "created": "04-01-2026 05:28:45+05:30",
        "lastUpdated": "04-01-2026 05:30:45+05:30"
      }
    },
    {
      "type": "Feature",
      "geometry": {
        "type": "LineString",
        "coordinates": [
          [
            73.970535,
            15.269395
          ],
          [
            73.970535,
            15.269403
          ]
        ]
      },
      "properties": {
        "Vehicle_No": "GA 07 G 0350-MRG(WATER TENDER)",
        "Vehicle_Name": "TS101",
        "Branch": "Fire Station Margao",
        "created": "04-01-2026 05:29:51+05:30",
        "lastUpdated": "04-01-2026 05:31:50+05:30"
      }
    },
    {
      "type": "Feature",
      "geometry": {
        "type": "LineString",
        "coordinates": [
          [
            73.808792,
            15.589923
          ],
          [
            73.808853,
            15.589897
          ],
          [
            73.808784,
            15.590285
          ],
          [
            73.808769,
            15.590255
          ],
          [
            73.808769,
            15.590262
          ],
          [
            73.808846,
            15.589833
          ],
          [
            73.808846,
            15.589865
          ]
        ]
      },
      "properties": {
        "Vehicle_No": "GA 07 G 2900-MAP(MINI RESCUE TENDER)",
        "Vehicle_Name": "TS101",
        "Branch": "Fire Station Mapusa",
        "created": "04-01-2026 05:27:42+05:30",
        "lastUpdated": "04-01-2026 07:49:19+05:30"
      }
    },
    {
      "type": "Feature",
      "geometry": {
        "type": "LineString",
        "coordinates": [
          [
            73.817085,
            15.487193
          ],
          [
            73.817322,
            15.487243
          ],
          [
            73.817284,
            15.487313
          ],
          [
            73.817329,
            15.487323
          ],
          [
            73.816673,
            15.48768
          ],
          [
            73.815842,
            15.490867
          ],
          [
            73.819046,
            15.496277
          ],
          [
            73.821243,
            15.50021
          ],
          [
            73.822243,
            15.50054
          ],
          [
            73.834892,
            15.499583
          ],
          [
            73.838516,
            15.495493
          ],
          [
            73.836021,
            15.496925
          ],
          [
            73.834679,
            15.499508
          ],
          [
            73.827797,
            15.501168
          ],
          [
            73.825905,
            15.501095
          ],
          [
            73.819733,
            15.49845
          ],
          [
            73.817177,
            15.492225
          ],
          [
            73.81778,
            15.4869
          ],
          [
            73.817154,
            15.486757
          ],
          [
            73.817314,
            15.486365
          ],
          [
            73.817314,
            15.486305
          ],
          [
            73.817062,
            15.48665
          ],
          [
            73.8172,
            15.487243
          ],
          [
            73.817177,
            15.487217
          ],
          [
            73.817207,
            15.487235
          ],
          [
            73.81723,
            15.48725
          ]
        ]
      },
      "properties": {
        "Vehicle_No": "GA 07 G 7600-FFHQ(WATER BOUSER)",
        "Vehicle_Name": "TS101",
        "Branch": "Fire Force Headquarters",
        "created": "04-01-2026 05:29:23+05:30",
        "lastUpdated": "04-01-2026 07:28:32+05:30"
      }
    },
    {
      "type": "Feature",
      "geometry": {
        "type": "LineString",
        "coordinates": [
          [
            73.817276,
            15.487275
          ],
          [
            73.817284,
            15.487368
          ],
          [
            73.817261,
            15.487415
          ],
          [
            73.817261,
            15.487417
          ],
          [
            73.817276,
            15.487445
          ],
          [
            73.817261,
            15.487455
          ],
          [
            73.814507,
            15.489333
          ],
          [
            73.813278,
            15.487855
          ],
          [
            73.810242,
            15.484482
          ],
          [
            73.808655,
            15.480673
          ],
          [
            73.808594,
            15.474198
          ],
          [
            73.807541,
            15.469343
          ],
          [
            73.804871,
            15.463
          ],
          [
            73.803619,
            15.458428
          ],
          [
            73.804611,
            15.458137
          ],
          [
            73.808784,
            15.458938
          ],
          [
            73.813377,
            15.459253
          ],
          [
            73.820435,
            15.459295
          ],
          [
            73.827522,
            15.458272
          ],
          [
            73.832909,
            15.458417
          ],
          [
            73.838486,
            15.455992
          ],
          [
            73.843277,
            15.456035
          ],
          [
            73.845619,
            15.455428
          ],
          [
            73.848488,
            15.456435
          ],
          [
            73.851608,
            15.46023
          ],
          [
            73.855919,
            15.46453
          ],
          [
            73.855522,
            15.464588
          ],
          [
            73.854935,
            15.464588
          ],
          [
            73.847328,
            15.482845
          ],
          [
            73.845467,
            15.489097
          ],
          [
            73.839745,
            15.49414
          ],
          [
            73.838509,
            15.49779
          ],
          [
            73.831223,
            15.500392
          ],
          [
            73.827477,
            15.501157
          ],
          [
            73.826241,
            15.50111
          ],
          [
            73.819756,
            15.498505
          ],
          [
            73.817924,
            15.493043
          ],
          [
            73.814957,
            15.489123
          ],
          [
            73.81749,
            15.486643
          ],
          [
            73.817032,
            15.487137
          ]
        ]
      },
      "properties": {
        "Vehicle_No": "GA 07 G 2002-FFHQ(TURN TABLE LADDER)",
        "Vehicle_Name": "TS101",
        "Branch": "Fire Force Headquarters",
        "created": "04-01-2026 05:28:12+05:30",
        "lastUpdated": "04-01-2026 07:29:59+05:30"
      }
    },
    {
      "type": "Feature",
      "geometry": {
        "type": "LineString",
        "coordinates": [
          [
            73.817024,
            15.486918
          ],
          [
            73.817093,
            15.486952
          ],
          [
            73.816849,
            15.486957
          ],
          [
            73.817001,
            15.486947
          ],
          [
            73.816963,
            15.486922
          ],
          [
            73.817154,
            15.486342
          ],
          [
            73.817223,
            15.486815
          ],
          [
            73.816612,
            15.484853
          ],
          [
            73.81366,
            15.481847
          ],
          [
            73.812309,
            15.477637
          ],
          [
            73.816399,
            15.476725
          ],
          [
            73.820641,
            15.475998
          ],
          [
            73.820122,
            15.481258
          ],
          [
            73.820572,
            15.485357
          ],
          [
            73.818001,
            15.487032
          ],
          [
            73.817123,
            15.486333
          ],
          [
            73.817123,
            15.486332
          ],
          [
            73.817131,
            15.486328
          ],
          [
            73.817139,
            15.486332
          ],
          [
            73.817131,
            15.486345
          ],
          [
            73.817001,
            15.486993
          ],
          [
            73.817017,
            15.48686
          ]
        ]
      },
      "properties": {
        "Vehicle_No": "GA 07 G 7101-FFHQ(WATER TENDER)",
        "Vehicle_Name": "TS101",
        "Branch": "Fire Force Headquarters",
        "created": "04-01-2026 05:29:22+05:30",
        "lastUpdated": "04-01-2026 07:50:23+05:30"
      }
    },
    {
      "type": "Feature",
      "geometry": {
        "type": "LineString",
        "coordinates": [
          [
            73.817253,
            15.48698
          ],
          [
            73.817001,
            15.487027
          ],
          [
            73.816978,
            15.487077
          ],
          [
            73.816978,
            15.487107
          ],
          [
            73.816956,
            15.487118
          ],
          [
            73.817009,
            15.487128
          ],
          [
            73.816994,
            15.487133
          ],
          [
            73.817047,
            15.487025
          ],
          [
            73.817108,
            15.486907
          ],
          [
            73.817673,
            15.486797
          ],
          [
            73.813988,
            15.488768
          ],
          [
            73.809296,
            15.483283
          ],
          [
            73.814873,
            15.482885
          ],
          [
            73.817421,
            15.486447
          ],
          [
            73.817154,
            15.486762
          ],
          [
            73.817245,
            15.486367
          ],
          [
            73.817253,
            15.486315
          ],
          [
            73.816956,
            15.486442
          ],
          [
            73.817223,
            15.487062
          ]
        ]
      },
      "properties": {
        "Vehicle_No": "GA 07 G 7677-FFHQ(EMERGENCY RESCUE)",
        "Vehicle_Name": "TS101",
        "Branch": "Fire Force Headquarters",
        "created": "04-01-2026 05:29:36+05:30",
        "lastUpdated": "04-01-2026 06:57:24+05:30"
      }
    },
    {
      "type": "Feature",
      "geometry": {
        "type": "LineString",
        "coordinates": [
          [
            73.817154,
            15.487298
          ],
          [
            73.817307,
            15.487345
          ],
          [
            73.817207,
            15.487202
          ],
          [
            73.817184,
            15.487155
          ],
          [
            73.8172,
            15.487158
          ],
          [
            73.8172,
            15.487142
          ],
          [
            73.817223,
            15.487145
          ],
          [
            73.817223,
            15.487147
          ]
        ]
      },
      "properties": {
        "Vehicle_No": "GA 07 G 1121-PNJ(EMERGENCY RESCUE)",
        "Vehicle_Name": "TS101",
        "Branch": "Fire Station Panaji",
        "created": "04-01-2026 05:29:59+05:30",
        "lastUpdated": "04-01-2026 07:34:27+05:30"
      }
    },
    {
      "type": "Feature",
      "geometry": {
        "type": "LineString",
        "coordinates": [
          [
            73.817474,
            15.486577
          ],
          [
            73.817429,
            15.486558
          ],
          [
            73.817307,
            15.48637
          ],
          [
            73.817291,
            15.486348
          ],
          [
            73.817284,
            15.486348
          ],
          [
            73.817268,
            15.486323
          ],
          [
            73.817268,
            15.486338
          ],
          [
            73.817276,
            15.486337
          ],
          [
            73.817284,
            15.486345
          ],
          [
            73.817276,
            15.486335
          ],
          [
            73.817162,
            15.48637
          ],
          [
            73.817444,
            15.486717
          ],
          [
            73.817429,
            15.48681
          ],
          [
            73.817436,
            15.486707
          ],
          [
            73.817444,
            15.486758
          ],
          [
            73.817543,
            15.486418
          ],
          [
            73.817467,
            15.486832
          ]
        ]
      },
      "properties": {
        "Vehicle_No": "GA 07 G 1571-FFHQ(QUICK RESPONSE)",
        "Vehicle_Name": "TS101",
        "Branch": "Fire Force Headquarters",
        "created": "04-01-2026 05:28:56+05:30",
        "lastUpdated": "04-01-2026 08:50:09+05:30"
      }
    },
    {
      "type": "Feature",
      "geometry": {
        "type": "LineString",
        "coordinates": [
          [
            73.808739,
            15.58985
          ],
          [
            73.808701,
            15.5899
          ],
          [
            73.808556,
            15.589842
          ],
          [
            73.808533,
            15.589852
          ],
          [
            73.808548,
            15.589877
          ],
          [
            73.808449,
            15.589935
          ],
          [
            73.808449,
            15.58993
          ],
          [
            73.808495,
            15.589928
          ],
          [
            73.808563,
            15.589907
          ],
          [
            73.808548,
            15.589887
          ],
          [
            73.808586,
            15.589877
          ],
          [
            73.808586,
            15.589885
          ],
          [
            73.808601,
            15.589878
          ],
          [
            73.808578,
            15.589888
          ],
          [
            73.80854,
            15.589888
          ],
          [
            73.808556,
            15.58988
          ],
          [
            73.808548,
            15.589887
          ],
          [
            73.808548,
            15.589877
          ],
          [
            73.808533,
            15.589865
          ],
          [
            73.80851,
            15.58985
          ],
          [
            73.808533,
            15.589858
          ],
          [
            73.808517,
            15.589862
          ],
          [
            73.808548,
            15.589898
          ],
          [
            73.808777,
            15.590262
          ],
          [
            73.808792,
            15.590227
          ],
          [
            73.808792,
            15.590232
          ],
          [
            73.808807,
            15.590243
          ],
          [
            73.80883,
            15.590247
          ],
          [
            73.808846,
            15.589878
          ],
          [
            73.808807,
            15.589927
          ],
          [
            73.808815,
            15.589927
          ]
        ]
      },
      "properties": {
        "Vehicle_No": "GA 07 G 8101-MAP(WATER TENDER)",
        "Vehicle_Name": "TS101",
        "Branch": "Fire Station Mapusa",
        "created": "04-01-2026 05:27:40+05:30",
        "lastUpdated": "04-01-2026 08:12:25+05:30"
      }
    },
    {
      "type": "Feature",
      "geometry": {
        "type": "LineString",
        "coordinates": [
          [
            73.9700683,
            15.2694383
          ],
          [
            73.97006,
            15.2694866
          ],
          [
            73.9701166,
            15.2693766
          ],
          [
            73.969995,
            15.2694816
          ],
          [
            73.9701083,
            15.2694933
          ],
          [
            73.97002,
            15.269235
          ],
          [
            73.9701583,
            15.26932
          ],
          [
            73.97006,
            15.269425
          ],
          [
            73.9701016,
            15.2694116
          ],
          [
            73.970215,
            15.2692966
          ],
          [
            73.9701816,
            15.2693416
          ],
          [
            73.9703283,
            15.2694616
          ],
          [
            73.9702316,
            15.2693683
          ],
          [
            73.97006,
            15.2693983
          ],
          [
            73.9700933,
            15.2693983
          ],
          [
            73.9706949,
            15.2692416
          ],
          [
            73.9701166,
            15.2693866
          ],
          [
            73.9701166,
            15.2694066
          ],
          [
            73.9700433,
            15.2694199
          ],
          [
            73.9701083,
            15.2694116
          ],
          [
            73.9701666,
            15.2694066
          ],
          [
            73.9700516,
            15.269385
          ],
          [
            73.97037,
            15.2688149
          ],
          [
            73.9701666,
            15.26922
          ],
          [
            73.97015,
            15.2694516
          ],
          [
            73.9701333,
            15.2694033
          ],
          [
            73.9701083,
            15.2694816
          ],
          [
            73.9701733,
            15.2692999
          ],
          [
            73.9700766,
            15.269365
          ],
          [
            73.97019,
            15.26938
          ],
          [
            73.970125,
            15.2694133
          ],
          [
            73.97015,
            15.2692583
          ],
          [
            73.9701166,
            15.2693749
          ],
          [
            73.97019,
            15.2693683
          ],
          [
            73.9701333,
            15.2693516
          ],
          [
            73.9700766,
            15.2693516
          ],
          [
            73.9702316,
            15.2693966
          ],
          [
            73.9701083,
            15.2693749
          ],
          [
            73.9700933,
            15.2692933
          ],
          [
            73.970035,
            15.2692916
          ],
          [
            73.9703533,
            15.2691933
          ],
          [
            73.9701733,
            15.2692666
          ],
          [
            73.9703283,
            15.2693966
          ],
          [
            73.9700283,
            15.2692116
          ],
          [
            73.9701083,
            15.2693183
          ],
          [
            73.970085,
            15.269035
          ],
          [
            73.969995,
            15.26927
          ],
          [
            73.9700516,
            15.2694166
          ],
          [
            73.9699466,
            15.269415
          ],
          [
            73.9702883,
            15.2693666
          ],
          [
            73.9702633,
            15.2693616
          ],
          [
            73.9701816,
            15.2693833
          ],
          [
            73.9701166,
            15.269295
          ],
          [
            73.970125,
            15.269315
          ],
          [
            73.969995,
            15.2693766
          ],
          [
            73.9701583,
            15.2693933
          ],
          [
            73.9701416,
            15.2693466
          ],
          [
            73.970085,
            15.26946
          ],
          [
            73.97006,
            15.26938
          ],
          [
            73.97015,
            15.26938
          ],
          [
            73.9703283,
            15.2693666
          ],
          [
            73.9703533,
            15.2693766
          ],
          [
            73.9703533,
            15.2693966
          ],
          [
            73.9704516,
            15.269325
          ],
          [
            73.9704266,
            15.2693733
          ],
          [
            73.9701416,
            15.2694416
          ],
          [
            73.9701333,
            15.2694383
          ],
          [
            73.9702066,
            15.2694633
          ],
          [
            73.97006,
            15.2694716
          ],
          [
            73.9700683,
            15.2694266
          ],
          [
            73.97024,
            15.26938
          ],
          [
            73.970215,
            15.2695883
          ],
          [
            73.9701983,
            15.2694266
          ],
          [
            73.970435,
            15.2694566
          ],
          [
            73.97015,
            15.2694033
          ],
          [
            73.9700933,
            15.2693283
          ],
          [
            73.9700433,
            15.2693333
          ],
          [
            73.9699866,
            15.269305
          ],
          [
            73.9701983,
            15.2693749
          ],
          [
            73.9703783,
            15.2693066
          ],
          [
            73.9703366,
            15.269305
          ],
          [
            73.9701983,
            15.2693583
          ],
          [
            73.97015,
            15.2693299
          ],
          [
            73.9703933,
            15.26934
          ],
          [
            73.9703199,
            15.2693233
          ],
          [
            73.970125,
            15.269485
          ],
          [
            73.97006,
            15.2694333
          ],
          [
            73.9697583,
            15.269545
          ],
          [
            73.9700116,
            15.2693683
          ],
          [
            73.9700933,
            15.26937
          ],
          [
            73.970255,
            15.2692316
          ],
          [
            73.9702066,
            15.2692766
          ],
          [
            73.9700516,
            15.2692733
          ],
          [
            73.9701083,
            15.2693316
          ],
          [
            73.9699383,
            15.2694683
          ],
          [
            73.9700116,
            15.2693883
          ],
          [
            73.9699133,
            15.2693883
          ],
          [
            73.9698733,
            15.2694266
          ],
          [
            73.9700033,
            15.26934
          ],
          [
            73.9704099,
            15.2692766
          ],
          [
            73.9702966,
            15.26914
          ],
          [
            73.96997,
            15.2692999
          ],
          [
            73.9700683,
            15.2694583
          ],
          [
            73.9701016,
            15.2693016
          ],
          [
            73.9700033,
            15.26925
          ],
          [
            73.970085,
            15.2692849
          ],
          [
            73.9701416,
            15.269425
          ],
          [
            73.9698733,
            15.2692733
          ],
          [
            73.9701016,
            15.2693783
          ],
          [
            73.9700283,
            15.2693433
          ],
          [
            73.97006,
            15.26938
          ],
          [
            73.970035,
            15.2694066
          ],
          [
            73.9700683,
            15.26938
          ],
          [
            73.9703366,
            15.2692133
          ],
          [
            73.970215,
            15.2692966
          ],
          [
            73.9701016,
            15.26926
          ],
          [
            73.9700683,
            15.2692566
          ],
          [
            73.969955,
            15.2693616
          ],
          [
            73.9699866,
            15.2693933
          ],
          [
            73.9701733,
            15.269365
          ],
          [
            73.9701816,
            15.2693733
          ],
          [
            73.97015,
            15.26937
          ],
          [
            73.9699633,
            15.2694349
          ],
          [
            73.9699633,
            15.2694233
          ],
          [
            73.9700116,
            15.2694199
          ],
          [
            73.970035,
            15.2694033
          ],
          [
            73.9699633,
            15.2694966
          ],
          [
            73.9700683,
            15.26944
          ],
          [
            73.9699133,
            15.2694966
          ],
          [
            73.97019,
            15.2693316
          ],
          [
            73.9702066,
            15.2693966
          ],
          [
            73.9702066,
            15.2694766
          ],
          [
            73.97019,
            15.2694316
          ],
          [
            73.9701166,
            15.2694033
          ],
          [
            73.9702233,
            15.2694266
          ],
          [
            73.9701083,
            15.2694383
          ],
          [
            73.9701416,
            15.2694416
          ],
          [
            73.9701333,
            15.2694416
          ],
          [
            73.9700283,
            15.2695133
          ],
          [
            73.970125,
            15.2694666
          ],
          [
            73.9700516,
            15.2694416
          ],
          [
            73.97015,
            15.2697166
          ],
          [
            73.9701983,
            15.2699866
          ],
          [
            73.9702966,
            15.2701116
          ],
          [
            73.9702883,
            15.270115
          ],
          [
            73.9702466,
            15.270095
          ],
          [
            73.9702466,
            15.270105
          ],
          [
            73.9709633,
            15.2722816
          ],
          [
            73.9711016,
            15.272355
          ],
          [
            73.9776933,
            15.2805416
          ],
          [
            73.9777433,
            15.2841366
          ],
          [
            73.9762283,
            15.2909633
          ],
          [
            73.97496,
            15.2937416
          ],
          [
            73.9802816,
            15.295655
          ],
          [
            73.9803066,
            15.2956666
          ],
          [
            73.9803133,
            15.2956783
          ],
          [
            73.9803133,
            15.2956833
          ],
          [
            73.9803383,
            15.29567
          ],
          [
            73.9803549,
            15.295665
          ]
        ]
      },
      "properties": {
        "Vehicle_No": "GA 07 G 2317-MRG(EMERGENCY RESCUE TENDER)",
        "Vehicle_Name": "5035",
        "Branch": "Fire Station Margao",
        "created": "04-01-2026 05:30:20+05:30",
        "lastUpdated": "04-01-2026 08:50:20+05:30"
      }
    },
    {
      "type": "Feature",
      "geometry": {
        "type": "LineString",
        "coordinates": [
          [
            73.851335,
            15.3887599
          ]
        ]
      },
      "properties": {
        "Vehicle_No": "GA 07 G 1570-VAS(QUICK RESPONSE FIRE TENDER)",
        "Vehicle_Name": "5035",
        "Branch": "Fire Station Vasco",
        "created": "04-01-2026 05:30:22+05:30",
        "lastUpdated": "04-01-2026 05:30:22+05:30"
      }
    },
    {
      "type": "Feature",
      "geometry": {
        "type": "LineString",
        "coordinates": [
          [
            73.8513016,
            15.388845
          ]
        ]
      },
      "properties": {
        "Vehicle_No": "GA 07 G 4101-VAS(MS WATER TENDER)",
        "Vehicle_Name": "5035",
        "Branch": "Fire Station Vasco",
        "created": "04-01-2026 05:29:37+05:30",
        "lastUpdated": "04-01-2026 05:29:37+05:30"
      }
    },
    {
      "type": "Feature",
      "geometry": {
        "type": "LineString",
        "coordinates": [
          [
            73.85127,
            15.3888617
          ],
          [
            73.8512933,
            15.3888617
          ],
          [
            73.8510983,
            15.3889567
          ],
          [
            73.85092,
            15.38905
          ],
          [
            73.85131,
            15.3888433
          ]
        ]
      },
      "properties": {
        "Vehicle_No": "GA 07 G 0819-VAS(WATER/FOAM TENDER)",
        "Vehicle_Name": "4G",
        "Branch": "Fire Station Vasco",
        "created": "04-01-2026 05:30:05+05:30",
        "lastUpdated": "04-01-2026 08:35:07+05:30"
      }
    },
    {
      "type": "Feature",
      "geometry": {
        "type": "LineString",
        "coordinates": [
          [
            73.97015,
            15.2693333
          ],
          [
            73.9700516,
            15.2695583
          ],
          [
            73.9699783,
            15.26959
          ],
          [
            73.9699133,
            15.2693866
          ],
          [
            73.9699133,
            15.2694616
          ],
          [
            73.9698,
            15.2695166
          ]
        ]
      },
      "properties": {
        "Vehicle_No": "GA 07 G 7100-MRG(WATER BOUSER)",
        "Vehicle_Name": "5035",
        "Branch": "Fire Station Margao",
        "created": "04-01-2026 05:29:41+05:30",
        "lastUpdated": "04-01-2026 08:06:43+05:30"
      }
    },
    {
      "type": "Feature",
      "geometry": {
        "type": "LineString",
        "coordinates": [
          [
            73.9705966,
            15.2693333
          ]
        ]
      },
      "properties": {
        "Vehicle_No": "GA 07 G 1568-MRG(QUICK RESPONSE )",
        "Vehicle_Name": "5035",
        "Branch": "Fire Station Margao",
        "created": "04-01-2026 05:30:02+05:30",
        "lastUpdated": "04-01-2026 05:30:02+05:30"
      }
    },
    {
      "type": "Feature",
      "geometry": {
        "type": "LineString",
        "coordinates": [
          [
            73.97006,
            15.2692683
          ],
          [
            73.97006,
            15.269405
          ],
          [
            73.9700683,
            15.2693416
          ],
          [
            73.97006,
            15.2693616
          ],
          [
            73.9700033,
            15.26934
          ],
          [
            73.9698483,
            15.2693383
          ],
          [
            73.969905,
            15.2693916
          ],
          [
            73.969865,
            15.2693883
          ],
          [
            73.96993,
            15.2693566
          ],
          [
            73.969955,
            15.2693316
          ],
          [
            73.9699383,
            15.269325
          ],
          [
            73.9689933,
            15.2694683
          ],
          [
            73.9698816,
            15.2694566
          ],
          [
            73.969865,
            15.2694716
          ],
          [
            73.969865,
            15.2694799
          ],
          [
            73.9700516,
            15.2694766
          ],
          [
            73.9699133,
            15.2694983
          ],
          [
            73.9698966,
            15.2695116
          ],
          [
            73.969865,
            15.2695116
          ],
          [
            73.969995,
            15.2695083
          ],
          [
            73.9700283,
            15.2694683
          ],
          [
            73.9700116,
            15.269495
          ],
          [
            73.969955,
            15.2695
          ],
          [
            73.970035,
            15.2694616
          ],
          [
            73.9700116,
            15.2694199
          ],
          [
            73.9700433,
            15.2694583
          ],
          [
            73.9699866,
            15.2693683
          ],
          [
            73.9699383,
            15.26946
          ],
          [
            73.970255,
            15.2693366
          ],
          [
            73.9701816,
            15.2693966
          ],
          [
            73.97015,
            15.2694033
          ],
          [
            73.9701166,
            15.269395
          ],
          [
            73.9701416,
            15.2693783
          ],
          [
            73.970125,
            15.26936
          ],
          [
            73.970125,
            15.269365
          ],
          [
            73.9701166,
            15.269355
          ],
          [
            73.970085,
            15.26934
          ],
          [
            73.9699866,
            15.2693733
          ],
          [
            73.97006,
            15.26936
          ],
          [
            73.9700433,
            15.26943
          ],
          [
            73.9700433,
            15.2694033
          ],
          [
            73.9702466,
            15.269545
          ],
          [
            73.97015,
            15.2694533
          ],
          [
            73.9702233,
            15.269365
          ],
          [
            73.9702066,
            15.2693483
          ],
          [
            73.9703616,
            15.2692383
          ],
          [
            73.9700433,
            15.2694033
          ],
          [
            73.9700766,
            15.2693066
          ],
          [
            73.9702466,
            15.269365
          ],
          [
            73.970215,
            15.2693666
          ],
          [
            73.970085,
            15.2694416
          ],
          [
            73.9700683,
            15.26944
          ],
          [
            73.9700283,
            15.26945
          ],
          [
            73.9697666,
            15.2695133
          ],
          [
            73.9698166,
            15.269495
          ],
          [
            73.969995,
            15.2694533
          ],
          [
            73.9700283,
            15.2694216
          ],
          [
            73.9700283,
            15.26943
          ],
          [
            73.9700933,
            15.2694199
          ],
          [
            73.9700683,
            15.26936
          ],
          [
            73.97006,
            15.2693766
          ],
          [
            73.96997,
            15.26937
          ],
          [
            73.96989,
            15.2694583
          ],
          [
            73.9698816,
            15.269445
          ],
          [
            73.9698483,
            15.2694666
          ],
          [
            73.9701083,
            15.2694433
          ],
          [
            73.9700933,
            15.2694683
          ],
          [
            73.9701583,
            15.2693933
          ],
          [
            73.9701083,
            15.2694133
          ],
          [
            73.9700766,
            15.2694483
          ],
          [
            73.9701416,
            15.26941
          ],
          [
            73.9700933,
            15.26944
          ],
          [
            73.9699633,
            15.2694066
          ],
          [
            73.9698733,
            15.2694166
          ],
          [
            73.9700683,
            15.2694333
          ],
          [
            73.9700766,
            15.2694883
          ],
          [
            73.9701583,
            15.2694349
          ],
          [
            73.9701733,
            15.2694766
          ],
          [
            73.9701983,
            15.2694199
          ],
          [
            73.9699633,
            15.269515
          ],
          [
            73.9701016,
            15.2694483
          ],
          [
            73.9701016,
            15.26945
          ]
        ]
      },
      "properties": {
        "Vehicle_No": "GA 07 G 6101-MRG(WATER TENDER)",
        "Vehicle_Name": "5035",
        "Branch": "Fire Station Margao",
        "created": "04-01-2026 05:29:41+05:30",
        "lastUpdated": "04-01-2026 08:43:03+05:30"
      }
    },
    {
      "type": "Feature",
      "geometry": {
        "type": "LineString",
        "coordinates": [
          [
            73.970125,
            15.2693116
          ],
          [
            73.9701166,
            15.2693733
          ]
        ]
      },
      "properties": {
        "Vehicle_No": "GA 07 G 1001-MRG(AERIAL LADDER PLATFORM)",
        "Vehicle_Name": "5035",
        "Branch": "Fire Station Margao",
        "created": "04-01-2026 05:30:04+05:30",
        "lastUpdated": "04-01-2026 05:31:27+05:30"
      }
    },
    {
      "type": "Feature",
      "geometry": {
        "type": "LineString",
        "coordinates": [
          [
            74.0028044,
            15.402795
          ]
        ]
      },
      "properties": {
        "Vehicle_No": "GA 07 G 0820-BIC(WATER TEDNER)",
        "Vehicle_Name": "5026",
        "Branch": "Fire Station Bicholim",
        "created": "04-01-2026 05:29:52+05:30",
        "lastUpdated": "04-01-2026 05:29:52+05:30"
      }
    },
    {
      "type": "Feature",
      "geometry": {
        "type": "LineString",
        "coordinates": [
          [
            73.9140383,
            15.50034
          ]
        ]
      },
      "properties": {
        "Vehicle_No": "GA 07 G 5101-OLG(MS WATER TENDER)",
        "Vehicle_Name": "5035",
        "Branch": "Fire Station Old Goa",
        "created": "04-01-2026 05:29:32+05:30",
        "lastUpdated": "04-01-2026 05:29:32+05:30"
      }
    },
    {
      "type": "Feature",
      "geometry": {
        "type": "LineString",
        "coordinates": [
          [
            73.9465649,
            15.58917
          ],
          [
            73.9468349,
            15.5891716
          ],
          [
            73.9464933,
            15.58919
          ],
          [
            73.9464933,
            15.589165
          ],
          [
            73.9462883,
            15.5891033
          ],
          [
            73.9463466,
            15.5890883
          ],
          [
            73.946485,
            15.5887366
          ],
          [
            73.9466716,
            15.5888666
          ],
          [
            73.9461583,
            15.5884983
          ],
          [
            73.9461016,
            15.5880816
          ],
          [
            73.9461266,
            15.5893983
          ],
          [
            73.9466549,
            15.5893183
          ],
          [
            73.9466316,
            15.5891499
          ],
          [
            73.9466233,
            15.5891566
          ],
          [
            73.9462733,
            15.5891716
          ],
          [
            73.9461666,
            15.589225
          ],
          [
            73.9464516,
            15.589
          ],
          [
            73.9465166,
            15.5889316
          ],
          [
            73.9462966,
            15.5887933
          ],
          [
            73.9462,
            15.5886283
          ],
          [
            73.9465166,
            15.5892266
          ],
          [
            73.9464516,
            15.5890033
          ],
          [
            73.9463466,
            15.5889483
          ],
          [
            73.9464033,
            15.58889
          ],
          [
            73.9464766,
            15.5892233
          ],
          [
            73.9464516,
            15.5892483
          ],
          [
            73.946615,
            15.58918
          ],
          [
            73.9466549,
            15.589225
          ],
          [
            73.94672,
            15.5886333
          ],
          [
            73.94672,
            15.588625
          ],
          [
            73.9463216,
            15.5887733
          ],
          [
            73.9465333,
            15.5889483
          ],
          [
            73.9465583,
            15.5889283
          ],
          [
            73.9465083,
            15.5890133
          ],
          [
            73.9465166,
            15.5890966
          ],
          [
            73.9467766,
            15.5892033
          ],
          [
            73.9467616,
            15.5891966
          ],
          [
            73.9466883,
            15.58918
          ],
          [
            73.9466383,
            15.5891583
          ],
          [
            73.9464683,
            15.5893733
          ],
          [
            73.9465816,
            15.5894966
          ],
          [
            73.9464516,
            15.58941
          ],
          [
            73.9464116,
            15.5894083
          ],
          [
            73.9459799,
            15.5888883
          ],
          [
            73.94659,
            15.5892433
          ],
          [
            73.9464933,
            15.589125
          ],
          [
            73.9465083,
            15.5891166
          ],
          [
            73.9466066,
            15.5891216
          ],
          [
            73.9466466,
            15.5891683
          ],
          [
            73.9466316,
            15.589185
          ],
          [
            73.94668,
            15.5891316
          ],
          [
            73.9465166,
            15.5889116
          ],
          [
            73.9463699,
            15.5887316
          ],
          [
            73.9463466,
            15.5887066
          ]
        ]
      },
      "properties": {
        "Vehicle_No": "GA 07 G 3101-BIC(MS WATER TENDER)",
        "Vehicle_Name": "5035",
        "Branch": "Fire Station Bicholim",
        "created": "04-01-2026 05:29:53+05:30",
        "lastUpdated": "04-01-2026 08:46:42+05:30"
      }
    },
    {
      "type": "Feature",
      "geometry": {
        "type": "LineString",
        "coordinates": [
          [
            73.9466966,
            15.5894883
          ]
        ]
      },
      "properties": {
        "Vehicle_No": "GA 07 G 1941-BIC(QUICK RESPONSE)",
        "Vehicle_Name": "5035",
        "Branch": "Fire Station Bicholim",
        "created": "04-01-2026 05:29:36+05:30",
        "lastUpdated": "04-01-2026 05:29:36+05:30"
      }
    },
    {
      "type": "Feature",
      "geometry": {
        "type": "LineString",
        "coordinates": [
          [
            73.8478433,
            15.3892083
          ]
        ]
      },
      "properties": {
        "Vehicle_No": "GA 07 G 2319-VAS (EMERGENCY RESCUE TENDER)",
        "Vehicle_Name": "5035",
        "Branch": "Fire Station Vasco",
        "created": "04-01-2026 05:29:37+05:30",
        "lastUpdated": "04-01-2026 05:29:37+05:30"
      }
    },
    {
      "type": "Feature",
      "geometry": {
        "type": "LineString",
        "coordinates": [
          [
            74.1389166,
            15.5310816
          ]
        ]
      },
      "properties": {
        "Vehicle_No": "GA 07 G 3737-VAP(WATER TENDER)",
        "Vehicle_Name": "5035",
        "Branch": "Fire Station Valpoi",
        "created": "04-01-2026 05:29:29+05:30",
        "lastUpdated": "04-01-2026 05:29:29+05:30"
      }
    },
    {
      "type": "Feature",
      "geometry": {
        "type": "LineString",
        "coordinates": [
          [
            74.0029216,
            15.4027833
          ],
          [
            74.0029466,
            15.4027766
          ],
          [
            74.002865,
            15.4027833
          ],
          [
            74.002865,
            15.4027783
          ],
          [
            74.0028816,
            15.4027849
          ],
          [
            74.0031983,
            15.4028266
          ],
          [
            74.0087316,
            15.4074133
          ],
          [
            74.0174566,
            15.4084533
          ],
          [
            74.023495,
            15.40969
          ],
          [
            74.0322833,
            15.4136333
          ],
          [
            74.0410966,
            15.42074
          ],
          [
            74.0398266,
            15.4193616
          ],
          [
            74.03409,
            15.41416
          ],
          [
            74.030135,
            15.4132899
          ],
          [
            74.0211666,
            15.40893
          ],
          [
            74.0132316,
            15.40852
          ],
          [
            74.0095783,
            15.4073033
          ],
          [
            74.0035483,
            15.404455
          ],
          [
            74.002865,
            15.40294
          ],
          [
            74.0028233,
            15.4029166
          ],
          [
            74.0028483,
            15.40281
          ]
        ]
      },
      "properties": {
        "Vehicle_No": "GA 07 G 2318-PND(EMERGENCY RESCUE TENDER)",
        "Vehicle_Name": "5035",
        "Branch": "Fire Station Ponda",
        "created": "04-01-2026 05:29:50+05:30",
        "lastUpdated": "04-01-2026 06:58:15+05:30"
      }
    },
    {
      "type": "Feature",
      "geometry": {
        "type": "LineString",
        "coordinates": [
          [
            73.9073083,
            15.4141016
          ]
        ]
      },
      "properties": {
        "Vehicle_No": "GA 07 G 2004-PND(QUICK RESPONSE)",
        "Vehicle_Name": "5035",
        "Branch": "Fire Station Ponda",
        "created": "30-12-2025 13:47:09+05:30",
        "lastUpdated": "30-12-2025 13:47:09+05:30"
      }
    },
    {
      "type": "Feature",
      "geometry": {
        "type": "LineString",
        "coordinates": [
          [
            74.0032633,
            15.4026116
          ]
        ]
      },
      "properties": {
        "Vehicle_No": "GA 07 G 9101-PND(WATER TENDER)",
        "Vehicle_Name": "5035",
        "Branch": "Fire Station Ponda",
        "created": "04-01-2026 05:30:17+05:30",
        "lastUpdated": "04-01-2026 05:30:17+05:30"
      }
    },
    {
      "type": "Feature",
      "geometry": {
        "type": "LineString",
        "coordinates": [
          [
            74.0027183,
            15.4031816
          ]
        ]
      },
      "properties": {
        "Vehicle_No": "GA 07 G 9797-PND(WATER BOUSER)",
        "Vehicle_Name": "5035",
        "Branch": "Fire Station Ponda",
        "created": "04-01-2026 05:29:59+05:30",
        "lastUpdated": "04-01-2026 05:29:59+05:30"
      }
    },
    {
      "type": "Feature",
      "geometry": {
        "type": "LineString",
        "coordinates": [
          [
            74.0440516,
            15.02359
          ]
        ]
      },
      "properties": {
        "Vehicle_No": "GA 07 G 6363-CAN(WATER TENDER)",
        "Vehicle_Name": "5035",
        "Branch": "Fire Station Canacona",
        "created": "03-01-2026 23:40:07+05:30",
        "lastUpdated": "03-01-2026 23:40:07+05:30"
      }
    },
    {
      "type": "Feature",
      "geometry": {
        "type": "LineString",
        "coordinates": [
          [
            74.044075,
            15.02371
          ]
        ]
      },
      "properties": {
        "Vehicle_No": "GA 07 G 1567-CAN(QUICK RESPONSE FT)",
        "Vehicle_Name": "5035",
        "Branch": "Fire Station Canacona",
        "created": "04-01-2026 04:01:00+05:30",
        "lastUpdated": "04-01-2026 04:01:00+05:30"
      }
    },
    {
      "type": "Feature",
      "geometry": {
        "type": "LineString",
        "coordinates": [
          [
            73.9355466,
            15.3695233
          ],
          [
            73.9354566,
            15.3698216
          ]
        ]
      },
      "properties": {
        "Vehicle_No": "GA 07 G 1569-VRN(QUICK RESPONSE)",
        "Vehicle_Name": "5035",
        "Branch": "Fire Station Verna",
        "created": "04-01-2026 05:30:19+05:30",
        "lastUpdated": "04-01-2026 06:14:53+05:30"
      }
    },
    {
      "type": "Feature",
      "geometry": {
        "type": "LineString",
        "coordinates": [
          [
            73.93553,
            15.3697166
          ]
        ]
      },
      "properties": {
        "Vehicle_No": "GA 07 G 9909-VRN(ADVANCE MULTI-PURPOSE)",
        "Vehicle_Name": "5035",
        "Branch": "Fire Station Verna",
        "created": "04-01-2026 05:29:54+05:30",
        "lastUpdated": "04-01-2026 05:29:54+05:30"
      }
    },
    {
      "type": "Feature",
      "geometry": {
        "type": "LineString",
        "coordinates": [
          [
            74.1388099,
            15.5311866
          ],
          [
            74.1388099,
            15.5311566
          ]
        ]
      },
      "properties": {
        "Vehicle_No": "GA 07 G 1942-VAP(QUICK RESPONSE)",
        "Vehicle_Name": "5035",
        "Branch": "Fire Station Valpoi",
        "created": "04-01-2026 05:30:03+05:30",
        "lastUpdated": "04-01-2026 05:30:42+05:30"
      }
    },
    {
      "type": "Feature",
      "geometry": {
        "type": "LineString",
        "coordinates": [
          [
            74.103695,
            15.2603333
          ]
        ]
      },
      "properties": {
        "Vehicle_No": "GA 07 G 2003-CUR(QUICK RESPONSE)",
        "Vehicle_Name": "5035",
        "Branch": "Fire Station Curchorem",
        "created": "04-01-2026 05:30:09+05:30",
        "lastUpdated": "04-01-2026 05:30:09+05:30"
      }
    },
    {
      "type": "Feature",
      "geometry": {
        "type": "LineString",
        "coordinates": [
          [
            74.103735,
            15.2605033
          ]
        ]
      },
      "properties": {
        "Vehicle_No": "GA 07 G 7447-CUR(EMERGENCY RESCUE)",
        "Vehicle_Name": "5035",
        "Branch": "Fire Station Curchorem",
        "created": "04-01-2026 05:30:08+05:30",
        "lastUpdated": "04-01-2026 05:30:08+05:30"
      }
    },
    {
      "type": "Feature",
      "geometry": {
        "type": "LineString",
        "coordinates": [
          [
            74.10376,
            15.2604466
          ]
        ]
      },
      "properties": {
        "Vehicle_No": "GA 07 G 7557-CUR(WATER TENDER)",
        "Vehicle_Name": "5035",
        "Branch": "Fire Station Curchorem",
        "created": "04-01-2026 05:30:25+05:30",
        "lastUpdated": "04-01-2026 05:30:25+05:30"
      }
    },
    {
      "type": "Feature",
      "geometry": {
        "type": "LineString",
        "coordinates": [
          [
            74.103785,
            15.2603416
          ]
        ]
      },
      "properties": {
        "Vehicle_No": "GA 07 G 7667-CUR(WATER BOUSER)",
        "Vehicle_Name": "5035",
        "Branch": "Fire Station Curchorem",
        "created": "04-01-2026 05:30:26+05:30",
        "lastUpdated": "04-01-2026 05:30:26+05:30"
      }
    },
    {
      "type": "Feature",
      "geometry": {
        "type": "LineString",
        "coordinates": [
          [
            73.97233,
            15.4631567
          ],
          [
            73.9723233,
            15.46297
          ],
          [
            73.972615,
            15.4631617
          ],
          [
            73.97198,
            15.463285
          ],
          [
            73.9727133,
            15.4627283
          ],
          [
            73.97238,
            15.4625533
          ],
          [
            73.9725583,
            15.4630567
          ],
          [
            73.9728033,
            15.4627667
          ],
          [
            73.9728433,
            15.4627117
          ],
          [
            73.9724117,
            15.4627917
          ],
          [
            73.9722733,
            15.462835
          ],
          [
            73.972355,
            15.4634833
          ],
          [
            73.9723717,
            15.4633767
          ],
          [
            73.9720783,
            15.4630333
          ],
          [
            73.972185,
            15.4630417
          ],
          [
            73.9725917,
            15.4628283
          ],
          [
            73.9725833,
            15.4628517
          ],
          [
            73.9715583,
            15.4632667
          ],
          [
            73.9714033,
            15.463225
          ],
          [
            73.9723467,
            15.4625333
          ],
          [
            73.9728183,
            15.4632
          ],
          [
            73.9726883,
            15.463195
          ],
          [
            73.9722333,
            15.4632283
          ],
          [
            73.9725583,
            15.46302
          ],
          [
            73.9726067,
            15.4630183
          ],
          [
            73.9728267,
            15.4635133
          ]
        ]
      },
      "properties": {
        "Vehicle_No": "GA 07 G 4989-KUN(WATER TENDER)",
        "Vehicle_Name": "G-100",
        "Branch": "Fire Station Kundaim",
        "created": "04-01-2026 05:29:30+05:30",
        "lastUpdated": "04-01-2026 08:27:40+05:30"
      }
    },
    {
      "type": "Feature",
      "geometry": {
        "type": "LineString",
        "coordinates": [
          [
            73.79416,
            15.532975
          ],
          [
            73.7938717,
            15.5329883
          ]
        ]
      },
      "properties": {
        "Vehicle_No": "GA 07 G 2242-PIL(WATER TENDER)",
        "Vehicle_Name": "5026",
        "Branch": "Fire Station Pilerne",
        "created": "04-01-2026 05:28:04+05:30",
        "lastUpdated": "04-01-2026 05:31:14+05:30"
      }
    },
    {
      "type": "Feature",
      "geometry": {
        "type": "LineString",
        "coordinates": [
          [
            73.8086583,
            15.5899317
          ],
          [
            73.8087733,
            15.589765
          ]
        ]
      },
      "properties": {
        "Vehicle_No": "GA 07 G 0681-MAP(QUICK RESPONSE)",
        "Vehicle_Name": "AT 5036A-4G",
        "Branch": "Fire Station Mapusa",
        "created": "04-01-2026 05:30:19+05:30",
        "lastUpdated": "04-01-2026 07:32:01+05:30"
      }
    },
    {
      "type": "Feature",
      "geometry": {
        "type": "LineString",
        "coordinates": [
          [
            73.7974239,
            15.7164939
          ]
        ]
      },
      "properties": {
        "Vehicle_No": "GA 07 G 0307-PER(QUICK RESPONSE)",
        "Vehicle_Name": "AT5032-4G",
        "Branch": "Fire Station Pernem",
        "created": "23-10-2025 15:19:09+05:30",
        "lastUpdated": "23-10-2025 15:19:09+05:30"
      }
    },
    {
      "type": "Feature",
      "geometry": {
        "type": "LineString",
        "coordinates": [
          [
            73.797585,
            15.7163783
          ],
          [
            73.7976478,
            15.7165411
          ],
          [
            73.7975589,
            15.71644
          ],
          [
            73.7975178,
            15.716405
          ],
          [
            73.7974844,
            15.7163833
          ],
          [
            73.7975133,
            15.7163733
          ],
          [
            73.7975078,
            15.7163672
          ],
          [
            73.79749,
            15.7163706
          ],
          [
            73.7974828,
            15.7163822
          ],
          [
            73.7974778,
            15.7163867
          ],
          [
            73.7974722,
            15.7163889
          ],
          [
            73.7974678,
            15.7163967
          ],
          [
            73.7974717,
            15.7164044
          ],
          [
            73.7974767,
            15.7164028
          ],
          [
            73.7974772,
            15.7164028
          ]
        ]
      },
      "properties": {
        "Vehicle_No": "GA 07 G 2101-PER(MS WATER TENDER)",
        "Vehicle_Name": "AT5032-4G",
        "Branch": "Fire Station Pernem",
        "created": "04-01-2026 05:28:56+05:30",
        "lastUpdated": "04-01-2026 08:48:56+05:30"
      }
    },
    {
      "type": "Feature",
      "geometry": {
        "type": "LineString",
        "coordinates": [
          [
            73.7975228,
            15.716455
          ],
          [
            73.7974672,
            15.716535
          ],
          [
            73.7976133,
            15.7165722
          ],
          [
            73.7976094,
            15.7165717
          ],
          [
            73.7976217,
            15.7165544
          ],
          [
            73.79778,
            15.7164794
          ],
          [
            73.7974972,
            15.7178561
          ],
          [
            73.79854,
            15.7199628
          ],
          [
            73.7996339,
            15.7200489
          ],
          [
            73.8002672,
            15.7191167
          ],
          [
            73.8003378,
            15.7190672
          ],
          [
            73.8004939,
            15.7190317
          ],
          [
            73.8012172,
            15.7185389
          ],
          [
            73.80138,
            15.7184433
          ],
          [
            73.8012889,
            15.7184589
          ],
          [
            73.8012456,
            15.7184778
          ],
          [
            73.8010833,
            15.7185061
          ],
          [
            73.8008317,
            15.7186767
          ],
          [
            73.8003711,
            15.7190122
          ],
          [
            73.800315,
            15.7190411
          ],
          [
            73.7998611,
            15.7196683
          ],
          [
            73.7987883,
            15.7199333
          ],
          [
            73.7980167,
            15.71994
          ],
          [
            73.7975456,
            15.7179378
          ],
          [
            73.7978594,
            15.7167711
          ],
          [
            73.7975183,
            15.7164533
          ],
          [
            73.7975461,
            15.71648
          ],
          [
            73.7975467,
            15.7164983
          ],
          [
            73.7975511,
            15.7165272
          ]
        ]
      },
      "properties": {
        "Vehicle_No": "GA 07 G 4600-PER(MINI RESCUE TENDER)",
        "Vehicle_Name": "AT 5032-4G",
        "Branch": "Fire Station Pernem",
        "created": "04-01-2026 05:28:57+05:30",
        "lastUpdated": "04-01-2026 08:30:31+05:30"
      }
    },
    {
      "type": "Feature",
      "geometry": {
        "type": "LineString",
        "coordinates": [
          [
            73.8168156,
            15.48729
          ],
          [
            73.8169944,
            15.4871783
          ],
          [
            73.816955,
            15.4865128
          ],
          [
            73.817095,
            15.4872294
          ],
          [
            73.8177722,
            15.4870639
          ]
        ]
      },
      "properties": {
        "Vehicle_No": "GA 07 G 7272-PNJ(WATER TENDER)",
        "Vehicle_Name": "AT-5032-4G",
        "Branch": "Fire Station Panaji",
        "created": "04-01-2026 05:29:06+05:30",
        "lastUpdated": "04-01-2026 07:32:26+05:30"
      }
    },
    {
      "type": "Feature",
      "geometry": {
        "type": "LineString",
        "coordinates": [
          [
            74.021075,
            15.1862661
          ]
        ]
      },
      "properties": {
        "Vehicle_No": "GA07G2384- Cuncolim",
        "Vehicle_Name": "AT 5032-4G",
        "Branch": "Fire Station Cuncolim",
        "created": "04-01-2026 05:28:15+05:30",
        "lastUpdated": "04-01-2026 05:28:15+05:30"
      }
    },
    {
      "type": "Feature",
      "geometry": {
        "type": "LineString",
        "coordinates": [
          [
            73.797745,
            15.7162883
          ]
        ]
      },
      "properties": {
        "Vehicle_No": "GA07G2507 - Mid Size (Water Tender)",
        "Vehicle_Name": "5035",
        "Branch": "Fire Station Pernem",
        "created": "04-01-2026 05:30:14+05:30",
        "lastUpdated": "04-01-2026 05:30:14+05:30"
      }
    },
    {
      "type": "Feature",
      "geometry": {
        "type": "LineString",
        "coordinates": [
          [
            74.1385983,
            15.5309567
          ]
        ]
      },
      "properties": {
        "Vehicle_No": "GA07G2505 - Mid Size (Water Tender)",
        "Vehicle_Name": "5035",
        "Branch": "Fire Station Valpoi",
        "created": "04-01-2026 05:29:42+05:30",
        "lastUpdated": "04-01-2026 05:29:42+05:30"
      }
    },
    {
      "type": "Feature",
      "geometry": {
        "type": "LineString",
        "coordinates": [
          [
            73.9466233,
            15.5893983
          ]
        ]
      },
      "properties": {
        "Vehicle_No": "GA07G2504 - Mid Size (Water Tender)",
        "Vehicle_Name": "5035",
        "Branch": "Fire Station Bicholim",
        "created": "04-01-2026 05:30:24+05:30",
        "lastUpdated": "04-01-2026 05:30:24+05:30"
      }
    },
    {
      "type": "Feature",
      "geometry": {
        "type": "LineString",
        "coordinates": [
          [
            73.8087483,
            15.58996
          ]
        ]
      },
      "properties": {
        "Vehicle_No": "GA07G2503-Mid Size (Water Tender)",
        "Vehicle_Name": "5035",
        "Branch": "Fire Station Mapusa",
        "created": "04-01-2026 05:30:22+05:30",
        "lastUpdated": "04-01-2026 05:30:22+05:30"
      }
    },
    {
      "type": "Feature",
      "geometry": {
        "type": "LineString",
        "coordinates": [
          [
            73.8087733,
            15.5898217
          ]
        ]
      },
      "properties": {
        "Vehicle_No": "GA07G2502 - Mid Size (Water Tender)",
        "Vehicle_Name": "5035",
        "Branch": "Fire Force Headquarters",
        "created": "04-01-2026 05:29:48+05:30",
        "lastUpdated": "04-01-2026 05:29:48+05:30"
      }
    }
  ]
}