{
  "type": "FeatureCollection",
  "metadata": {
    "date": "20251230",
    "source": "Directorate of Fire Emergency Services, Govt. of Goa",
    "description": "Daily GPS tracks of fire trucks",
    "lastUpdated": "2025-12-30T01:22:33.048Z",
    "count": 52
  },
  "features": [
    {
      "type": "Feature",
      "geometry": {
        "type": "LineString",
        "coordinates": [
          [
            73.7940917,
            15.532955
          ]
        ]
      },
      "properties": {
        "Vehicle_No": "GA 07 G 0680-PIL(QUICK RESPONSE VEHICLE)",
        "Vehicle_Name": "4G",
        "Branch": "Fire Station Pilerne",
        "created": "30-12-2025 05:30:21+05:30",
        "lastUpdated": "30-12-2025 05:30:21+05:30"
      }
    },
    {
      "type": "Feature",
      "geometry": {
        "type": "LineString",
        "coordinates": [
          [
            73.914192,
            15.500383
          ],
          [
            73.914047,
            15.50033
          ]
        ]
      },
      "properties": {
        "Vehicle_No": "GA07G2506 - Mid Size (Water Tender)",
        "Vehicle_Name": "TS101",
        "Branch": "Fire Station Old Goa",
        "created": "30-12-2025 05:29:54+05:30",
        "lastUpdated": "30-12-2025 05:33:59+05:30"
      }
    },
    {
      "type": "Feature",
      "geometry": {
        "type": "LineString",
        "coordinates": [
          [
            73.829346,
            15.52315
          ],
          [
            73.829391,
            15.522943
          ]
        ]
      },
      "properties": {
        "Vehicle_No": "GA 07 G 5115-POR(MINI WATER TENDER)",
        "Vehicle_Name": "TS101",
        "Branch": "Fire Station Porvorim",
        "created": "30-12-2025 05:28:37+05:30",
        "lastUpdated": "30-12-2025 05:30:36+05:30"
      }
    },
    {
      "type": "Feature",
      "geometry": {
        "type": "LineString",
        "coordinates": [
          [
            73.970612,
            15.269412
          ],
          [
            73.970589,
            15.269408
          ]
        ]
      },
      "properties": {
        "Vehicle_No": "GA 07 G 0350-MRG(WATER TENDER)",
        "Vehicle_Name": "TS101",
        "Branch": "Fire Station Margao",
        "created": "30-12-2025 05:29:30+05:30",
        "lastUpdated": "30-12-2025 05:33:29+05:30"
      }
    },
    {
      "type": "Feature",
      "geometry": {
        "type": "LineString",
        "coordinates": [
          [
            73.808846,
            15.589913
          ],
          [
            73.808846,
            15.589888
          ]
        ]
      },
      "properties": {
        "Vehicle_No": "GA 07 G 2900-MAP(MINI RESCUE TENDER)",
        "Vehicle_Name": "TS101",
        "Branch": "Fire Station Mapusa",
        "created": "30-12-2025 05:29:50+05:30",
        "lastUpdated": "30-12-2025 05:31:50+05:30"
      }
    },
    {
      "type": "Feature",
      "geometry": {
        "type": "LineString",
        "coordinates": [
          [
            73.817451,
            15.487322
          ],
          [
            73.817093,
            15.48703
          ]
        ]
      },
      "properties": {
        "Vehicle_No": "GA 07 G 7600-FFHQ(WATER BOUSER)",
        "Vehicle_Name": "TS101",
        "Branch": "Fire Force Headquarters",
        "created": "30-12-2025 05:29:53+05:30",
        "lastUpdated": "30-12-2025 05:31:52+05:30"
      }
    },
    {
      "type": "Feature",
      "geometry": {
        "type": "LineString",
        "coordinates": [
          [
            73.817253,
            15.48737
          ],
          [
            73.817238,
            15.487357
          ]
        ]
      },
      "properties": {
        "Vehicle_No": "GA 07 G 2002-FFHQ(TURN TABLE LADDER)",
        "Vehicle_Name": "TS101",
        "Branch": "Fire Force Headquarters",
        "created": "30-12-2025 05:29:04+05:30",
        "lastUpdated": "30-12-2025 05:31:04+05:30"
      }
    },
    {
      "type": "Feature",
      "geometry": {
        "type": "LineString",
        "coordinates": [
          [
            73.817047,
            15.486845
          ],
          [
            73.817039,
            15.48685
          ]
        ]
      },
      "properties": {
        "Vehicle_No": "GA 07 G 7101-FFHQ(WATER TENDER)",
        "Vehicle_Name": "TS101",
        "Branch": "Fire Force Headquarters",
        "created": "30-12-2025 05:29:15+05:30",
        "lastUpdated": "30-12-2025 05:31:15+05:30"
      }
    },
    {
      "type": "Feature",
      "geometry": {
        "type": "LineString",
        "coordinates": [
          [
            73.817261,
            15.487295
          ],
          [
            73.817291,
            15.487285
          ]
        ]
      },
      "properties": {
        "Vehicle_No": "GA 07 G 7677-FFHQ(EMERGENCY RESCUE)",
        "Vehicle_Name": "TS101",
        "Branch": "Fire Force Headquarters",
        "created": "30-12-2025 05:29:16+05:30",
        "lastUpdated": "30-12-2025 05:33:20+05:30"
      }
    },
    {
      "type": "Feature",
      "geometry": {
        "type": "LineString",
        "coordinates": [
          [
            73.817245,
            15.487167
          ],
          [
            73.817207,
            15.487208
          ],
          [
            73.817284,
            15.487305
          ],
          [
            73.817291,
            15.48731
          ],
          [
            73.817284,
            15.487302
          ],
          [
            73.817291,
            15.487308
          ],
          [
            73.817291,
            15.487307
          ],
          [
            73.817284,
            15.487302
          ]
        ]
      },
      "properties": {
        "Vehicle_No": "GA 07 G 1121-PNJ(EMERGENCY RESCUE)",
        "Vehicle_Name": "TS101",
        "Branch": "Fire Station Panaji",
        "created": "30-12-2025 05:29:03+05:30",
        "lastUpdated": "30-12-2025 06:52:25+05:30"
      }
    },
    {
      "type": "Feature",
      "geometry": {
        "type": "LineString",
        "coordinates": [
          [
            73.742218,
            15.595123
          ],
          [
            73.744118,
            15.595713
          ],
          [
            73.744255,
            15.598315
          ],
          [
            73.742767,
            15.598882
          ],
          [
            73.748924,
            15.597225
          ],
          [
            73.751678,
            15.595178
          ],
          [
            73.756393,
            15.594138
          ],
          [
            73.75956,
            15.592567
          ],
          [
            73.760284,
            15.588068
          ],
          [
            73.764259,
            15.588355
          ],
          [
            73.764343,
            15.589068
          ],
          [
            73.770851,
            15.589397
          ],
          [
            73.782104,
            15.58238
          ],
          [
            73.782455,
            15.582332
          ],
          [
            73.791725,
            15.578182
          ],
          [
            73.793556,
            15.575828
          ],
          [
            73.794518,
            15.575303
          ],
          [
            73.804779,
            15.573637
          ],
          [
            73.806702,
            15.573722
          ],
          [
            73.812836,
            15.55946
          ],
          [
            73.817322,
            15.553043
          ],
          [
            73.81842,
            15.548325
          ],
          [
            73.819504,
            15.540667
          ],
          [
            73.81971,
            15.5368
          ],
          [
            73.823685,
            15.532323
          ],
          [
            73.828064,
            15.53081
          ],
          [
            73.829849,
            15.526672
          ],
          [
            73.82914,
            15.523043
          ],
          [
            73.828819,
            15.522862
          ],
          [
            73.835472,
            15.514103
          ],
          [
            73.837654,
            15.497727
          ],
          [
            73.837334,
            15.499397
          ],
          [
            73.829659,
            15.500957
          ],
          [
            73.826782,
            15.50119
          ],
          [
            73.81794,
            15.493105
          ],
          [
            73.814919,
            15.489167
          ],
          [
            73.816872,
            15.486542
          ],
          [
            73.816948,
            15.486472
          ]
        ]
      },
      "properties": {
        "Vehicle_No": "GA 07 G 1571-FFHQ(QUICK RESPONSE)",
        "Vehicle_Name": "TS101",
        "Branch": "Fire Force Headquarters",
        "created": "30-12-2025 05:30:21+05:30",
        "lastUpdated": "30-12-2025 06:13:08+05:30"
      }
    },
    {
      "type": "Feature",
      "geometry": {
        "type": "LineString",
        "coordinates": [
          [
            73.808548,
            15.589993
          ],
          [
            73.808701,
            15.589822
          ]
        ]
      },
      "properties": {
        "Vehicle_No": "GA 07 G 8101-MAP(WATER TENDER)",
        "Vehicle_Name": "TS101",
        "Branch": "Fire Station Mapusa",
        "created": "30-12-2025 05:29:45+05:30",
        "lastUpdated": "30-12-2025 05:31:45+05:30"
      }
    },
    {
      "type": "Feature",
      "geometry": {
        "type": "LineString",
        "coordinates": [
          [
            73.9700283,
            15.2694066
          ],
          [
            73.9701666,
            15.26947
          ],
          [
            73.9701983,
            15.26945
          ],
          [
            73.9701733,
            15.26947
          ],
          [
            73.9701416,
            15.269395
          ],
          [
            73.970125,
            15.2693299
          ],
          [
            73.97015,
            15.269395
          ],
          [
            73.9700683,
            15.2694566
          ],
          [
            73.9701083,
            15.2694983
          ],
          [
            73.97024,
            15.2692766
          ],
          [
            73.9700683,
            15.2694166
          ],
          [
            73.9700766,
            15.2694383
          ],
          [
            73.9701333,
            15.2692233
          ],
          [
            73.9701083,
            15.26925
          ],
          [
            73.970085,
            15.2694783
          ],
          [
            73.97002,
            15.2692866
          ],
          [
            73.970125,
            15.2693366
          ],
          [
            73.97015,
            15.2693183
          ],
          [
            73.9701666,
            15.26934
          ],
          [
            73.9700283,
            15.26935
          ],
          [
            73.97002,
            15.2692833
          ],
          [
            73.9701016,
            15.269395
          ],
          [
            73.97002,
            15.26923
          ],
          [
            73.969995,
            15.269295
          ],
          [
            73.9701666,
            15.269365
          ],
          [
            73.9701816,
            15.2695233
          ],
          [
            73.9701583,
            15.269495
          ],
          [
            73.9697666,
            15.2697166
          ],
          [
            73.9700116,
            15.26959
          ],
          [
            73.9700933,
            15.269355
          ],
          [
            73.9701083,
            15.2693833
          ],
          [
            73.9699216,
            15.2695116
          ],
          [
            73.97002,
            15.2693466
          ],
          [
            73.97019,
            15.269235
          ],
          [
            73.9700516,
            15.2693066
          ],
          [
            73.9701016,
            15.2694033
          ],
          [
            73.9701166,
            15.2694483
          ],
          [
            73.9700283,
            15.2693733
          ],
          [
            73.970085,
            15.2693866
          ],
          [
            73.9701333,
            15.269405
          ],
          [
            73.9700933,
            15.2693833
          ],
          [
            73.9701583,
            15.26932
          ],
          [
            73.9701816,
            15.2693333
          ],
          [
            73.970215,
            15.2693933
          ],
          [
            73.9701166,
            15.26937
          ],
          [
            73.969995,
            15.269405
          ],
          [
            73.9701666,
            15.269405
          ],
          [
            73.9701083,
            15.26935
          ],
          [
            73.9699633,
            15.2694033
          ],
          [
            73.9700683,
            15.2694033
          ],
          [
            73.9700933,
            15.2694066
          ],
          [
            73.97019,
            15.2693116
          ],
          [
            73.9701083,
            15.26941
          ],
          [
            73.9700033,
            15.26954
          ],
          [
            73.9700766,
            15.2693616
          ],
          [
            73.9701083,
            15.2693416
          ],
          [
            73.97002,
            15.269515
          ],
          [
            73.9701083,
            15.2695233
          ],
          [
            73.9701016,
            15.2694133
          ]
        ]
      },
      "properties": {
        "Vehicle_No": "GA 07 G 2317-MRG(EMERGENCY RESCUE TENDER)",
        "Vehicle_Name": "5035",
        "Branch": "Fire Station Margao",
        "created": "30-12-2025 05:30:27+05:30",
        "lastUpdated": "30-12-2025 06:51:50+05:30"
      }
    },
    {
      "type": "Feature",
      "geometry": {
        "type": "LineString",
        "coordinates": [
          [
            73.851375,
            15.3888066
          ],
          [
            73.8513183,
            15.38878
          ],
          [
            73.8513583,
            15.38883
          ]
        ]
      },
      "properties": {
        "Vehicle_No": "GA 07 G 1570-VAS(QUICK RESPONSE FIRE TENDER)",
        "Vehicle_Name": "5035",
        "Branch": "Fire Station Vasco",
        "created": "30-12-2025 05:30:13+05:30",
        "lastUpdated": "30-12-2025 05:46:59+05:30"
      }
    },
    {
      "type": "Feature",
      "geometry": {
        "type": "LineString",
        "coordinates": [
          [
            73.851245,
            15.3888566
          ]
        ]
      },
      "properties": {
        "Vehicle_No": "GA 07 G 4101-VAS(MS WATER TENDER)",
        "Vehicle_Name": "5035",
        "Branch": "Fire Station Vasco",
        "created": "30-12-2025 05:29:47+05:30",
        "lastUpdated": "30-12-2025 05:29:47+05:30"
      }
    },
    {
      "type": "Feature",
      "geometry": {
        "type": "LineString",
        "coordinates": [
          [
            73.8513183,
            15.3888717
          ]
        ]
      },
      "properties": {
        "Vehicle_No": "GA 07 G 0819-VAS(WATER/FOAM TENDER)",
        "Vehicle_Name": "4G",
        "Branch": "Fire Station Vasco",
        "created": "30-12-2025 05:30:13+05:30",
        "lastUpdated": "30-12-2025 05:30:13+05:30"
      }
    },
    {
      "type": "Feature",
      "geometry": {
        "type": "LineString",
        "coordinates": [
          [
            73.970345,
            15.2697333
          ],
          [
            73.97028,
            15.269505
          ]
        ]
      },
      "properties": {
        "Vehicle_No": "GA 07 G 7100-MRG(WATER BOUSER)",
        "Vehicle_Name": "5035",
        "Branch": "Fire Station Margao",
        "created": "30-12-2025 05:30:19+05:30",
        "lastUpdated": "30-12-2025 05:30:54+05:30"
      }
    },
    {
      "type": "Feature",
      "geometry": {
        "type": "LineString",
        "coordinates": [
          [
            73.9706466,
            15.2693766
          ]
        ]
      },
      "properties": {
        "Vehicle_No": "GA 07 G 1568-MRG(QUICK RESPONSE )",
        "Vehicle_Name": "5035",
        "Branch": "Fire Station Margao",
        "created": "30-12-2025 05:30:29+05:30",
        "lastUpdated": "30-12-2025 05:30:29+05:30"
      }
    },
    {
      "type": "Feature",
      "geometry": {
        "type": "LineString",
        "coordinates": [
          [
            73.970125,
            15.2693883
          ]
        ]
      },
      "properties": {
        "Vehicle_No": "GA 07 G 6101-MRG(WATER TENDER)",
        "Vehicle_Name": "5035",
        "Branch": "Fire Station Margao",
        "created": "30-12-2025 05:30:19+05:30",
        "lastUpdated": "30-12-2025 05:30:19+05:30"
      }
    },
    {
      "type": "Feature",
      "geometry": {
        "type": "LineString",
        "coordinates": [
          [
            73.97015,
            15.2695833
          ]
        ]
      },
      "properties": {
        "Vehicle_No": "GA 07 G 1001-MRG(AERIAL LADDER PLATFORM)",
        "Vehicle_Name": "5035",
        "Branch": "Fire Station Margao",
        "created": "30-12-2025 05:30:19+05:30",
        "lastUpdated": "30-12-2025 05:30:19+05:30"
      }
    },
    {
      "type": "Feature",
      "geometry": {
        "type": "LineString",
        "coordinates": [
          [
            74.0028378,
            15.4027628
          ]
        ]
      },
      "properties": {
        "Vehicle_No": "GA 07 G 0820-BIC(WATER TEDNER)",
        "Vehicle_Name": "5026",
        "Branch": "Fire Station Bicholim",
        "created": "30-12-2025 05:30:23+05:30",
        "lastUpdated": "30-12-2025 05:30:23+05:30"
      }
    },
    {
      "type": "Feature",
      "geometry": {
        "type": "LineString",
        "coordinates": [
          [
            73.9140866,
            15.500195
          ]
        ]
      },
      "properties": {
        "Vehicle_No": "GA 07 G 5101-OLG(MS WATER TENDER)",
        "Vehicle_Name": "5035",
        "Branch": "Fire Station Old Goa",
        "created": "30-12-2025 05:29:05+05:30",
        "lastUpdated": "30-12-2025 05:29:05+05:30"
      }
    },
    {
      "type": "Feature",
      "geometry": {
        "type": "LineString",
        "coordinates": [
          [
            73.9462966,
            15.5889466
          ],
          [
            73.9461583,
            15.5889533
          ],
          [
            73.946435,
            15.5893133
          ],
          [
            73.9463616,
            15.5890583
          ],
          [
            73.9463216,
            15.5888083
          ],
          [
            73.9462233,
            15.5888116
          ],
          [
            73.946305,
            15.5888166
          ],
          [
            73.9465,
            15.589165
          ],
          [
            73.945735,
            15.589175
          ],
          [
            73.9465983,
            15.5892316
          ],
          [
            73.9462,
            15.58884
          ],
          [
            73.9464766,
            15.5892083
          ],
          [
            73.9465083,
            15.5892983
          ]
        ]
      },
      "properties": {
        "Vehicle_No": "GA 07 G 3101-BIC(MS WATER TENDER)",
        "Vehicle_Name": "5035",
        "Branch": "Fire Station Bicholim",
        "created": "30-12-2025 05:29:29+05:30",
        "lastUpdated": "30-12-2025 06:19:29+05:30"
      }
    },
    {
      "type": "Feature",
      "geometry": {
        "type": "LineString",
        "coordinates": [
          [
            73.9467283,
            15.5895033
          ]
        ]
      },
      "properties": {
        "Vehicle_No": "GA 07 G 1941-BIC(QUICK RESPONSE)",
        "Vehicle_Name": "5035",
        "Branch": "Fire Station Bicholim",
        "created": "30-12-2025 05:29:46+05:30",
        "lastUpdated": "30-12-2025 05:29:46+05:30"
      }
    },
    {
      "type": "Feature",
      "geometry": {
        "type": "LineString",
        "coordinates": [
          [
            73.8512283,
            15.38884
          ]
        ]
      },
      "properties": {
        "Vehicle_No": "GA 07 G 2319-VAS (EMERGENCY RESCUE TENDER)",
        "Vehicle_Name": "5035",
        "Branch": "Fire Station Vasco",
        "created": "30-12-2025 05:30:28+05:30",
        "lastUpdated": "30-12-2025 05:30:28+05:30"
      }
    },
    {
      "type": "Feature",
      "geometry": {
        "type": "LineString",
        "coordinates": [
          [
            74.0809083,
            15.613935
          ],
          [
            74.1330166,
            15.6052633
          ],
          [
            74.13501,
            15.6017083
          ],
          [
            74.1382,
            15.5986966
          ],
          [
            74.1372566,
            15.5919
          ],
          [
            74.1364183,
            15.5875116
          ],
          [
            74.1347,
            15.5787683
          ],
          [
            74.1353433,
            15.571645
          ],
          [
            74.1351066,
            15.5626849
          ],
          [
            74.1339599,
            15.556635
          ],
          [
            74.1368899,
            15.543895
          ],
          [
            74.1373366,
            15.53916
          ],
          [
            74.1369866,
            15.5340316
          ],
          [
            74.1375983,
            15.5314516
          ],
          [
            74.1392666,
            15.530995
          ],
          [
            74.1387133,
            15.5309833
          ],
          [
            74.13868,
            15.53098
          ]
        ]
      },
      "properties": {
        "Vehicle_No": "GA 07 G 3737-VAP(WATER TENDER)",
        "Vehicle_Name": "5035",
        "Branch": "Fire Station Valpoi",
        "created": "30-12-2025 04:43:10+05:30",
        "lastUpdated": "30-12-2025 06:15:22+05:30"
      }
    },
    {
      "type": "Feature",
      "geometry": {
        "type": "LineString",
        "coordinates": [
          [
            74.0027099,
            15.4028416
          ]
        ]
      },
      "properties": {
        "Vehicle_No": "GA 07 G 2318-PND(EMERGENCY RESCUE TENDER)",
        "Vehicle_Name": "5035",
        "Branch": "Fire Station Ponda",
        "created": "30-12-2025 05:29:39+05:30",
        "lastUpdated": "30-12-2025 05:29:39+05:30"
      }
    },
    {
      "type": "Feature",
      "geometry": {
        "type": "LineString",
        "coordinates": [
          [
            74.0029866,
            15.4026216
          ]
        ]
      },
      "properties": {
        "Vehicle_No": "GA 07 G 2004-PND(QUICK RESPONSE)",
        "Vehicle_Name": "5035",
        "Branch": "Fire Station Ponda",
        "created": "30-12-2025 05:30:06+05:30",
        "lastUpdated": "30-12-2025 05:30:06+05:30"
      }
    },
    {
      "type": "Feature",
      "geometry": {
        "type": "LineString",
        "coordinates": [
          [
            74.0031416,
            15.4025283
          ]
        ]
      },
      "properties": {
        "Vehicle_No": "GA 07 G 9101-PND(WATER TENDER)",
        "Vehicle_Name": "5035",
        "Branch": "Fire Station Ponda",
        "created": "30-12-2025 05:30:16+05:30",
        "lastUpdated": "30-12-2025 05:30:16+05:30"
      }
    },
    {
      "type": "Feature",
      "geometry": {
        "type": "LineString",
        "coordinates": [
          [
            74.002865,
            15.4027466
          ]
        ]
      },
      "properties": {
        "Vehicle_No": "GA 07 G 9797-PND(WATER BOUSER)",
        "Vehicle_Name": "5035",
        "Branch": "Fire Station Ponda",
        "created": "30-12-2025 05:30:13+05:30",
        "lastUpdated": "30-12-2025 05:30:13+05:30"
      }
    },
    {
      "type": "Feature",
      "geometry": {
        "type": "LineString",
        "coordinates": [
          [
            74.04406,
            15.0236516
          ]
        ]
      },
      "properties": {
        "Vehicle_No": "GA 07 G 6363-CAN(WATER TENDER)",
        "Vehicle_Name": "5035",
        "Branch": "Fire Station Canacona",
        "created": "30-12-2025 01:43:46+05:30",
        "lastUpdated": "30-12-2025 01:43:46+05:30"
      }
    },
    {
      "type": "Feature",
      "geometry": {
        "type": "LineString",
        "coordinates": [
          [
            74.04406,
            15.0236783
          ]
        ]
      },
      "properties": {
        "Vehicle_No": "GA 07 G 1567-CAN(QUICK RESPONSE FT)",
        "Vehicle_Name": "5035",
        "Branch": "Fire Station Canacona",
        "created": "30-12-2025 05:29:57+05:30",
        "lastUpdated": "30-12-2025 05:29:57+05:30"
      }
    },
    {
      "type": "Feature",
      "geometry": {
        "type": "LineString",
        "coordinates": [
          [
            73.93558,
            15.36973
          ],
          [
            73.9356033,
            15.3696633
          ]
        ]
      },
      "properties": {
        "Vehicle_No": "GA 07 G 1569-VRN(QUICK RESPONSE)",
        "Vehicle_Name": "5035",
        "Branch": "Fire Station Verna",
        "created": "30-12-2025 05:30:05+05:30",
        "lastUpdated": "30-12-2025 05:31:26+05:30"
      }
    },
    {
      "type": "Feature",
      "geometry": {
        "type": "LineString",
        "coordinates": [
          [
            73.9359366,
            15.3696283
          ]
        ]
      },
      "properties": {
        "Vehicle_No": "GA 07 G 9909-VRN(ADVANCE MULTI-PURPOSE)",
        "Vehicle_Name": "5035",
        "Branch": "Fire Station Verna",
        "created": "30-12-2025 05:30:18+05:30",
        "lastUpdated": "30-12-2025 05:30:18+05:30"
      }
    },
    {
      "type": "Feature",
      "geometry": {
        "type": "LineString",
        "coordinates": [
          [
            74.13877,
            15.5310566
          ]
        ]
      },
      "properties": {
        "Vehicle_No": "GA 07 G 1942-VAP(QUICK RESPONSE)",
        "Vehicle_Name": "5035",
        "Branch": "Fire Station Valpoi",
        "created": "30-12-2025 05:30:26+05:30",
        "lastUpdated": "30-12-2025 05:30:26+05:30"
      }
    },
    {
      "type": "Feature",
      "geometry": {
        "type": "LineString",
        "coordinates": [
          [
            74.1037266,
            15.2604066
          ]
        ]
      },
      "properties": {
        "Vehicle_No": "GA 07 G 2003-CUR(QUICK RESPONSE)",
        "Vehicle_Name": "5035",
        "Branch": "Fire Station Curchorem",
        "created": "30-12-2025 05:30:25+05:30",
        "lastUpdated": "30-12-2025 05:30:25+05:30"
      }
    },
    {
      "type": "Feature",
      "geometry": {
        "type": "LineString",
        "coordinates": [
          [
            74.1038,
            15.2603233
          ]
        ]
      },
      "properties": {
        "Vehicle_No": "GA 07 G 7447-CUR(EMERGENCY RESCUE)",
        "Vehicle_Name": "5035",
        "Branch": "Fire Station Curchorem",
        "created": "30-12-2025 05:30:05+05:30",
        "lastUpdated": "30-12-2025 05:30:05+05:30"
      }
    },
    {
      "type": "Feature",
      "geometry": {
        "type": "LineString",
        "coordinates": [
          [
            74.1035733,
            15.2605
          ]
        ]
      },
      "properties": {
        "Vehicle_No": "GA 07 G 7557-CUR(WATER TENDER)",
        "Vehicle_Name": "5035",
        "Branch": "Fire Station Curchorem",
        "created": "30-12-2025 05:29:16+05:30",
        "lastUpdated": "30-12-2025 05:29:16+05:30"
      }
    },
    {
      "type": "Feature",
      "geometry": {
        "type": "LineString",
        "coordinates": [
          [
            73.9930583,
            15.1437433
          ],
          [
            73.9930333,
            15.1437483
          ],
          [
            73.993025,
            15.1437466
          ]
        ]
      },
      "properties": {
        "Vehicle_No": "GA 07 G 7667-CUR(WATER BOUSER)",
        "Vehicle_Name": "5035",
        "Branch": "Fire Station Curchorem",
        "created": "30-12-2025 05:30:25+05:30",
        "lastUpdated": "30-12-2025 06:50:19+05:30"
      }
    },
    {
      "type": "Feature",
      "geometry": {
        "type": "LineString",
        "coordinates": [
          [
            73.9725917,
            15.4631117
          ],
          [
            73.9724683,
            15.462645
          ]
        ]
      },
      "properties": {
        "Vehicle_No": "GA 07 G 4989-KUN(WATER TENDER)",
        "Vehicle_Name": "G-100",
        "Branch": "Fire Station Kundaim",
        "created": "30-12-2025 05:29:53+05:30",
        "lastUpdated": "30-12-2025 06:31:31+05:30"
      }
    },
    {
      "type": "Feature",
      "geometry": {
        "type": "LineString",
        "coordinates": [
          [
            73.7939639,
            15.5329256
          ]
        ]
      },
      "properties": {
        "Vehicle_No": "GA 07 G 2242-PIL(WATER TENDER)",
        "Vehicle_Name": "5026",
        "Branch": "Fire Station Pilerne",
        "created": "30-12-2025 05:30:06+05:30",
        "lastUpdated": "30-12-2025 05:30:06+05:30"
      }
    },
    {
      "type": "Feature",
      "geometry": {
        "type": "LineString",
        "coordinates": [
          [
            73.8087967,
            15.5896017
          ]
        ]
      },
      "properties": {
        "Vehicle_No": "GA 07 G 0681-MAP(QUICK RESPONSE)",
        "Vehicle_Name": "AT 5036A-4G",
        "Branch": "Fire Station Mapusa",
        "created": "30-12-2025 05:30:20+05:30",
        "lastUpdated": "30-12-2025 05:30:20+05:30"
      }
    },
    {
      "type": "Feature",
      "geometry": {
        "type": "LineString",
        "coordinates": [
          [
            73.7974239,
            15.7164939
          ]
        ]
      },
      "properties": {
        "Vehicle_No": "GA 07 G 0307-PER(QUICK RESPONSE)",
        "Vehicle_Name": "AT5032-4G",
        "Branch": "Fire Station Pernem",
        "created": "23-10-2025 15:19:09+05:30",
        "lastUpdated": "23-10-2025 15:19:09+05:30"
      }
    },
    {
      "type": "Feature",
      "geometry": {
        "type": "LineString",
        "coordinates": [
          [
            73.7976467,
            15.7163961
          ]
        ]
      },
      "properties": {
        "Vehicle_No": "GA 07 G 2101-PER(MS WATER TENDER)",
        "Vehicle_Name": "AT5032-4G",
        "Branch": "Fire Station Pernem",
        "created": "30-12-2025 05:29:21+05:30",
        "lastUpdated": "30-12-2025 05:29:21+05:30"
      }
    },
    {
      "type": "Feature",
      "geometry": {
        "type": "LineString",
        "coordinates": [
          [
            73.7975311,
            15.7164861
          ]
        ]
      },
      "properties": {
        "Vehicle_No": "GA 07 G 4600-PER(MINI RESCUE TENDER)",
        "Vehicle_Name": "AT 5032-4G",
        "Branch": "Fire Station Pernem",
        "created": "30-12-2025 05:28:19+05:30",
        "lastUpdated": "30-12-2025 05:28:19+05:30"
      }
    },
    {
      "type": "Feature",
      "geometry": {
        "type": "LineString",
        "coordinates": [
          [
            73.8180383,
            15.4877656
          ]
        ]
      },
      "properties": {
        "Vehicle_No": "GA 07 G 7272-PNJ(WATER TENDER)",
        "Vehicle_Name": "AT-5032-4G",
        "Branch": "Fire Station Panaji",
        "created": "30-12-2025 05:29:30+05:30",
        "lastUpdated": "30-12-2025 05:29:30+05:30"
      }
    },
    {
      "type": "Feature",
      "geometry": {
        "type": "LineString",
        "coordinates": [
          [
            74.0210622,
            15.1862706
          ]
        ]
      },
      "properties": {
        "Vehicle_No": "GA07G2384- Cuncolim",
        "Vehicle_Name": "AT 5032-4G",
        "Branch": "Fire Station Cuncolim",
        "created": "30-12-2025 05:27:39+05:30",
        "lastUpdated": "30-12-2025 05:27:39+05:30"
      }
    },
    {
      "type": "Feature",
      "geometry": {
        "type": "LineString",
        "coordinates": [
          [
            73.7976883,
            15.7164483
          ]
        ]
      },
      "properties": {
        "Vehicle_No": "GA07G2507 - Mid Size (Water Tender)",
        "Vehicle_Name": "5035",
        "Branch": "Fire Station Pernem",
        "created": "30-12-2025 05:30:28+05:30",
        "lastUpdated": "30-12-2025 05:30:28+05:30"
      }
    },
    {
      "type": "Feature",
      "geometry": {
        "type": "LineString",
        "coordinates": [
          [
            74.13864,
            15.53094
          ]
        ]
      },
      "properties": {
        "Vehicle_No": "GA07G2505 - Mid Size (Water Tender)",
        "Vehicle_Name": "5035",
        "Branch": "Fire Station Valpoi",
        "created": "30-12-2025 05:30:23+05:30",
        "lastUpdated": "30-12-2025 05:30:23+05:30"
      }
    },
    {
      "type": "Feature",
      "geometry": {
        "type": "LineString",
        "coordinates": [
          [
            73.9466383,
            15.5894167
          ]
        ]
      },
      "properties": {
        "Vehicle_No": "GA07G2504 - Mid Size (Water Tender)",
        "Vehicle_Name": "5035",
        "Branch": "Fire Station Bicholim",
        "created": "30-12-2025 05:30:23+05:30",
        "lastUpdated": "30-12-2025 05:30:23+05:30"
      }
    },
    {
      "type": "Feature",
      "geometry": {
        "type": "LineString",
        "coordinates": [
          [
            73.8087567,
            15.59
          ]
        ]
      },
      "properties": {
        "Vehicle_No": "GA07G2503-Mid Size (Water Tender)",
        "Vehicle_Name": "5035",
        "Branch": "Fire Station Mapusa",
        "created": "30-12-2025 05:29:57+05:30",
        "lastUpdated": "30-12-2025 05:29:57+05:30"
      }
    },
    {
      "type": "Feature",
      "geometry": {
        "type": "LineString",
        "coordinates": [
          [
            73.8173267,
            15.4872583
          ],
          [
            73.8174317,
            15.487205
          ]
        ]
      },
      "properties": {
        "Vehicle_No": "GA07G2502 - Mid Size (Water Tender)",
        "Vehicle_Name": "5035",
        "Branch": "Fire Force Headquarters",
        "created": "30-12-2025 05:29:53+05:30",
        "lastUpdated": "30-12-2025 05:30:55+05:30"
      }
    }
  ]
}