{
  "type": "FeatureCollection",
  "metadata": {
    "date": "20260121",
    "source": "Directorate of Fire Emergency Services, Govt. of Goa",
    "description": "Daily GPS tracks of fire trucks",
    "lastUpdated": "2026-01-21T00:45:12.563Z",
    "count": 51
  },
  "features": [
    {
      "type": "Feature",
      "geometry": {
        "type": "LineString",
        "coordinates": [
          [
            73.7939867,
            15.5329267
          ]
        ]
      },
      "properties": {
        "Vehicle_No": "GA 07 G 0680-PIL(QUICK RESPONSE VEHICLE)",
        "Vehicle_Name": "4G",
        "Branch": "Fire Station Pilerne",
        "created": "21-01-2026 05:31:02+05:30",
        "lastUpdated": "21-01-2026 05:31:02+05:30"
      }
    },
    {
      "type": "Feature",
      "geometry": {
        "type": "LineString",
        "coordinates": [
          [
            73.914085,
            15.500315
          ],
          [
            73.914101,
            15.500327
          ]
        ]
      },
      "properties": {
        "Vehicle_No": "GA07G2506 - OLG Mid Size (Water Tender)",
        "Vehicle_Name": "TS101",
        "Branch": "Fire Station Old Goa",
        "created": "21-01-2026 05:29:07+05:30",
        "lastUpdated": "21-01-2026 05:33:12+05:30"
      }
    },
    {
      "type": "Feature",
      "geometry": {
        "type": "LineString",
        "coordinates": [
          [
            73.829376,
            15.523115
          ]
        ]
      },
      "properties": {
        "Vehicle_No": "GA 07 G 5115-POR(MINI WATER TENDER)",
        "Vehicle_Name": "TS101",
        "Branch": "Fire Station Porvorim",
        "created": "21-01-2026 05:30:55+05:30",
        "lastUpdated": "21-01-2026 05:30:55+05:30"
      }
    },
    {
      "type": "Feature",
      "geometry": {
        "type": "LineString",
        "coordinates": [
          [
            73.97065,
            15.269428
          ]
        ]
      },
      "properties": {
        "Vehicle_No": "GA 07 G 0350-MRG(WATER TENDER)",
        "Vehicle_Name": "TS101",
        "Branch": "Fire Station Margao",
        "created": "20-01-2026 19:24:31+05:30",
        "lastUpdated": "20-01-2026 19:24:31+05:30"
      }
    },
    {
      "type": "Feature",
      "geometry": {
        "type": "LineString",
        "coordinates": [
          [
            73.808815,
            15.5899
          ],
          [
            73.808601,
            15.589955
          ]
        ]
      },
      "properties": {
        "Vehicle_No": "GA 07 G 2900-MAP(MINI RESCUE TENDER)",
        "Vehicle_Name": "TS101",
        "Branch": "Fire Station Mapusa",
        "created": "21-01-2026 05:15:27+05:30",
        "lastUpdated": "21-01-2026 05:40:35+05:30"
      }
    },
    {
      "type": "Feature",
      "geometry": {
        "type": "LineString",
        "coordinates": [
          [
            73.817268,
            15.487218
          ]
        ]
      },
      "properties": {
        "Vehicle_No": "GA 07 G 7600-FFHQ(WATER BOUSER)",
        "Vehicle_Name": "TS101",
        "Branch": "Fire Force Headquarters",
        "created": "21-01-2026 05:30:20+05:30",
        "lastUpdated": "21-01-2026 05:30:20+05:30"
      }
    },
    {
      "type": "Feature",
      "geometry": {
        "type": "LineString",
        "coordinates": [
          [
            73.817307,
            15.487337
          ],
          [
            73.817299,
            15.487342
          ]
        ]
      },
      "properties": {
        "Vehicle_No": "GA 07 G 2002-FFHQ(TURN TABLE LADDER)",
        "Vehicle_Name": "TS101",
        "Branch": "Fire Force Headquarters",
        "created": "21-01-2026 05:29:45+05:30",
        "lastUpdated": "21-01-2026 05:33:49+05:30"
      }
    },
    {
      "type": "Feature",
      "geometry": {
        "type": "LineString",
        "coordinates": [
          [
            73.817123,
            15.486787
          ],
          [
            73.81707,
            15.486812
          ]
        ]
      },
      "properties": {
        "Vehicle_No": "GA 07 G 7101-FFHQ(WATER TENDER)",
        "Vehicle_Name": "TS101",
        "Branch": "Fire Force Headquarters",
        "created": "21-01-2026 05:28:19+05:30",
        "lastUpdated": "21-01-2026 05:32:24+05:30"
      }
    },
    {
      "type": "Feature",
      "geometry": {
        "type": "LineString",
        "coordinates": [
          [
            73.817093,
            15.48702
          ],
          [
            73.817001,
            15.487123
          ],
          [
            73.816925,
            15.487195
          ],
          [
            73.816986,
            15.487012
          ],
          [
            73.816978,
            15.48709
          ],
          [
            73.816895,
            15.48708
          ],
          [
            73.816917,
            15.487118
          ],
          [
            73.816986,
            15.487007
          ],
          [
            73.816986,
            15.487077
          ],
          [
            73.81691,
            15.487177
          ],
          [
            73.81694,
            15.487107
          ],
          [
            73.816887,
            15.4872
          ]
        ]
      },
      "properties": {
        "Vehicle_No": "GA 07 G 7677-FFHQ(EMERGENCY RESCUE)",
        "Vehicle_Name": "TS101",
        "Branch": "Fire Force Headquarters",
        "created": "21-01-2026 05:30:50+05:30",
        "lastUpdated": "21-01-2026 06:10:34+05:30"
      }
    },
    {
      "type": "Feature",
      "geometry": {
        "type": "LineString",
        "coordinates": [
          [
            73.817329,
            15.487222
          ],
          [
            73.81723,
            15.487242
          ]
        ]
      },
      "properties": {
        "Vehicle_No": "GA 07 G 1121-PNJ(EMERGENCY RESCUE)",
        "Vehicle_Name": "TS101",
        "Branch": "Fire Station Panaji",
        "created": "21-01-2026 05:29:42+05:30",
        "lastUpdated": "21-01-2026 05:31:38+05:30"
      }
    },
    {
      "type": "Feature",
      "geometry": {
        "type": "LineString",
        "coordinates": [
          [
            73.817368,
            15.486578
          ]
        ]
      },
      "properties": {
        "Vehicle_No": "GA 07 G 1571-FFHQ(QUICK RESPONSE)",
        "Vehicle_Name": "TS101",
        "Branch": "Fire Force Headquarters",
        "created": "21-01-2026 05:31:11+05:30",
        "lastUpdated": "21-01-2026 05:31:11+05:30"
      }
    },
    {
      "type": "Feature",
      "geometry": {
        "type": "LineString",
        "coordinates": [
          [
            73.808716,
            15.589848
          ]
        ]
      },
      "properties": {
        "Vehicle_No": "GA 07 G 8101-MAP(WATER TENDER)",
        "Vehicle_Name": "TS101",
        "Branch": "Fire Station Mapusa",
        "created": "21-01-2026 05:30:56+05:30",
        "lastUpdated": "21-01-2026 05:30:56+05:30"
      }
    },
    {
      "type": "Feature",
      "geometry": {
        "type": "LineString",
        "coordinates": [
          [
            73.9702233,
            15.2693733
          ],
          [
            73.9702966,
            15.2693833
          ],
          [
            73.9701083,
            15.2693566
          ],
          [
            73.9702316,
            15.2693666
          ],
          [
            73.9700516,
            15.269325
          ],
          [
            73.9703283,
            15.2693666
          ],
          [
            73.9701733,
            15.2694033
          ],
          [
            73.97024,
            15.2693749
          ],
          [
            73.9701333,
            15.2693766
          ],
          [
            73.9699783,
            15.2693933
          ],
          [
            73.970125,
            15.2693216
          ],
          [
            73.9700766,
            15.269355
          ],
          [
            73.9702466,
            15.2694116
          ],
          [
            73.970125,
            15.2694433
          ],
          [
            73.9700766,
            15.2695133
          ],
          [
            73.9700033,
            15.2695316
          ],
          [
            73.9701416,
            15.269395
          ],
          [
            73.970215,
            15.2693583
          ],
          [
            73.9701983,
            15.2693516
          ],
          [
            73.9701416,
            15.26946
          ],
          [
            73.9702633,
            15.2692316
          ],
          [
            73.9701733,
            15.2693133
          ],
          [
            73.970305,
            15.26935
          ],
          [
            73.9702966,
            15.2693966
          ],
          [
            73.96989,
            15.2693683
          ],
          [
            73.97024,
            15.2693333
          ],
          [
            73.9702466,
            15.2692733
          ],
          [
            73.97037,
            15.269325
          ],
          [
            73.970255,
            15.2692733
          ],
          [
            73.9701166,
            15.269295
          ],
          [
            73.97002,
            15.2693983
          ],
          [
            73.9701416,
            15.2693749
          ],
          [
            73.970345,
            15.26935
          ]
        ]
      },
      "properties": {
        "Vehicle_No": "GA 07 G 2317-MRG(EMERGENCY RESCUE TENDER)",
        "Vehicle_Name": "5035",
        "Branch": "Fire Station Margao",
        "created": "21-01-2026 05:30:19+05:30",
        "lastUpdated": "21-01-2026 06:15:05+05:30"
      }
    },
    {
      "type": "Feature",
      "geometry": {
        "type": "LineString",
        "coordinates": [
          [
            73.8169916,
            15.48655
          ],
          [
            73.8171299,
            15.48664
          ]
        ]
      },
      "properties": {
        "Vehicle_No": "GA 07 G 1570-VAS(QUICK RESPONSE FIRE TENDER)",
        "Vehicle_Name": "5035",
        "Branch": "Fire Station Vasco",
        "created": "21-01-2026 05:30:25+05:30",
        "lastUpdated": "21-01-2026 05:38:35+05:30"
      }
    },
    {
      "type": "Feature",
      "geometry": {
        "type": "LineString",
        "coordinates": [
          [
            73.8512616,
            15.3887783
          ]
        ]
      },
      "properties": {
        "Vehicle_No": "GA 07 G 4101-VAS(MS WATER TENDER)",
        "Vehicle_Name": "5035",
        "Branch": "Fire Station Vasco",
        "created": "21-01-2026 05:30:44+05:30",
        "lastUpdated": "21-01-2026 05:30:44+05:30"
      }
    },
    {
      "type": "Feature",
      "geometry": {
        "type": "LineString",
        "coordinates": [
          [
            73.8513267,
            15.388735
          ],
          [
            73.8512617,
            15.3886683
          ],
          [
            73.8512367,
            15.38876
          ]
        ]
      },
      "properties": {
        "Vehicle_No": "GA 07 G 0819-VAS(WATER/FOAM TENDER)",
        "Vehicle_Name": "4G",
        "Branch": "Fire Station Vasco",
        "created": "21-01-2026 05:31:05+05:30",
        "lastUpdated": "21-01-2026 05:48:26+05:30"
      }
    },
    {
      "type": "Feature",
      "geometry": {
        "type": "LineString",
        "coordinates": [
          [
            73.9704016,
            15.2694866
          ]
        ]
      },
      "properties": {
        "Vehicle_No": "GA 07 G 7100-MRG(WATER BOUSER)",
        "Vehicle_Name": "5035",
        "Branch": "Fire Station Margao",
        "created": "21-01-2026 05:30:40+05:30",
        "lastUpdated": "21-01-2026 05:30:40+05:30"
      }
    },
    {
      "type": "Feature",
      "geometry": {
        "type": "LineString",
        "coordinates": [
          [
            73.9705233,
            15.2693283
          ]
        ]
      },
      "properties": {
        "Vehicle_No": "GA 07 G 1568-MRG(QUICK RESPONSE )",
        "Vehicle_Name": "5035",
        "Branch": "Fire Station Margao",
        "created": "21-01-2026 05:29:57+05:30",
        "lastUpdated": "21-01-2026 05:29:57+05:30"
      }
    },
    {
      "type": "Feature",
      "geometry": {
        "type": "LineString",
        "coordinates": [
          [
            73.9702066,
            15.2694066
          ]
        ]
      },
      "properties": {
        "Vehicle_No": "GA 07 G 6101-MRG(WATER TENDER)",
        "Vehicle_Name": "5035",
        "Branch": "Fire Station Margao",
        "created": "21-01-2026 05:30:44+05:30",
        "lastUpdated": "21-01-2026 05:30:44+05:30"
      }
    },
    {
      "type": "Feature",
      "geometry": {
        "type": "LineString",
        "coordinates": [
          [
            73.9705483,
            15.26943
          ]
        ]
      },
      "properties": {
        "Vehicle_No": "GA 07 G 1001-MRG(AERIAL LADDER PLATFORM)",
        "Vehicle_Name": "5035",
        "Branch": "Fire Station Margao",
        "created": "21-01-2026 05:30:15+05:30",
        "lastUpdated": "21-01-2026 05:30:15+05:30"
      }
    },
    {
      "type": "Feature",
      "geometry": {
        "type": "LineString",
        "coordinates": [
          [
            74.002835,
            15.4027406
          ]
        ]
      },
      "properties": {
        "Vehicle_No": "GA 07 G 0820-BIC(WATER TEDNER)",
        "Vehicle_Name": "5026",
        "Branch": "Fire Station Bicholim",
        "created": "21-01-2026 05:30:29+05:30",
        "lastUpdated": "21-01-2026 05:30:29+05:30"
      }
    },
    {
      "type": "Feature",
      "geometry": {
        "type": "LineString",
        "coordinates": [
          [
            73.9139483,
            15.500225
          ]
        ]
      },
      "properties": {
        "Vehicle_No": "GA 07 G 5101-OLG(MS WATER TENDER)",
        "Vehicle_Name": "5035",
        "Branch": "Fire Station Old Goa",
        "created": "21-01-2026 05:30:25+05:30",
        "lastUpdated": "21-01-2026 05:30:25+05:30"
      }
    },
    {
      "type": "Feature",
      "geometry": {
        "type": "LineString",
        "coordinates": [
          [
            73.9466966,
            15.5895983
          ],
          [
            73.9462316,
            15.58927
          ],
          [
            73.946305,
            15.5892816
          ],
          [
            73.9467033,
            15.5893533
          ],
          [
            73.94672,
            15.5893683
          ],
          [
            73.946615,
            15.5890466
          ],
          [
            73.9466066,
            15.5893066
          ]
        ]
      },
      "properties": {
        "Vehicle_No": "GA 07 G 3101-BIC(MS WATER TENDER)",
        "Vehicle_Name": "5035",
        "Branch": "Fire Station Bicholim",
        "created": "21-01-2026 05:30:08+05:30",
        "lastUpdated": "21-01-2026 06:13:22+05:30"
      }
    },
    {
      "type": "Feature",
      "geometry": {
        "type": "LineString",
        "coordinates": [
          [
            73.9466633,
            15.5893183
          ]
        ]
      },
      "properties": {
        "Vehicle_No": "GA 07 G 1941-BIC(QUICK RESPONSE)",
        "Vehicle_Name": "5035",
        "Branch": "Fire Station Bicholim",
        "created": "21-01-2026 05:31:10+05:30",
        "lastUpdated": "21-01-2026 05:31:10+05:30"
      }
    },
    {
      "type": "Feature",
      "geometry": {
        "type": "LineString",
        "coordinates": [
          [
            73.8532383,
            15.3900983
          ]
        ]
      },
      "properties": {
        "Vehicle_No": "GA 07 G 2319-VAS (EMERGENCY RESCUE TENDER)",
        "Vehicle_Name": "5035",
        "Branch": "Fire Station Vasco",
        "created": "21-01-2026 05:30:59+05:30",
        "lastUpdated": "21-01-2026 05:30:59+05:30"
      }
    },
    {
      "type": "Feature",
      "geometry": {
        "type": "LineString",
        "coordinates": [
          [
            74.1389733,
            15.5310133
          ]
        ]
      },
      "properties": {
        "Vehicle_No": "GA 07 G 3737-VAP(WATER TENDER)",
        "Vehicle_Name": "5035",
        "Branch": "Fire Station Valpoi",
        "created": "21-01-2026 05:30:57+05:30",
        "lastUpdated": "21-01-2026 05:30:57+05:30"
      }
    },
    {
      "type": "Feature",
      "geometry": {
        "type": "LineString",
        "coordinates": [
          [
            74.00293,
            15.4027433
          ]
        ]
      },
      "properties": {
        "Vehicle_No": "GA 07 G 2318-PND(EMERGENCY RESCUE TENDER)",
        "Vehicle_Name": "5035",
        "Branch": "Fire Station Ponda",
        "created": "21-01-2026 05:30:29+05:30",
        "lastUpdated": "21-01-2026 05:30:29+05:30"
      }
    },
    {
      "type": "Feature",
      "geometry": {
        "type": "LineString",
        "coordinates": [
          [
            73.9073083,
            15.4141016
          ]
        ]
      },
      "properties": {
        "Vehicle_No": "GA 07 G 2004-PND(QUICK RESPONSE)",
        "Vehicle_Name": "5035",
        "Branch": "Fire Station Ponda",
        "created": "30-12-2025 13:47:09+05:30",
        "lastUpdated": "30-12-2025 13:47:09+05:30"
      }
    },
    {
      "type": "Feature",
      "geometry": {
        "type": "LineString",
        "coordinates": [
          [
            74.00297,
            15.4026183
          ]
        ]
      },
      "properties": {
        "Vehicle_No": "GA 07 G 9101-PND(WATER TENDER)",
        "Vehicle_Name": "5035",
        "Branch": "Fire Station Ponda",
        "created": "21-01-2026 05:30:54+05:30",
        "lastUpdated": "21-01-2026 05:30:54+05:30"
      }
    },
    {
      "type": "Feature",
      "geometry": {
        "type": "LineString",
        "coordinates": [
          [
            74.002815,
            15.4026933
          ]
        ]
      },
      "properties": {
        "Vehicle_No": "GA 07 G 9797-PND(WATER BOUSER)",
        "Vehicle_Name": "5035",
        "Branch": "Fire Station Ponda",
        "created": "21-01-2026 05:30:09+05:30",
        "lastUpdated": "21-01-2026 05:30:09+05:30"
      }
    },
    {
      "type": "Feature",
      "geometry": {
        "type": "LineString",
        "coordinates": [
          [
            74.0439533,
            15.0236283
          ]
        ]
      },
      "properties": {
        "Vehicle_No": "GA 07 G 6363-CAN(WATER TENDER)",
        "Vehicle_Name": "5035",
        "Branch": "Fire Station Canacona",
        "created": "21-01-2026 05:30:32+05:30",
        "lastUpdated": "21-01-2026 05:30:32+05:30"
      }
    },
    {
      "type": "Feature",
      "geometry": {
        "type": "LineString",
        "coordinates": [
          [
            74.0441249,
            15.0237666
          ]
        ]
      },
      "properties": {
        "Vehicle_No": "GA 07 G 1567-CAN(QUICK RESPONSE FT)",
        "Vehicle_Name": "5035",
        "Branch": "Fire Station Canacona",
        "created": "20-01-2026 12:51:17+05:30",
        "lastUpdated": "20-01-2026 12:51:17+05:30"
      }
    },
    {
      "type": "Feature",
      "geometry": {
        "type": "LineString",
        "coordinates": [
          [
            73.9362466,
            15.3697616
          ]
        ]
      },
      "properties": {
        "Vehicle_No": "GA 07 G 1569-VRN(QUICK RESPONSE)",
        "Vehicle_Name": "5035",
        "Branch": "Fire Station Verna",
        "created": "21-01-2026 05:30:33+05:30",
        "lastUpdated": "21-01-2026 05:30:33+05:30"
      }
    },
    {
      "type": "Feature",
      "geometry": {
        "type": "LineString",
        "coordinates": [
          [
            73.93361,
            15.3698833
          ],
          [
            73.9354166,
            15.3698833
          ],
          [
            73.9358566,
            15.3696966
          ],
          [
            73.9358566,
            15.3697216
          ],
          [
            73.9364016,
            15.3696983
          ],
          [
            73.93584,
            15.3697916
          ],
          [
            73.9357583,
            15.3697766
          ],
          [
            73.93575,
            15.369775
          ],
          [
            73.93719,
            15.3697983
          ]
        ]
      },
      "properties": {
        "Vehicle_No": "GA 07 G 9909-VRN(ADVANCE MULTI-PURPOSE)",
        "Vehicle_Name": "5035",
        "Branch": "Fire Station Verna",
        "created": "21-01-2026 05:31:11+05:30",
        "lastUpdated": "21-01-2026 06:14:55+05:30"
      }
    },
    {
      "type": "Feature",
      "geometry": {
        "type": "LineString",
        "coordinates": [
          [
            74.1387933,
            15.5311199
          ]
        ]
      },
      "properties": {
        "Vehicle_No": "GA 07 G 1942-VAP(QUICK RESPONSE)",
        "Vehicle_Name": "5035",
        "Branch": "Fire Station Valpoi",
        "created": "21-01-2026 05:31:07+05:30",
        "lastUpdated": "21-01-2026 05:31:07+05:30"
      }
    },
    {
      "type": "Feature",
      "geometry": {
        "type": "LineString",
        "coordinates": [
          [
            74.1035799,
            15.2603366
          ]
        ]
      },
      "properties": {
        "Vehicle_No": "GA 07 G 2003-CUR(QUICK RESPONSE)",
        "Vehicle_Name": "5035",
        "Branch": "Fire Station Curchorem",
        "created": "21-01-2026 05:30:53+05:30",
        "lastUpdated": "21-01-2026 05:30:53+05:30"
      }
    },
    {
      "type": "Feature",
      "geometry": {
        "type": "LineString",
        "coordinates": [
          [
            74.1037116,
            15.2604466
          ]
        ]
      },
      "properties": {
        "Vehicle_No": "GA 07 G 7447-CUR(EMERGENCY RESCUE)",
        "Vehicle_Name": "5035",
        "Branch": "Fire Station Curchorem",
        "created": "21-01-2026 05:30:43+05:30",
        "lastUpdated": "21-01-2026 05:30:43+05:30"
      }
    },
    {
      "type": "Feature",
      "geometry": {
        "type": "LineString",
        "coordinates": [
          [
            74.103785,
            15.26035
          ]
        ]
      },
      "properties": {
        "Vehicle_No": "GA 07 G 7557-CUR(WATER TENDER)",
        "Vehicle_Name": "5035",
        "Branch": "Fire Station Curchorem",
        "created": "21-01-2026 05:30:56+05:30",
        "lastUpdated": "21-01-2026 05:30:56+05:30"
      }
    },
    {
      "type": "Feature",
      "geometry": {
        "type": "LineString",
        "coordinates": [
          [
            74.1037916,
            15.2602883
          ]
        ]
      },
      "properties": {
        "Vehicle_No": "GA 07 G 7667-CUR(WATER BOUSER)",
        "Vehicle_Name": "5035",
        "Branch": "Fire Station Curchorem",
        "created": "21-01-2026 05:30:12+05:30",
        "lastUpdated": "21-01-2026 05:30:12+05:30"
      }
    },
    {
      "type": "Feature",
      "geometry": {
        "type": "LineString",
        "coordinates": [
          [
            73.9722983,
            15.4630817
          ]
        ]
      },
      "properties": {
        "Vehicle_No": "GA 07 G 4989-KUN(WATER TENDER)",
        "Vehicle_Name": "G-100",
        "Branch": "Fire Station Kundaim",
        "created": "21-01-2026 05:30:35+05:30",
        "lastUpdated": "21-01-2026 05:30:35+05:30"
      }
    },
    {
      "type": "Feature",
      "geometry": {
        "type": "LineString",
        "coordinates": [
          [
            73.7940061,
            15.5329333
          ],
          [
            73.7940111,
            15.5329667
          ]
        ]
      },
      "properties": {
        "Vehicle_No": "GA 07 G 2242-PIL(WATER TENDER)",
        "Vehicle_Name": "5026",
        "Branch": "Fire Station Pilerne",
        "created": "21-01-2026 05:28:42+05:30",
        "lastUpdated": "21-01-2026 05:31:21+05:30"
      }
    },
    {
      "type": "Feature",
      "geometry": {
        "type": "LineString",
        "coordinates": [
          [
            73.8091383,
            15.589905
          ],
          [
            73.8088533,
            15.5901533
          ],
          [
            73.8087567,
            15.5897917
          ],
          [
            73.808805,
            15.5896833
          ],
          [
            73.8088383,
            15.5895667
          ],
          [
            73.808895,
            15.590995
          ],
          [
            73.8081217,
            15.5881567
          ],
          [
            73.8047283,
            15.5852233
          ],
          [
            73.800765,
            15.5817017
          ],
          [
            73.7972417,
            15.580395
          ],
          [
            73.7931317,
            15.58079
          ],
          [
            73.7896483,
            15.58111
          ],
          [
            73.78287,
            15.58222
          ],
          [
            73.7821867,
            15.58211
          ],
          [
            73.7822517,
            15.5820667
          ],
          [
            73.782495,
            15.5818667
          ],
          [
            73.7826167,
            15.5816117
          ]
        ]
      },
      "properties": {
        "Vehicle_No": "GA 07 G 0681-MAP(QUICK RESPONSE)",
        "Vehicle_Name": "AT 5036A-4G",
        "Branch": "Fire Station Mapusa",
        "created": "21-01-2026 05:31:11+05:30",
        "lastUpdated": "21-01-2026 06:15:07+05:30"
      }
    },
    {
      "type": "Feature",
      "geometry": {
        "type": "LineString",
        "coordinates": [
          [
            73.7975967,
            15.7164439
          ]
        ]
      },
      "properties": {
        "Vehicle_No": "GA 07 G 2101-PER(MS WATER TENDER)",
        "Vehicle_Name": "AT5032-4G",
        "Branch": "Fire Station Pernem",
        "created": "21-01-2026 05:29:38+05:30",
        "lastUpdated": "21-01-2026 05:29:38+05:30"
      }
    },
    {
      "type": "Feature",
      "geometry": {
        "type": "LineString",
        "coordinates": [
          [
            73.7974894,
            15.7165117
          ]
        ]
      },
      "properties": {
        "Vehicle_No": "GA 07 G 4600-PER(MINI RESCUE TENDER)",
        "Vehicle_Name": "AT 5032-4G",
        "Branch": "Fire Station Pernem",
        "created": "21-01-2026 05:30:52+05:30",
        "lastUpdated": "21-01-2026 05:30:52+05:30"
      }
    },
    {
      "type": "Feature",
      "geometry": {
        "type": "LineString",
        "coordinates": [
          [
            73.8180539,
            15.4884167
          ],
          [
            73.8162567,
            15.4873922
          ]
        ]
      },
      "properties": {
        "Vehicle_No": "GA 07 G 7272-PNJ(WATER TENDER)",
        "Vehicle_Name": "AT-5032-4G",
        "Branch": "Fire Station Panaji",
        "created": "21-01-2026 05:30:44+05:30",
        "lastUpdated": "21-01-2026 06:10:53+05:30"
      }
    },
    {
      "type": "Feature",
      "geometry": {
        "type": "LineString",
        "coordinates": [
          [
            74.0210439,
            15.1862256
          ]
        ]
      },
      "properties": {
        "Vehicle_No": "GA07G2384- Cuncolim",
        "Vehicle_Name": "AT 5032-4G",
        "Branch": "Fire Station Cuncolim",
        "created": "21-01-2026 05:28:31+05:30",
        "lastUpdated": "21-01-2026 05:28:31+05:30"
      }
    },
    {
      "type": "Feature",
      "geometry": {
        "type": "LineString",
        "coordinates": [
          [
            73.7974933,
            15.7163717
          ]
        ]
      },
      "properties": {
        "Vehicle_No": "GA07G2507 - PER Mid Size (Water Tender)",
        "Vehicle_Name": "5035",
        "Branch": "Fire Station Pernem",
        "created": "21-01-2026 05:30:42+05:30",
        "lastUpdated": "21-01-2026 05:30:42+05:30"
      }
    },
    {
      "type": "Feature",
      "geometry": {
        "type": "LineString",
        "coordinates": [
          [
            74.1385817,
            15.530965
          ]
        ]
      },
      "properties": {
        "Vehicle_No": "GA07G2505 - VAP Mid Size (Water Tender)",
        "Vehicle_Name": "5035",
        "Branch": "Fire Station Valpoi",
        "created": "21-01-2026 05:30:48+05:30",
        "lastUpdated": "21-01-2026 05:30:48+05:30"
      }
    },
    {
      "type": "Feature",
      "geometry": {
        "type": "LineString",
        "coordinates": [
          [
            73.9466233,
            15.5890883
          ]
        ]
      },
      "properties": {
        "Vehicle_No": "GA07G2504 - BIC Mid Size (Water Tender)",
        "Vehicle_Name": "5035",
        "Branch": "Fire Station Bicholim",
        "created": "21-01-2026 05:30:39+05:30",
        "lastUpdated": "21-01-2026 05:30:39+05:30"
      }
    },
    {
      "type": "Feature",
      "geometry": {
        "type": "LineString",
        "coordinates": [
          [
            73.7830967,
            15.5811933
          ],
          [
            73.7830967,
            15.5812033
          ],
          [
            73.783,
            15.58123
          ],
          [
            73.7829183,
            15.581225
          ],
          [
            73.7828783,
            15.58125
          ],
          [
            73.78287,
            15.58126
          ],
          [
            73.7828617,
            15.58127
          ],
          [
            73.7828533,
            15.581285
          ],
          [
            73.7828533,
            15.5812933
          ],
          [
            73.7828533,
            15.581295
          ],
          [
            73.782845,
            15.5812967
          ],
          [
            73.7828367,
            15.5813017
          ],
          [
            73.782845,
            15.5813083
          ],
          [
            73.782845,
            15.581315
          ],
          [
            73.782845,
            15.5813117
          ],
          [
            73.7828533,
            15.5813083
          ],
          [
            73.7828617,
            15.581315
          ],
          [
            73.78287,
            15.5813067
          ],
          [
            73.7828617,
            15.5813117
          ]
        ]
      },
      "properties": {
        "Vehicle_No": "GA07G2503- MAP Mid Size (Water Tender)",
        "Vehicle_Name": "5035",
        "Branch": "Fire Station Mapusa",
        "created": "21-01-2026 05:31:11+05:30",
        "lastUpdated": "21-01-2026 05:58:41+05:30"
      }
    },
    {
      "type": "Feature",
      "geometry": {
        "type": "LineString",
        "coordinates": [
          [
            73.8171867,
            15.4870133
          ]
        ]
      },
      "properties": {
        "Vehicle_No": "GA07G2502 - FFHQ Mid Size (Water Tender)",
        "Vehicle_Name": "5035",
        "Branch": "Fire Force Headquarters",
        "created": "21-01-2026 05:31:01+05:30",
        "lastUpdated": "21-01-2026 05:31:01+05:30"
      }
    }
  ]
}