{
  "type": "FeatureCollection",
  "metadata": {
    "date": "20251223",
    "source": "Directorate of Fire Emergency Services, Govt. of Goa",
    "description": "Daily GPS tracks of fire trucks",
    "lastUpdated": "2025-12-23T04:30:44.529Z",
    "count": 52
  },
  "features": [
    {
      "type": "Feature",
      "geometry": {
        "type": "LineString",
        "coordinates": [
          [
            73.7939283,
            15.5329733
          ],
          [
            73.7941983,
            15.53329
          ],
          [
            73.794075,
            15.5332633
          ],
          [
            73.794035,
            15.5332967
          ],
          [
            73.7941817,
            15.5333633
          ],
          [
            73.794035,
            15.53304
          ],
          [
            73.7940917,
            15.532945
          ],
          [
            73.79401,
            15.5329383
          ]
        ]
      },
      "properties": {
        "Vehicle_No": "GA 07 G 0680-PIL(QUICK RESPONSE VEHICLE)",
        "Vehicle_Name": "4G",
        "Branch": "Fire Station Pilerne",
        "created": "23-12-2025 05:29:10",
        "lastUpdated": "23-12-2025 08:47:19"
      }
    },
    {
      "type": "Feature",
      "geometry": {
        "type": "LineString",
        "coordinates": [
          [
            73.914085,
            15.500348
          ]
        ]
      },
      "properties": {
        "Vehicle_No": "GA07G2506 - Mid Size (Water Tender)",
        "Vehicle_Name": "TS101",
        "Branch": "Fire Station Old Goa",
        "created": "22-12-2025 19:29:42",
        "lastUpdated": "22-12-2025 19:29:42"
      }
    },
    {
      "type": "Feature",
      "geometry": {
        "type": "LineString",
        "coordinates": [
          [
            73.829689,
            15.522823
          ],
          [
            73.829384,
            15.522988
          ],
          [
            73.829491,
            15.523097
          ],
          [
            73.829605,
            15.522847
          ],
          [
            73.829605,
            15.52284
          ],
          [
            73.829659,
            15.522777
          ],
          [
            73.829651,
            15.522778
          ],
          [
            73.829659,
            15.522772
          ],
          [
            73.829651,
            15.522758
          ],
          [
            73.829643,
            15.522768
          ],
          [
            73.829643,
            15.522778
          ],
          [
            73.829643,
            15.522795
          ],
          [
            73.829636,
            15.522817
          ],
          [
            73.829628,
            15.522818
          ],
          [
            73.829628,
            15.522822
          ],
          [
            73.82962,
            15.522825
          ],
          [
            73.829514,
            15.52281
          ],
          [
            73.829529,
            15.522813
          ],
          [
            73.829529,
            15.52282
          ],
          [
            73.829529,
            15.522815
          ],
          [
            73.829529,
            15.522825
          ],
          [
            73.829544,
            15.522815
          ],
          [
            73.829468,
            15.522818
          ],
          [
            73.829376,
            15.522968
          ]
        ]
      },
      "properties": {
        "Vehicle_No": "GA 07 G 5115-POR(MINI WATER TENDER)",
        "Vehicle_Name": "TS101",
        "Branch": "Fire Station Porvorim",
        "created": "23-12-2025 05:29:35",
        "lastUpdated": "23-12-2025 07:54:27"
      }
    },
    {
      "type": "Feature",
      "geometry": {
        "type": "LineString",
        "coordinates": [
          [
            73.970589,
            15.269468
          ],
          [
            73.970604,
            15.269428
          ]
        ]
      },
      "properties": {
        "Vehicle_No": "GA 07 G 0350-MRG(WATER TENDER)",
        "Vehicle_Name": "TS101",
        "Branch": "Fire Station Margao",
        "created": "23-12-2025 05:21:38",
        "lastUpdated": "23-12-2025 05:31:54"
      }
    },
    {
      "type": "Feature",
      "geometry": {
        "type": "LineString",
        "coordinates": [
          [
            73.8088,
            15.589898
          ],
          [
            73.808716,
            15.589908
          ],
          [
            73.80864,
            15.589942
          ],
          [
            73.808624,
            15.589935
          ],
          [
            73.808609,
            15.589943
          ],
          [
            73.808617,
            15.589947
          ],
          [
            73.808601,
            15.589952
          ],
          [
            73.808662,
            15.589962
          ],
          [
            73.80867,
            15.589957
          ],
          [
            73.808701,
            15.589928
          ],
          [
            73.808708,
            15.58998
          ],
          [
            73.808945,
            15.590943
          ],
          [
            73.812317,
            15.59083
          ],
          [
            73.813576,
            15.59435
          ],
          [
            73.810883,
            15.596985
          ],
          [
            73.807953,
            15.600897
          ],
          [
            73.804634,
            15.60284
          ],
          [
            73.80526,
            15.605642
          ],
          [
            73.805939,
            15.607322
          ],
          [
            73.805992,
            15.607453
          ],
          [
            73.806213,
            15.60819
          ],
          [
            73.806229,
            15.60823
          ],
          [
            73.80497,
            15.605042
          ],
          [
            73.804359,
            15.602633
          ],
          [
            73.804169,
            15.601782
          ],
          [
            73.804955,
            15.60133
          ],
          [
            73.805229,
            15.600782
          ],
          [
            73.805252,
            15.600732
          ],
          [
            73.805267,
            15.60071
          ],
          [
            73.804909,
            15.600185
          ],
          [
            73.804092,
            15.601058
          ],
          [
            73.800682,
            15.601187
          ],
          [
            73.799438,
            15.598958
          ],
          [
            73.799332,
            15.596663
          ],
          [
            73.802681,
            15.593907
          ],
          [
            73.804649,
            15.593497
          ],
          [
            73.806511,
            15.592477
          ],
          [
            73.808914,
            15.590723
          ],
          [
            73.808907,
            15.58987
          ],
          [
            73.808899,
            15.589865
          ],
          [
            73.808922,
            15.589835
          ]
        ]
      },
      "properties": {
        "Vehicle_No": "GA 07 G 2900-MAP(MINI RESCUE TENDER)",
        "Vehicle_Name": "TS101",
        "Branch": "Fire Station Mapusa",
        "created": "23-12-2025 05:29:41",
        "lastUpdated": "23-12-2025 09:24:16"
      }
    },
    {
      "type": "Feature",
      "geometry": {
        "type": "LineString",
        "coordinates": [
          [
            73.817543,
            15.486942
          ],
          [
            73.817108,
            15.487103
          ],
          [
            73.817093,
            15.487258
          ],
          [
            73.817215,
            15.487087
          ],
          [
            73.81723,
            15.487105
          ],
          [
            73.817062,
            15.48651
          ],
          [
            73.817345,
            15.48633
          ],
          [
            73.817284,
            15.486375
          ],
          [
            73.817169,
            15.486755
          ],
          [
            73.817192,
            15.48709
          ],
          [
            73.81691,
            15.487245
          ],
          [
            73.816925,
            15.487112
          ],
          [
            73.817009,
            15.486465
          ],
          [
            73.817253,
            15.486385
          ],
          [
            73.817368,
            15.486418
          ],
          [
            73.817123,
            15.48688
          ],
          [
            73.817131,
            15.487028
          ]
        ]
      },
      "properties": {
        "Vehicle_No": "GA 07 G 7600-FFHQ(WATER BOUSER)",
        "Vehicle_Name": "TS101",
        "Branch": "Fire Force Headquarters",
        "created": "23-12-2025 05:29:07",
        "lastUpdated": "23-12-2025 09:24:18"
      }
    },
    {
      "type": "Feature",
      "geometry": {
        "type": "LineString",
        "coordinates": [
          [
            73.817116,
            15.487195
          ],
          [
            73.817375,
            15.48742
          ],
          [
            73.817245,
            15.48737
          ],
          [
            73.81723,
            15.487357
          ],
          [
            73.817284,
            15.486897
          ],
          [
            73.817055,
            15.486568
          ],
          [
            73.817108,
            15.487142
          ]
        ]
      },
      "properties": {
        "Vehicle_No": "GA 07 G 2002-FFHQ(TURN TABLE LADDER)",
        "Vehicle_Name": "TS101",
        "Branch": "Fire Force Headquarters",
        "created": "23-12-2025 05:29:16",
        "lastUpdated": "23-12-2025 07:19:39"
      }
    },
    {
      "type": "Feature",
      "geometry": {
        "type": "LineString",
        "coordinates": [
          [
            73.817039,
            15.48682
          ],
          [
            73.817055,
            15.486877
          ],
          [
            73.816917,
            15.486817
          ],
          [
            73.816925,
            15.486837
          ],
          [
            73.817024,
            15.486935
          ],
          [
            73.817078,
            15.487452
          ],
          [
            73.81472,
            15.4893
          ],
          [
            73.811821,
            15.486287
          ],
          [
            73.80896,
            15.483322
          ],
          [
            73.808617,
            15.480907
          ],
          [
            73.808365,
            15.475513
          ],
          [
            73.80764,
            15.469642
          ],
          [
            73.805168,
            15.463732
          ],
          [
            73.803604,
            15.458387
          ],
          [
            73.803535,
            15.459632
          ],
          [
            73.805969,
            15.465182
          ],
          [
            73.807877,
            15.470915
          ],
          [
            73.808327,
            15.47714
          ],
          [
            73.808952,
            15.482782
          ],
          [
            73.812408,
            15.487043
          ],
          [
            73.815491,
            15.488665
          ],
          [
            73.817429,
            15.48678
          ],
          [
            73.817032,
            15.486972
          ],
          [
            73.816963,
            15.486823
          ]
        ]
      },
      "properties": {
        "Vehicle_No": "GA 07 G 7101-FFHQ(WATER TENDER)",
        "Vehicle_Name": "TS101",
        "Branch": "Fire Force Headquarters",
        "created": "23-12-2025 05:28:47",
        "lastUpdated": "23-12-2025 07:40:08"
      }
    },
    {
      "type": "Feature",
      "geometry": {
        "type": "LineString",
        "coordinates": [
          [
            73.817184,
            15.487297
          ],
          [
            73.817192,
            15.48719
          ],
          [
            73.817245,
            15.487308
          ],
          [
            73.817253,
            15.487312
          ],
          [
            73.817261,
            15.48731
          ]
        ]
      },
      "properties": {
        "Vehicle_No": "GA 07 G 7677-FFHQ(EMERGENCY RESCUE)",
        "Vehicle_Name": "TS101",
        "Branch": "Fire Force Headquarters",
        "created": "23-12-2025 05:27:28",
        "lastUpdated": "23-12-2025 07:08:53"
      }
    },
    {
      "type": "Feature",
      "geometry": {
        "type": "LineString",
        "coordinates": [
          [
            73.817177,
            15.487142
          ],
          [
            73.817276,
            15.487292
          ],
          [
            73.817261,
            15.48727
          ],
          [
            73.817268,
            15.487237
          ],
          [
            73.817238,
            15.487227
          ],
          [
            73.817215,
            15.487193
          ],
          [
            73.817192,
            15.48721
          ],
          [
            73.817223,
            15.487235
          ],
          [
            73.817268,
            15.487228
          ],
          [
            73.817299,
            15.487217
          ],
          [
            73.817307,
            15.487228
          ],
          [
            73.817307,
            15.487223
          ],
          [
            73.817314,
            15.487233
          ]
        ]
      },
      "properties": {
        "Vehicle_No": "GA 07 G 1121-PNJ(EMERGENCY RESCUE)",
        "Vehicle_Name": "TS101",
        "Branch": "Fire Station Panaji",
        "created": "23-12-2025 05:29:06",
        "lastUpdated": "23-12-2025 07:34:40"
      }
    },
    {
      "type": "Feature",
      "geometry": {
        "type": "LineString",
        "coordinates": [
          [
            73.817574,
            15.486725
          ],
          [
            73.817444,
            15.48666
          ],
          [
            73.81749,
            15.486733
          ],
          [
            73.817406,
            15.486503
          ],
          [
            73.817017,
            15.486482
          ],
          [
            73.817085,
            15.486437
          ],
          [
            73.817093,
            15.48643
          ],
          [
            73.817146,
            15.486407
          ],
          [
            73.817101,
            15.486398
          ],
          [
            73.817131,
            15.486393
          ],
          [
            73.817139,
            15.486383
          ],
          [
            73.817108,
            15.486413
          ],
          [
            73.817139,
            15.486438
          ],
          [
            73.817123,
            15.486343
          ],
          [
            73.817108,
            15.486385
          ],
          [
            73.817108,
            15.486392
          ],
          [
            73.817101,
            15.486383
          ],
          [
            73.817093,
            15.486372
          ],
          [
            73.817085,
            15.48638
          ],
          [
            73.817085,
            15.486383
          ],
          [
            73.817184,
            15.486857
          ],
          [
            73.817131,
            15.48693
          ],
          [
            73.816978,
            15.486687
          ],
          [
            73.81694,
            15.4867
          ],
          [
            73.816933,
            15.486663
          ],
          [
            73.817001,
            15.486643
          ],
          [
            73.816895,
            15.486667
          ],
          [
            73.817146,
            15.486768
          ],
          [
            73.81694,
            15.486633
          ],
          [
            73.816879,
            15.486645
          ],
          [
            73.816895,
            15.486623
          ],
          [
            73.816948,
            15.486575
          ],
          [
            73.817017,
            15.486542
          ],
          [
            73.817154,
            15.486427
          ],
          [
            73.817146,
            15.486378
          ],
          [
            73.81707,
            15.486368
          ],
          [
            73.817062,
            15.486373
          ],
          [
            73.817108,
            15.4864
          ],
          [
            73.817154,
            15.486443
          ],
          [
            73.817169,
            15.48647
          ],
          [
            73.817177,
            15.486447
          ]
        ]
      },
      "properties": {
        "Vehicle_No": "GA 07 G 1571-FFHQ(QUICK RESPONSE)",
        "Vehicle_Name": "TS101",
        "Branch": "Fire Force Headquarters",
        "created": "23-12-2025 05:29:18",
        "lastUpdated": "23-12-2025 09:55:18"
      }
    },
    {
      "type": "Feature",
      "geometry": {
        "type": "LineString",
        "coordinates": [
          [
            73.808861,
            15.589917
          ],
          [
            73.80867,
            15.589937
          ],
          [
            73.808586,
            15.58986
          ],
          [
            73.808609,
            15.589857
          ],
          [
            73.808624,
            15.589905
          ],
          [
            73.808701,
            15.589867
          ],
          [
            73.808807,
            15.590227
          ],
          [
            73.808815,
            15.590228
          ],
          [
            73.80883,
            15.590232
          ],
          [
            73.808815,
            15.590177
          ],
          [
            73.808792,
            15.589918
          ],
          [
            73.808708,
            15.589935
          ]
        ]
      },
      "properties": {
        "Vehicle_No": "GA 07 G 8101-MAP(WATER TENDER)",
        "Vehicle_Name": "TS101",
        "Branch": "Fire Station Mapusa",
        "created": "23-12-2025 05:28:02",
        "lastUpdated": "23-12-2025 09:15:17"
      }
    },
    {
      "type": "Feature",
      "geometry": {
        "type": "LineString",
        "coordinates": [
          [
            73.9700766,
            15.26937
          ],
          [
            73.9700766,
            15.2694583
          ],
          [
            73.9701333,
            15.2694583
          ],
          [
            73.9702316,
            15.2695699
          ],
          [
            73.9700766,
            15.2694516
          ],
          [
            73.9700766,
            15.269495
          ],
          [
            73.9700283,
            15.2695333
          ],
          [
            73.9702633,
            15.2694266
          ],
          [
            73.970125,
            15.2693866
          ],
          [
            73.9701666,
            15.269325
          ],
          [
            73.9700283,
            15.269325
          ],
          [
            73.9701416,
            15.269415
          ],
          [
            73.970125,
            15.2693566
          ],
          [
            73.9702633,
            15.26949
          ],
          [
            73.97019,
            15.2693933
          ],
          [
            73.970125,
            15.2693316
          ],
          [
            73.97002,
            15.269485
          ],
          [
            73.970215,
            15.2694233
          ],
          [
            73.9701983,
            15.2694799
          ],
          [
            73.9701733,
            15.269265
          ],
          [
            73.9700683,
            15.2694033
          ],
          [
            73.970085,
            15.2693566
          ],
          [
            73.97002,
            15.26936
          ],
          [
            73.9701983,
            15.26935
          ],
          [
            73.9701583,
            15.2694133
          ],
          [
            73.9701083,
            15.2694566
          ],
          [
            73.9701666,
            15.2694333
          ],
          [
            73.9700033,
            15.26956
          ],
          [
            73.9700766,
            15.2694416
          ],
          [
            73.9702233,
            15.2694716
          ],
          [
            73.9701583,
            15.2694116
          ],
          [
            73.9701733,
            15.269445
          ],
          [
            73.9701583,
            15.2693733
          ],
          [
            73.9699466,
            15.269475
          ],
          [
            73.9701166,
            15.2695316
          ],
          [
            73.9701166,
            15.2695066
          ],
          [
            73.9699633,
            15.2695083
          ],
          [
            73.970085,
            15.26931
          ],
          [
            73.9700766,
            15.2693033
          ],
          [
            73.9701983,
            15.2694816
          ],
          [
            73.9701333,
            15.2694783
          ],
          [
            73.970035,
            15.26937
          ],
          [
            73.97019,
            15.26969
          ],
          [
            73.9701816,
            15.2695766
          ],
          [
            73.9700033,
            15.2693116
          ],
          [
            73.9700283,
            15.2692183
          ],
          [
            73.9701083,
            15.2693183
          ],
          [
            73.97006,
            15.2693766
          ],
          [
            73.9701416,
            15.269355
          ],
          [
            73.9701166,
            15.2693316
          ],
          [
            73.97015,
            15.2694266
          ],
          [
            73.9701816,
            15.2693416
          ],
          [
            73.9699216,
            15.26927
          ],
          [
            73.9701083,
            15.269385
          ],
          [
            73.970125,
            15.2694199
          ],
          [
            73.969955,
            15.26949
          ],
          [
            73.9700283,
            15.2692883
          ],
          [
            73.970125,
            15.26935
          ],
          [
            73.9700516,
            15.2694216
          ],
          [
            73.9699133,
            15.2693749
          ],
          [
            73.9700933,
            15.26946
          ],
          [
            73.9700683,
            15.26934
          ],
          [
            73.9701333,
            15.2695233
          ],
          [
            73.97019,
            15.26937
          ],
          [
            73.9702883,
            15.2694816
          ],
          [
            73.9701983,
            15.269385
          ],
          [
            73.97006,
            15.2692683
          ],
          [
            73.9699866,
            15.269385
          ],
          [
            73.9700766,
            15.2697433
          ],
          [
            73.9702316,
            15.2694433
          ],
          [
            73.9702316,
            15.269485
          ],
          [
            73.9700766,
            15.2693233
          ],
          [
            73.9700033,
            15.26937
          ],
          [
            73.9699866,
            15.2694799
          ],
          [
            73.9702233,
            15.269485
          ],
          [
            73.9701983,
            15.2694133
          ],
          [
            73.9700683,
            15.26938
          ],
          [
            73.97006,
            15.2694349
          ],
          [
            73.9701016,
            15.2694116
          ],
          [
            73.9701016,
            15.2693666
          ],
          [
            73.9701583,
            15.2694033
          ],
          [
            73.9700933,
            15.2694016
          ],
          [
            73.9702633,
            15.2693383
          ],
          [
            73.9700033,
            15.2693983
          ],
          [
            73.970125,
            15.2694033
          ],
          [
            73.969995,
            15.2694783
          ],
          [
            73.9699783,
            15.2693066
          ],
          [
            73.9700116,
            15.2693833
          ],
          [
            73.97015,
            15.2692083
          ],
          [
            73.9701016,
            15.2692916
          ],
          [
            73.9702233,
            15.2693966
          ],
          [
            73.9702716,
            15.269405
          ],
          [
            73.97019,
            15.2694333
          ],
          [
            73.9701983,
            15.2695366
          ],
          [
            73.97006,
            15.2694816
          ],
          [
            73.9701733,
            15.2694483
          ],
          [
            73.9701016,
            15.2692999
          ],
          [
            73.9702883,
            15.2691983
          ],
          [
            73.9701416,
            15.2693733
          ],
          [
            73.9701416,
            15.26926
          ],
          [
            73.9701016,
            15.26946
          ],
          [
            73.9701666,
            15.2694133
          ],
          [
            73.9702066,
            15.2693333
          ],
          [
            73.9701333,
            15.269355
          ],
          [
            73.970085,
            15.2693916
          ],
          [
            73.9701666,
            15.2693516
          ],
          [
            73.9702883,
            15.2693416
          ],
          [
            73.9702316,
            15.2693333
          ],
          [
            73.970255,
            15.2693566
          ],
          [
            73.970125,
            15.26935
          ],
          [
            73.9700683,
            15.2693883
          ],
          [
            73.9702066,
            15.2693333
          ],
          [
            73.9700283,
            15.2695216
          ],
          [
            73.9700283,
            15.269515
          ],
          [
            73.97015,
            15.2694133
          ],
          [
            73.9700516,
            15.2693866
          ],
          [
            73.97002,
            15.2694783
          ],
          [
            73.9700766,
            15.2694316
          ],
          [
            73.9701083,
            15.2692666
          ],
          [
            73.970125,
            15.2693383
          ],
          [
            73.970255,
            15.2693183
          ],
          [
            73.9698733,
            15.269235
          ],
          [
            73.9700033,
            15.2693516
          ],
          [
            73.969995,
            15.2694683
          ],
          [
            73.9700516,
            15.2694433
          ],
          [
            73.970085,
            15.2694266
          ],
          [
            73.96993,
            15.26945
          ],
          [
            73.9699866,
            15.2694416
          ],
          [
            73.9700683,
            15.26945
          ],
          [
            73.9700766,
            15.2694266
          ],
          [
            73.969865,
            15.2695033
          ],
          [
            73.9700516,
            15.2694933
          ],
          [
            73.970125,
            15.2694333
          ],
          [
            73.970125,
            15.2695083
          ],
          [
            73.970085,
            15.269515
          ],
          [
            73.97019,
            15.2694416
          ],
          [
            73.9701333,
            15.2693783
          ],
          [
            73.9700766,
            15.2694199
          ],
          [
            73.9700033,
            15.2694349
          ],
          [
            73.9699866,
            15.269415
          ],
          [
            73.9699783,
            15.2693566
          ],
          [
            73.9700433,
            15.26934
          ],
          [
            73.9699633,
            15.2694316
          ],
          [
            73.96997,
            15.2695183
          ],
          [
            73.9701166,
            15.2693916
          ],
          [
            73.9701583,
            15.26943
          ],
          [
            73.9700433,
            15.269425
          ],
          [
            73.9700766,
            15.2693299
          ],
          [
            73.97002,
            15.2693033
          ],
          [
            73.9700683,
            15.2693299
          ],
          [
            73.97002,
            15.2693766
          ],
          [
            73.97002,
            15.2694033
          ],
          [
            73.9700283,
            15.269305
          ],
          [
            73.9700033,
            15.2693216
          ],
          [
            73.97006,
            15.2694866
          ],
          [
            73.970035,
            15.26943
          ],
          [
            73.9700766,
            15.2693016
          ],
          [
            73.97015,
            15.2693666
          ],
          [
            73.97002,
            15.26962
          ],
          [
            73.9700683,
            15.26945
          ],
          [
            73.9700116,
            15.269425
          ],
          [
            73.9701333,
            15.269315
          ],
          [
            73.97006,
            15.2692399
          ],
          [
            73.9701333,
            15.2694116
          ],
          [
            73.9701816,
            15.269415
          ],
          [
            73.9702233,
            15.26947
          ],
          [
            73.97006,
            15.2694616
          ],
          [
            73.9700766,
            15.2697483
          ],
          [
            73.9702066,
            15.2694616
          ],
          [
            73.9702316,
            15.26941
          ],
          [
            73.97024,
            15.2693916
          ],
          [
            73.9701983,
            15.2694566
          ],
          [
            73.9701983,
            15.2694333
          ],
          [
            73.9701816,
            15.26941
          ],
          [
            73.9701583,
            15.2694433
          ],
          [
            73.97019,
            15.2693433
          ],
          [
            73.9700283,
            15.2695866
          ],
          [
            73.9700933,
            15.26946
          ],
          [
            73.970085,
            15.2694116
          ],
          [
            73.9701333,
            15.269355
          ],
          [
            73.97006,
            15.2694566
          ],
          [
            73.9701416,
            15.26941
          ],
          [
            73.970125,
            15.2693183
          ],
          [
            73.9701733,
            15.2694116
          ],
          [
            73.9700683,
            15.2695116
          ],
          [
            73.970125,
            15.2695033
          ],
          [
            73.9701083,
            15.2694383
          ],
          [
            73.9701666,
            15.2694033
          ],
          [
            73.9701333,
            15.26934
          ],
          [
            73.969995,
            15.26945
          ],
          [
            73.9700433,
            15.2695433
          ],
          [
            73.9702316,
            15.2694633
          ],
          [
            73.9701333,
            15.2694166
          ],
          [
            73.9701333,
            15.2692916
          ],
          [
            73.9700516,
            15.26938
          ],
          [
            73.97015,
            15.2692966
          ],
          [
            73.9700683,
            15.2693233
          ],
          [
            73.9702466,
            15.2692866
          ],
          [
            73.9700516,
            15.2693583
          ],
          [
            73.9698566,
            15.2693833
          ],
          [
            73.969955,
            15.2693883
          ],
          [
            73.9701733,
            15.2693933
          ],
          [
            73.9702233,
            15.2694349
          ],
          [
            73.970085,
            15.2694133
          ],
          [
            73.9701016,
            15.2694799
          ],
          [
            73.970125,
            15.2695516
          ]
        ]
      },
      "properties": {
        "Vehicle_No": "GA 07 G 2317-MRG(EMERGENCY RESCUE TENDER)",
        "Vehicle_Name": "5035",
        "Branch": "Fire Station Margao",
        "created": "23-12-2025 05:29:54",
        "lastUpdated": "23-12-2025 10:00:32"
      }
    },
    {
      "type": "Feature",
      "geometry": {
        "type": "LineString",
        "coordinates": [
          [
            73.8513266,
            15.3887783
          ]
        ]
      },
      "properties": {
        "Vehicle_No": "GA 07 G 1570-VAS(QUICK RESPONSE FIRE TENDER)",
        "Vehicle_Name": "5035",
        "Branch": "Fire Station Vasco",
        "created": "23-12-2025 05:30:13",
        "lastUpdated": "23-12-2025 05:30:13"
      }
    },
    {
      "type": "Feature",
      "geometry": {
        "type": "LineString",
        "coordinates": [
          [
            73.85092,
            15.3890783
          ]
        ]
      },
      "properties": {
        "Vehicle_No": "GA 07 G 4101-VAS(MS WATER TENDER)",
        "Vehicle_Name": "5035",
        "Branch": "Fire Station Vasco",
        "created": "23-12-2025 05:29:45",
        "lastUpdated": "23-12-2025 05:29:45"
      }
    },
    {
      "type": "Feature",
      "geometry": {
        "type": "LineString",
        "coordinates": [
          [
            73.8512367,
            15.3888217
          ],
          [
            73.851285,
            15.3888017
          ]
        ]
      },
      "properties": {
        "Vehicle_No": "GA 07 G 0819-VAS(WATER/FOAM TENDER)",
        "Vehicle_Name": "4G",
        "Branch": "Fire Station Vasco",
        "created": "23-12-2025 05:30:35",
        "lastUpdated": "23-12-2025 07:27:39"
      }
    },
    {
      "type": "Feature",
      "geometry": {
        "type": "LineString",
        "coordinates": [
          [
            73.97006,
            15.2694566
          ]
        ]
      },
      "properties": {
        "Vehicle_No": "GA 07 G 7100-MRG(WATER BOUSER)",
        "Vehicle_Name": "5035",
        "Branch": "Fire Station Margao",
        "created": "23-12-2025 05:30:11",
        "lastUpdated": "23-12-2025 05:30:11"
      }
    },
    {
      "type": "Feature",
      "geometry": {
        "type": "LineString",
        "coordinates": [
          [
            73.9706466,
            15.269325
          ]
        ]
      },
      "properties": {
        "Vehicle_No": "GA 07 G 1568-MRG(QUICK RESPONSE )",
        "Vehicle_Name": "5035",
        "Branch": "Fire Station Margao",
        "created": "23-12-2025 05:30:30",
        "lastUpdated": "23-12-2025 05:30:30"
      }
    },
    {
      "type": "Feature",
      "geometry": {
        "type": "LineString",
        "coordinates": [
          [
            73.9701416,
            15.2693733
          ]
        ]
      },
      "properties": {
        "Vehicle_No": "GA 07 G 6101-MRG(WATER TENDER)",
        "Vehicle_Name": "5035",
        "Branch": "Fire Station Margao",
        "created": "23-12-2025 05:30:13",
        "lastUpdated": "23-12-2025 05:30:13"
      }
    },
    {
      "type": "Feature",
      "geometry": {
        "type": "LineString",
        "coordinates": [
          [
            73.9697516,
            15.26946
          ],
          [
            73.969735,
            15.2695583
          ]
        ]
      },
      "properties": {
        "Vehicle_No": "GA 07 G 1001-MRG(AERIAL LADDER PLATFORM)",
        "Vehicle_Name": "5035",
        "Branch": "Fire Station Margao",
        "created": "23-12-2025 05:29:47",
        "lastUpdated": "23-12-2025 05:30:46"
      }
    },
    {
      "type": "Feature",
      "geometry": {
        "type": "LineString",
        "coordinates": [
          [
            74.0029172,
            15.4027094
          ]
        ]
      },
      "properties": {
        "Vehicle_No": "GA 07 G 0820-BIC(WATER TEDNER)",
        "Vehicle_Name": "5026",
        "Branch": "Fire Station Bicholim",
        "created": "23-12-2025 05:30:18",
        "lastUpdated": "23-12-2025 05:30:18"
      }
    },
    {
      "type": "Feature",
      "geometry": {
        "type": "LineString",
        "coordinates": [
          [
            73.91403,
            15.5003033
          ]
        ]
      },
      "properties": {
        "Vehicle_No": "GA 07 G 5101-OLG(MS WATER TENDER)",
        "Vehicle_Name": "5035",
        "Branch": "Fire Station Old Goa",
        "created": "23-12-2025 05:29:37",
        "lastUpdated": "23-12-2025 05:29:37"
      }
    },
    {
      "type": "Feature",
      "geometry": {
        "type": "LineString",
        "coordinates": [
          [
            73.9464766,
            15.5894383
          ],
          [
            73.9464933,
            15.5894466
          ],
          [
            73.9464683,
            15.5893983
          ],
          [
            73.9464433,
            15.5898933
          ],
          [
            73.9465,
            15.5895083
          ],
          [
            73.9464266,
            15.5893733
          ],
          [
            73.94659,
            15.5893516
          ],
          [
            73.9463216,
            15.5891033
          ],
          [
            73.9462883,
            15.5890733
          ],
          [
            73.9462233,
            15.5890266
          ],
          [
            73.94642,
            15.589135
          ],
          [
            73.9464266,
            15.5891233
          ],
          [
            73.9463533,
            15.5891133
          ],
          [
            73.9464033,
            15.58914
          ],
          [
            73.9463533,
            15.5891283
          ],
          [
            73.9463466,
            15.5890866
          ],
          [
            73.9462733,
            15.5888766
          ],
          [
            73.9464683,
            15.5882633
          ],
          [
            73.94677,
            15.5884866
          ],
          [
            73.9462966,
            15.5887716
          ],
          [
            73.9463783,
            15.588705
          ],
          [
            73.9465583,
            15.588885
          ],
          [
            73.9468916,
            15.5893416
          ],
          [
            73.94685,
            15.589435
          ],
          [
            73.9467766,
            15.5893966
          ],
          [
            73.9471349,
            15.5889166
          ],
          [
            73.9466966,
            15.58893
          ],
          [
            73.9466383,
            15.58892
          ],
          [
            73.9465983,
            15.5893333
          ],
          [
            73.9467366,
            15.5893266
          ],
          [
            73.9466966,
            15.589335
          ],
          [
            73.9465416,
            15.589325
          ],
          [
            73.9465583,
            15.5890766
          ],
          [
            73.9464766,
            15.5889266
          ],
          [
            73.9464933,
            15.5888116
          ],
          [
            73.946615,
            15.5889183
          ],
          [
            73.9463466,
            15.5891583
          ],
          [
            73.9462733,
            15.5890766
          ],
          [
            73.9464433,
            15.5893033
          ],
          [
            73.9464516,
            15.5887733
          ],
          [
            73.9465983,
            15.588995
          ],
          [
            73.9465083,
            15.5889766
          ],
          [
            73.9465416,
            15.5889533
          ],
          [
            73.94659,
            15.588885
          ],
          [
            73.9464116,
            15.5889283
          ],
          [
            73.9467933,
            15.5894816
          ],
          [
            73.9468583,
            15.5895316
          ],
          [
            73.9475666,
            15.5902183
          ],
          [
            73.9467033,
            15.5894116
          ],
          [
            73.9466233,
            15.589045
          ],
          [
            73.94668,
            15.5890083
          ],
          [
            73.9466066,
            15.588945
          ],
          [
            73.9465983,
            15.5889466
          ],
          [
            73.94685,
            15.5894166
          ],
          [
            73.9465583,
            15.5889416
          ],
          [
            73.9463616,
            15.5887183
          ],
          [
            73.9465499,
            15.589055
          ]
        ]
      },
      "properties": {
        "Vehicle_No": "GA 07 G 3101-BIC(MS WATER TENDER)",
        "Vehicle_Name": "5035",
        "Branch": "Fire Station Bicholim",
        "created": "23-12-2025 05:30:29",
        "lastUpdated": "23-12-2025 09:46:39"
      }
    },
    {
      "type": "Feature",
      "geometry": {
        "type": "LineString",
        "coordinates": [
          [
            73.9467033,
            15.5894533
          ]
        ]
      },
      "properties": {
        "Vehicle_No": "GA 07 G 1941-BIC(QUICK RESPONSE)",
        "Vehicle_Name": "5035",
        "Branch": "Fire Station Bicholim",
        "created": "23-12-2025 05:30:37",
        "lastUpdated": "23-12-2025 05:30:37"
      }
    },
    {
      "type": "Feature",
      "geometry": {
        "type": "LineString",
        "coordinates": [
          [
            73.8524983,
            15.3901916
          ]
        ]
      },
      "properties": {
        "Vehicle_No": "GA 07 G 2319-VAS (EMERGENCY RESCUE TENDER)",
        "Vehicle_Name": "5035",
        "Branch": "Fire Station Vasco",
        "created": "23-12-2025 05:29:50",
        "lastUpdated": "23-12-2025 05:29:50"
      }
    },
    {
      "type": "Feature",
      "geometry": {
        "type": "LineString",
        "coordinates": [
          [
            74.1387199,
            15.53099
          ]
        ]
      },
      "properties": {
        "Vehicle_No": "GA 07 G 3737-VAP(WATER TENDER)",
        "Vehicle_Name": "5035",
        "Branch": "Fire Station Valpoi",
        "created": "23-12-2025 05:30:39",
        "lastUpdated": "23-12-2025 05:30:39"
      }
    },
    {
      "type": "Feature",
      "geometry": {
        "type": "LineString",
        "coordinates": [
          [
            74.0028083,
            15.4028416
          ],
          [
            74.0028883,
            15.40276
          ],
          [
            74.0028966,
            15.4027999
          ],
          [
            74.0028966,
            15.40281
          ]
        ]
      },
      "properties": {
        "Vehicle_No": "GA 07 G 2318-PND(EMERGENCY RESCUE TENDER)",
        "Vehicle_Name": "5035",
        "Branch": "Fire Station Ponda",
        "created": "23-12-2025 05:29:57",
        "lastUpdated": "23-12-2025 09:07:11"
      }
    },
    {
      "type": "Feature",
      "geometry": {
        "type": "LineString",
        "coordinates": [
          [
            74.0028483,
            15.4026666
          ]
        ]
      },
      "properties": {
        "Vehicle_No": "GA 07 G 2004-PND(QUICK RESPONSE)",
        "Vehicle_Name": "5035",
        "Branch": "Fire Station Ponda",
        "created": "23-12-2025 05:29:21",
        "lastUpdated": "23-12-2025 05:29:21"
      }
    },
    {
      "type": "Feature",
      "geometry": {
        "type": "LineString",
        "coordinates": [
          [
            74.0028816,
            15.402745
          ],
          [
            74.0029133,
            15.4026733
          ],
          [
            74.0022216,
            15.403125
          ]
        ]
      },
      "properties": {
        "Vehicle_No": "GA 07 G 9101-PND(WATER TENDER)",
        "Vehicle_Name": "5035",
        "Branch": "Fire Station Ponda",
        "created": "23-12-2025 05:30:07",
        "lastUpdated": "23-12-2025 09:53:25"
      }
    },
    {
      "type": "Feature",
      "geometry": {
        "type": "LineString",
        "coordinates": [
          [
            74.00284,
            15.402635
          ],
          [
            74.00284,
            15.402765
          ],
          [
            74.002815,
            15.4027633
          ],
          [
            74.00284,
            15.4027733
          ]
        ]
      },
      "properties": {
        "Vehicle_No": "GA 07 G 9797-PND(WATER BOUSER)",
        "Vehicle_Name": "5035",
        "Branch": "Fire Station Ponda",
        "created": "23-12-2025 05:30:29",
        "lastUpdated": "23-12-2025 09:10:47"
      }
    },
    {
      "type": "Feature",
      "geometry": {
        "type": "LineString",
        "coordinates": [
          [
            74.0440433,
            15.0236183
          ]
        ]
      },
      "properties": {
        "Vehicle_No": "GA 07 G 6363-CAN(WATER TENDER)",
        "Vehicle_Name": "5035",
        "Branch": "Fire Station Canacona",
        "created": "23-12-2025 00:22:47",
        "lastUpdated": "23-12-2025 00:22:47"
      }
    },
    {
      "type": "Feature",
      "geometry": {
        "type": "LineString",
        "coordinates": [
          [
            74.0398266,
            15.0171383
          ]
        ]
      },
      "properties": {
        "Vehicle_No": "GA 07 G 1567-CAN(QUICK RESPONSE FT)",
        "Vehicle_Name": "5035",
        "Branch": "Fire Station Canacona",
        "created": "22-12-2025 19:24:16",
        "lastUpdated": "22-12-2025 19:24:16"
      }
    },
    {
      "type": "Feature",
      "geometry": {
        "type": "LineString",
        "coordinates": [
          [
            73.9355466,
            15.3699133
          ],
          [
            73.9356766,
            15.3694583
          ],
          [
            73.9360033,
            15.3702916
          ],
          [
            73.93562,
            15.3696433
          ]
        ]
      },
      "properties": {
        "Vehicle_No": "GA 07 G 1569-VRN(QUICK RESPONSE)",
        "Vehicle_Name": "5035",
        "Branch": "Fire Station Verna",
        "created": "23-12-2025 05:29:51",
        "lastUpdated": "23-12-2025 09:23:19"
      }
    },
    {
      "type": "Feature",
      "geometry": {
        "type": "LineString",
        "coordinates": [
          [
            73.9351966,
            15.3695866
          ],
          [
            73.9302333,
            15.372105
          ],
          [
            73.930225,
            15.3720899
          ],
          [
            73.935555,
            15.369755
          ]
        ]
      },
      "properties": {
        "Vehicle_No": "GA 07 G 9909-VRN(ADVANCE MULTI-PURPOSE)",
        "Vehicle_Name": "5035",
        "Branch": "Fire Station Verna",
        "created": "23-12-2025 05:29:55",
        "lastUpdated": "23-12-2025 09:21:38"
      }
    },
    {
      "type": "Feature",
      "geometry": {
        "type": "LineString",
        "coordinates": [
          [
            74.1388183,
            15.5311233
          ]
        ]
      },
      "properties": {
        "Vehicle_No": "GA 07 G 1942-VAP(QUICK RESPONSE)",
        "Vehicle_Name": "5035",
        "Branch": "Fire Station Valpoi",
        "created": "23-12-2025 05:30:02",
        "lastUpdated": "23-12-2025 05:30:02"
      }
    },
    {
      "type": "Feature",
      "geometry": {
        "type": "LineString",
        "coordinates": [
          [
            74.1037033,
            15.2603983
          ],
          [
            74.1037266,
            15.2603533
          ],
          [
            74.1036699,
            15.2606649
          ]
        ]
      },
      "properties": {
        "Vehicle_No": "GA 07 G 2003-CUR(QUICK RESPONSE)",
        "Vehicle_Name": "5035",
        "Branch": "Fire Station Curchorem",
        "created": "23-12-2025 05:30:07",
        "lastUpdated": "23-12-2025 09:53:49"
      }
    },
    {
      "type": "Feature",
      "geometry": {
        "type": "LineString",
        "coordinates": [
          [
            74.1037033,
            15.26048
          ]
        ]
      },
      "properties": {
        "Vehicle_No": "GA 07 G 7447-CUR(EMERGENCY RESCUE)",
        "Vehicle_Name": "5035",
        "Branch": "Fire Station Curchorem",
        "created": "23-12-2025 05:30:10",
        "lastUpdated": "23-12-2025 05:30:10"
      }
    },
    {
      "type": "Feature",
      "geometry": {
        "type": "LineString",
        "coordinates": [
          [
            74.10345,
            15.26045
          ]
        ]
      },
      "properties": {
        "Vehicle_No": "GA 07 G 7557-CUR(WATER TENDER)",
        "Vehicle_Name": "5035",
        "Branch": "Fire Station Curchorem",
        "created": "23-12-2025 05:29:59",
        "lastUpdated": "23-12-2025 05:29:59"
      }
    },
    {
      "type": "Feature",
      "geometry": {
        "type": "LineString",
        "coordinates": [
          [
            73.99108,
            15.1454033
          ],
          [
            73.99108,
            15.1454083
          ],
          [
            73.9910733,
            15.1454016
          ],
          [
            73.9910733,
            15.1454083
          ],
          [
            73.9910733,
            15.1454116
          ],
          [
            73.99108,
            15.14541
          ],
          [
            73.9910649,
            15.14541
          ],
          [
            73.9910649,
            15.1454149
          ],
          [
            73.9910649,
            15.1454266
          ]
        ]
      },
      "properties": {
        "Vehicle_No": "GA 07 G 7667-CUR(WATER BOUSER)",
        "Vehicle_Name": "5035",
        "Branch": "Fire Station Curchorem",
        "created": "23-12-2025 05:29:24",
        "lastUpdated": "23-12-2025 10:00:35"
      }
    },
    {
      "type": "Feature",
      "geometry": {
        "type": "LineString",
        "coordinates": [
          [
            73.9722983,
            15.4635767
          ],
          [
            73.9727783,
            15.4633017
          ],
          [
            73.97251,
            15.4630467
          ],
          [
            73.972135,
            15.463285
          ],
          [
            73.9725183,
            15.4630317
          ],
          [
            73.9726483,
            15.4630933
          ],
          [
            73.9713533,
            15.46394
          ],
          [
            73.9726067,
            15.4628117
          ],
          [
            73.9725667,
            15.46293
          ],
          [
            73.9724617,
            15.463055
          ],
          [
            73.9725183,
            15.4630683
          ],
          [
            73.9726483,
            15.463075
          ],
          [
            73.9721767,
            15.4631183
          ],
          [
            73.972185,
            15.46312
          ]
        ]
      },
      "properties": {
        "Vehicle_No": "GA 07 G 4989-KUN(WATER TENDER)",
        "Vehicle_Name": "G-100",
        "Branch": "Fire Station Kundaim",
        "created": "23-12-2025 05:30:29",
        "lastUpdated": "23-12-2025 09:27:24"
      }
    },
    {
      "type": "Feature",
      "geometry": {
        "type": "LineString",
        "coordinates": [
          [
            73.7941056,
            15.5328322
          ],
          [
            73.7940133,
            15.5329394
          ],
          [
            73.7940089,
            15.532965
          ],
          [
            73.79407,
            15.5329633
          ]
        ]
      },
      "properties": {
        "Vehicle_No": "GA 07 G 2242-PIL(WATER TENDER)",
        "Vehicle_Name": "5026",
        "Branch": "Fire Station Pilerne",
        "created": "23-12-2025 05:27:52",
        "lastUpdated": "23-12-2025 09:02:20"
      }
    },
    {
      "type": "Feature",
      "geometry": {
        "type": "LineString",
        "coordinates": [
          [
            73.8087733,
            15.589775
          ],
          [
            73.8089933,
            15.5901283
          ],
          [
            73.8088467,
            15.5902183
          ]
        ]
      },
      "properties": {
        "Vehicle_No": "GA 07 G 0681-MAP(QUICK RESPONSE)",
        "Vehicle_Name": "AT 5036A-4G",
        "Branch": "Fire Station Mapusa",
        "created": "23-12-2025 05:30:33",
        "lastUpdated": "23-12-2025 08:58:35"
      }
    },
    {
      "type": "Feature",
      "geometry": {
        "type": "LineString",
        "coordinates": [
          [
            73.7974239,
            15.7164939
          ]
        ]
      },
      "properties": {
        "Vehicle_No": "GA 07 G 0307-PER(QUICK RESPONSE)",
        "Vehicle_Name": "AT5032-4G",
        "Branch": "Fire Station Pernem",
        "created": "23-10-2025 15:19:09",
        "lastUpdated": "23-10-2025 15:19:09"
      }
    },
    {
      "type": "Feature",
      "geometry": {
        "type": "LineString",
        "coordinates": [
          [
            73.7975772,
            15.7163717
          ],
          [
            73.7973944,
            15.7164783
          ],
          [
            73.79743,
            15.7164789
          ]
        ]
      },
      "properties": {
        "Vehicle_No": "GA 07 G 2101-PER(MS WATER TENDER)",
        "Vehicle_Name": "AT5032-4G",
        "Branch": "Fire Station Pernem",
        "created": "23-12-2025 05:30:16",
        "lastUpdated": "23-12-2025 09:53:47"
      }
    },
    {
      "type": "Feature",
      "geometry": {
        "type": "LineString",
        "coordinates": [
          [
            73.7975167,
            15.7165206
          ],
          [
            73.7973756,
            15.7166633
          ],
          [
            73.7974189,
            15.7166183
          ],
          [
            73.7974528,
            15.7165961
          ],
          [
            73.7974644,
            15.7165878
          ],
          [
            73.7974706,
            15.7165867
          ],
          [
            73.7974778,
            15.716585
          ],
          [
            73.7974811,
            15.7165789
          ],
          [
            73.7974839,
            15.7165811
          ],
          [
            73.7974883,
            15.71658
          ],
          [
            73.7974872,
            15.7165778
          ],
          [
            73.7974878,
            15.7165778
          ],
          [
            73.7974883,
            15.7165783
          ]
        ]
      },
      "properties": {
        "Vehicle_No": "GA 07 G 4600-PER(MINI RESCUE TENDER)",
        "Vehicle_Name": "AT 5032-4G",
        "Branch": "Fire Station Pernem",
        "created": "23-12-2025 05:28:35",
        "lastUpdated": "23-12-2025 09:50:14"
      }
    },
    {
      "type": "Feature",
      "geometry": {
        "type": "LineString",
        "coordinates": [
          [
            73.8176922,
            15.4875411
          ],
          [
            73.8175178,
            15.4877517
          ],
          [
            73.8177167,
            15.4873628
          ],
          [
            73.8179689,
            15.4874739
          ],
          [
            73.8180383,
            15.4873872
          ],
          [
            73.8180956,
            15.4875489
          ],
          [
            73.8171333,
            15.4871094
          ],
          [
            73.81678,
            15.4867306
          ],
          [
            73.8171594,
            15.4867467
          ],
          [
            73.8170683,
            15.4867894
          ],
          [
            73.8167889,
            15.4868267
          ],
          [
            73.8173322,
            15.4872717
          ],
          [
            73.8177156,
            15.4876339
          ],
          [
            73.8179767,
            15.4876711
          ],
          [
            73.817995,
            15.4876756
          ],
          [
            73.8179439,
            15.4877328
          ],
          [
            73.8175983,
            15.4873817
          ],
          [
            73.817595,
            15.4873767
          ],
          [
            73.8175189,
            15.4871683
          ],
          [
            73.817825,
            15.4880567
          ]
        ]
      },
      "properties": {
        "Vehicle_No": "GA 07 G 7272-PNJ(WATER TENDER)",
        "Vehicle_Name": "AT-5032-4G",
        "Branch": "Fire Station Panaji",
        "created": "23-12-2025 05:30:26",
        "lastUpdated": "23-12-2025 09:56:09"
      }
    },
    {
      "type": "Feature",
      "geometry": {
        "type": "LineString",
        "coordinates": [
          [
            74.0209944,
            15.1862206
          ],
          [
            73.9984756,
            15.1789533
          ],
          [
            74.000755,
            15.1760989
          ],
          [
            74.0048289,
            15.1729389
          ],
          [
            74.0087367,
            15.1695317
          ],
          [
            74.0096683,
            15.1649178
          ],
          [
            74.012615,
            15.1620567
          ],
          [
            74.0117078,
            15.1590239
          ]
        ]
      },
      "properties": {
        "Vehicle_No": "GA07G2384- Cuncolim",
        "Vehicle_Name": "AT 5032-4G",
        "Branch": "Fire Station Cuncolim",
        "created": "23-12-2025 05:28:10",
        "lastUpdated": "23-12-2025 09:44:28"
      }
    },
    {
      "type": "Feature",
      "geometry": {
        "type": "LineString",
        "coordinates": [
          [
            73.7974933,
            15.7164733
          ]
        ]
      },
      "properties": {
        "Vehicle_No": "GA07G2507 - Mid Size (Water Tender)",
        "Vehicle_Name": "5035",
        "Branch": "Fire Station Pernem",
        "created": "23-12-2025 05:30:06",
        "lastUpdated": "23-12-2025 05:30:06"
      }
    },
    {
      "type": "Feature",
      "geometry": {
        "type": "LineString",
        "coordinates": [
          [
            74.13868,
            15.530985
          ],
          [
            74.136995,
            15.5308683
          ],
          [
            74.1338617,
            15.52967
          ],
          [
            74.1310133,
            15.5286067
          ],
          [
            74.12806,
            15.5268517
          ],
          [
            74.1238283,
            15.5262167
          ],
          [
            74.11687,
            15.5261867
          ],
          [
            74.1109783,
            15.5261733
          ],
          [
            74.1066083,
            15.5264817
          ],
          [
            74.0983967,
            15.530505
          ],
          [
            74.0894367,
            15.5383733
          ],
          [
            74.0843417,
            15.5412733
          ],
          [
            74.0795,
            15.5421667
          ],
          [
            74.0752683,
            15.5428617
          ],
          [
            74.0733233,
            15.5427533
          ],
          [
            74.07343,
            15.5433283
          ],
          [
            74.077815,
            15.542355
          ],
          [
            74.080965,
            15.541655
          ],
          [
            74.086825,
            15.5398867
          ],
          [
            74.0900383,
            15.5380233
          ],
          [
            74.09266,
            15.5354167
          ],
          [
            74.1023433,
            15.52687
          ],
          [
            74.1088217,
            15.5264967
          ],
          [
            74.1180017,
            15.5261133
          ],
          [
            74.1230633,
            15.5263733
          ],
          [
            74.1230467,
            15.526365
          ],
          [
            74.1230467,
            15.526355
          ],
          [
            74.1230717,
            15.5263383
          ],
          [
            74.1246417,
            15.5261
          ],
          [
            74.128955,
            15.52727
          ],
          [
            74.1319417,
            15.5289617
          ],
          [
            74.13365,
            15.5296017
          ],
          [
            74.136215,
            15.5300117
          ],
          [
            74.1381183,
            15.5318183
          ],
          [
            74.1392083,
            15.5311233
          ],
          [
            74.1390217,
            15.5310733
          ],
          [
            74.1386467,
            15.53103
          ],
          [
            74.1386317,
            15.5310067
          ],
          [
            74.1386067,
            15.5309583
          ]
        ]
      },
      "properties": {
        "Vehicle_No": "GA07G2505 - Mid Size (Water Tender)",
        "Vehicle_Name": "5035",
        "Branch": "Fire Station Valpoi",
        "created": "23-12-2025 05:30:06",
        "lastUpdated": "23-12-2025 09:58:44"
      }
    },
    {
      "type": "Feature",
      "geometry": {
        "type": "LineString",
        "coordinates": [
          [
            73.9465083,
            15.5890983
          ]
        ]
      },
      "properties": {
        "Vehicle_No": "GA07G2504 - Mid Size (Water Tender)",
        "Vehicle_Name": "5035",
        "Branch": "Fire Station Bicholim",
        "created": "23-12-2025 05:30:38",
        "lastUpdated": "23-12-2025 05:30:38"
      }
    },
    {
      "type": "Feature",
      "geometry": {
        "type": "LineString",
        "coordinates": [
          [
            73.80865,
            15.5900233
          ]
        ]
      },
      "properties": {
        "Vehicle_No": "GA07G2503-Mid Size (Water Tender)",
        "Vehicle_Name": "5035",
        "Branch": "Fire Station Mapusa",
        "created": "23-12-2025 05:30:03",
        "lastUpdated": "23-12-2025 05:30:03"
      }
    },
    {
      "type": "Feature",
      "geometry": {
        "type": "LineString",
        "coordinates": [
          [
            73.8172283,
            15.4870233
          ]
        ]
      },
      "properties": {
        "Vehicle_No": "GA07G2502 - Mid Size (Water Tender)",
        "Vehicle_Name": "5035",
        "Branch": "Fire Force Headquarters",
        "created": "23-12-2025 05:30:37",
        "lastUpdated": "23-12-2025 05:30:37"
      }
    }
  ]
}