{
  "type": "FeatureCollection",
  "metadata": {
    "date": "20260123",
    "source": "Directorate of Fire Emergency Services, Govt. of Goa",
    "description": "Daily GPS tracks of fire trucks",
    "lastUpdated": "2026-01-23T12:03:41.628Z",
    "count": 51
  },
  "features": [
    {
      "type": "Feature",
      "geometry": {
        "type": "LineString",
        "coordinates": [
          [
            73.8169833,
            15.486515
          ],
          [
            73.81678,
            15.4853367
          ],
          [
            73.816545,
            15.4845433
          ],
          [
            73.8117017,
            15.4826717
          ],
          [
            73.8110033,
            15.487075
          ],
          [
            73.8101733,
            15.4868083
          ],
          [
            73.80957,
            15.4862333
          ],
          [
            73.8095467,
            15.4860717
          ],
          [
            73.8094967,
            15.48656
          ],
          [
            73.80948,
            15.4866183
          ],
          [
            73.8094967,
            15.486615
          ]
        ]
      },
      "properties": {
        "Vehicle_No": "GA 07 G 0680-PIL(QUICK RESPONSE VEHICLE)",
        "Vehicle_Name": "4G",
        "Branch": "Fire Station Pilerne",
        "created": "23-01-2026 14:59:48+05:30",
        "lastUpdated": "23-01-2026 17:03:53+05:30"
      }
    },
    {
      "type": "Feature",
      "geometry": {
        "type": "LineString",
        "coordinates": [
          [
            73.914078,
            15.500328
          ]
        ]
      },
      "properties": {
        "Vehicle_No": "GA07G2506 - OLG Mid Size (Water Tender)",
        "Vehicle_Name": "TS101",
        "Branch": "Fire Station Old Goa",
        "created": "23-01-2026 14:58:41+05:30",
        "lastUpdated": "23-01-2026 14:58:41+05:30"
      }
    },
    {
      "type": "Feature",
      "geometry": {
        "type": "LineString",
        "coordinates": [
          [
            73.869453,
            15.665262
          ],
          [
            73.869476,
            15.665277
          ],
          [
            73.869476,
            15.665278
          ],
          [
            73.869476,
            15.66528
          ],
          [
            73.869484,
            15.665288
          ],
          [
            73.869499,
            15.665303
          ],
          [
            73.871277,
            15.668003
          ],
          [
            73.872986,
            15.66964
          ],
          [
            73.873779,
            15.670293
          ],
          [
            73.873795,
            15.670242
          ],
          [
            73.873817,
            15.670182
          ],
          [
            73.873795,
            15.67028
          ],
          [
            73.87381,
            15.670308
          ],
          [
            73.873817,
            15.670312
          ],
          [
            73.873817,
            15.67031
          ],
          [
            73.873825,
            15.670312
          ],
          [
            73.873817,
            15.67031
          ],
          [
            73.873833,
            15.670308
          ],
          [
            73.873833,
            15.67031
          ],
          [
            73.87384,
            15.670278
          ],
          [
            73.874588,
            15.67061
          ],
          [
            73.874908,
            15.670522
          ],
          [
            73.875015,
            15.670462
          ],
          [
            73.87513,
            15.6704
          ],
          [
            73.875816,
            15.669408
          ],
          [
            73.875938,
            15.66916
          ],
          [
            73.875961,
            15.669148
          ],
          [
            73.875908,
            15.669172
          ],
          [
            73.875923,
            15.66916
          ],
          [
            73.8759,
            15.669178
          ],
          [
            73.875923,
            15.66918
          ],
          [
            73.875931,
            15.669183
          ],
          [
            73.875938,
            15.669188
          ],
          [
            73.875954,
            15.669178
          ],
          [
            73.875977,
            15.669177
          ],
          [
            73.875992,
            15.669175
          ],
          [
            73.875999,
            15.669177
          ],
          [
            73.876015,
            15.669185
          ],
          [
            73.876007,
            15.669183
          ],
          [
            73.875816,
            15.6692
          ],
          [
            73.875786,
            15.669305
          ],
          [
            73.875137,
            15.670403
          ],
          [
            73.875053,
            15.670417
          ]
        ]
      },
      "properties": {
        "Vehicle_No": "GA 07 G 5115-POR(MINI WATER TENDER)",
        "Vehicle_Name": "TS101",
        "Branch": "Fire Station Porvorim",
        "created": "23-01-2026 15:00:10+05:30",
        "lastUpdated": "23-01-2026 17:33:37+05:30"
      }
    },
    {
      "type": "Feature",
      "geometry": {
        "type": "LineString",
        "coordinates": [
          [
            73.970634,
            15.269518
          ],
          [
            73.985069,
            15.270687
          ],
          [
            73.993774,
            15.270283
          ],
          [
            74.003212,
            15.272235
          ],
          [
            74.006264,
            15.280327
          ],
          [
            74.004196,
            15.285625
          ],
          [
            74.003014,
            15.283565
          ],
          [
            74.002708,
            15.283778
          ],
          [
            74.003059,
            15.283583
          ],
          [
            74.002853,
            15.282762
          ],
          [
            74.004356,
            15.281692
          ],
          [
            74.00589,
            15.278523
          ],
          [
            73.993652,
            15.270153
          ],
          [
            73.985023,
            15.270622
          ],
          [
            73.970192,
            15.269097
          ],
          [
            73.970215,
            15.269278
          ]
        ]
      },
      "properties": {
        "Vehicle_No": "GA 07 G 0350-MRG(WATER TENDER)",
        "Vehicle_Name": "TS101",
        "Branch": "Fire Station Margao",
        "created": "23-01-2026 14:57:35+05:30",
        "lastUpdated": "23-01-2026 16:37:42+05:30"
      }
    },
    {
      "type": "Feature",
      "geometry": {
        "type": "LineString",
        "coordinates": [
          [
            73.80883,
            15.589878
          ],
          [
            73.809502,
            15.591088
          ],
          [
            73.81337,
            15.592695
          ],
          [
            73.814522,
            15.594143
          ],
          [
            73.815727,
            15.59958
          ],
          [
            73.815605,
            15.6022
          ],
          [
            73.813759,
            15.604292
          ],
          [
            73.812675,
            15.610132
          ],
          [
            73.813385,
            15.618813
          ],
          [
            73.812721,
            15.621975
          ],
          [
            73.813896,
            15.616315
          ],
          [
            73.813942,
            15.613577
          ],
          [
            73.813545,
            15.604562
          ],
          [
            73.815758,
            15.600263
          ],
          [
            73.814301,
            15.593765
          ],
          [
            73.81292,
            15.591668
          ],
          [
            73.81086,
            15.590062
          ],
          [
            73.809578,
            15.589588
          ],
          [
            73.809555,
            15.591013
          ],
          [
            73.808769,
            15.59011
          ],
          [
            73.808853,
            15.589863
          ],
          [
            73.808823,
            15.589885
          ],
          [
            73.809006,
            15.59027
          ]
        ]
      },
      "properties": {
        "Vehicle_No": "GA 07 G 2900-MAP(MINI RESCUE TENDER)",
        "Vehicle_Name": "TS101",
        "Branch": "Fire Station Mapusa",
        "created": "23-01-2026 14:57:31+05:30",
        "lastUpdated": "23-01-2026 16:55:24+05:30"
      }
    },
    {
      "type": "Feature",
      "geometry": {
        "type": "LineString",
        "coordinates": [
          [
            73.817406,
            15.487397
          ],
          [
            73.817116,
            15.487387
          ],
          [
            73.814705,
            15.489382
          ],
          [
            73.810242,
            15.484535
          ],
          [
            73.808578,
            15.480115
          ],
          [
            73.808609,
            15.474095
          ],
          [
            73.806564,
            15.466112
          ],
          [
            73.803604,
            15.460357
          ],
          [
            73.80481,
            15.458305
          ],
          [
            73.809456,
            15.459192
          ],
          [
            73.815338,
            15.45982
          ],
          [
            73.826302,
            15.458442
          ],
          [
            73.839066,
            15.456787
          ],
          [
            73.838577,
            15.457158
          ],
          [
            73.838425,
            15.457158
          ],
          [
            73.838043,
            15.456565
          ],
          [
            73.838028,
            15.456558
          ],
          [
            73.837822,
            15.457052
          ],
          [
            73.837822,
            15.45705
          ],
          [
            73.837822,
            15.457052
          ],
          [
            73.837814,
            15.457057
          ],
          [
            73.837814,
            15.457058
          ],
          [
            73.837814,
            15.45706
          ],
          [
            73.837814,
            15.457063
          ],
          [
            73.837814,
            15.457068
          ],
          [
            73.837814,
            15.457065
          ],
          [
            73.837959,
            15.457202
          ],
          [
            73.838783,
            15.457123
          ],
          [
            73.836189,
            15.456498
          ],
          [
            73.824883,
            15.458738
          ],
          [
            73.818359,
            15.459165
          ],
          [
            73.812614,
            15.459232
          ],
          [
            73.803802,
            15.45745
          ],
          [
            73.803757,
            15.46136
          ],
          [
            73.806671,
            15.466582
          ],
          [
            73.808456,
            15.474768
          ],
          [
            73.810837,
            15.477632
          ],
          [
            73.813828,
            15.482048
          ],
          [
            73.816559,
            15.484583
          ],
          [
            73.817635,
            15.486627
          ],
          [
            73.817322,
            15.486828
          ],
          [
            73.817162,
            15.48683
          ]
        ]
      },
      "properties": {
        "Vehicle_No": "GA 07 G 7600-FFHQ(WATER BOUSER)",
        "Vehicle_Name": "TS101",
        "Branch": "Fire Force Headquarters",
        "created": "23-01-2026 14:59:14+05:30",
        "lastUpdated": "23-01-2026 17:11:18+05:30"
      }
    },
    {
      "type": "Feature",
      "geometry": {
        "type": "LineString",
        "coordinates": [
          [
            73.817314,
            15.487428
          ]
        ]
      },
      "properties": {
        "Vehicle_No": "GA 07 G 2002-FFHQ(TURN TABLE LADDER)",
        "Vehicle_Name": "TS101",
        "Branch": "Fire Force Headquarters",
        "created": "23-01-2026 15:00:17+05:30",
        "lastUpdated": "23-01-2026 15:00:17+05:30"
      }
    },
    {
      "type": "Feature",
      "geometry": {
        "type": "LineString",
        "coordinates": [
          [
            73.810715,
            15.482282
          ],
          [
            73.810715,
            15.482285
          ]
        ]
      },
      "properties": {
        "Vehicle_No": "GA 07 G 7101-FFHQ(WATER TENDER)",
        "Vehicle_Name": "TS101",
        "Branch": "Fire Force Headquarters",
        "created": "23-01-2026 14:56:46+05:30",
        "lastUpdated": "23-01-2026 15:39:12+05:30"
      }
    },
    {
      "type": "Feature",
      "geometry": {
        "type": "LineString",
        "coordinates": [
          [
            73.817291,
            15.487053
          ]
        ]
      },
      "properties": {
        "Vehicle_No": "GA 07 G 7677-FFHQ(EMERGENCY RESCUE)",
        "Vehicle_Name": "TS101",
        "Branch": "Fire Force Headquarters",
        "created": "23-01-2026 14:58:29+05:30",
        "lastUpdated": "23-01-2026 14:58:29+05:30"
      }
    },
    {
      "type": "Feature",
      "geometry": {
        "type": "LineString",
        "coordinates": [
          [
            73.817291,
            15.48734
          ]
        ]
      },
      "properties": {
        "Vehicle_No": "GA 07 G 1121-PNJ(EMERGENCY RESCUE)",
        "Vehicle_Name": "TS101",
        "Branch": "Fire Station Panaji",
        "created": "23-01-2026 15:00:17+05:30",
        "lastUpdated": "23-01-2026 15:00:17+05:30"
      }
    },
    {
      "type": "Feature",
      "geometry": {
        "type": "LineString",
        "coordinates": [
          [
            73.817551,
            15.486898
          ],
          [
            73.81707,
            15.486915
          ],
          [
            73.817047,
            15.486893
          ],
          [
            73.817024,
            15.48693
          ],
          [
            73.819839,
            15.490042
          ],
          [
            73.822479,
            15.495833
          ],
          [
            73.82489,
            15.497227
          ],
          [
            73.826172,
            15.497928
          ],
          [
            73.826195,
            15.498007
          ],
          [
            73.826187,
            15.497933
          ],
          [
            73.826195,
            15.497945
          ],
          [
            73.826187,
            15.49797
          ],
          [
            73.826118,
            15.498012
          ],
          [
            73.826118,
            15.498033
          ],
          [
            73.826172,
            15.497938
          ],
          [
            73.826187,
            15.497907
          ],
          [
            73.826195,
            15.497905
          ],
          [
            73.826225,
            15.49798
          ],
          [
            73.82621,
            15.49929
          ],
          [
            73.825584,
            15.500452
          ],
          [
            73.82338,
            15.500735
          ],
          [
            73.822342,
            15.500532
          ],
          [
            73.818581,
            15.494532
          ],
          [
            73.818535,
            15.494423
          ],
          [
            73.816353,
            15.487943
          ],
          [
            73.817108,
            15.486863
          ],
          [
            73.817047,
            15.486945
          ],
          [
            73.817123,
            15.486892
          ]
        ]
      },
      "properties": {
        "Vehicle_No": "GA 07 G 1571-FFHQ(QUICK RESPONSE)",
        "Vehicle_Name": "TS101",
        "Branch": "Fire Force Headquarters",
        "created": "23-01-2026 14:59:49+05:30",
        "lastUpdated": "23-01-2026 16:06:04+05:30"
      }
    },
    {
      "type": "Feature",
      "geometry": {
        "type": "LineString",
        "coordinates": [
          [
            73.834862,
            15.681083
          ],
          [
            73.837776,
            15.686045
          ],
          [
            73.840088,
            15.689482
          ],
          [
            73.840218,
            15.689513
          ],
          [
            73.836502,
            15.683608
          ],
          [
            73.836205,
            15.679288
          ],
          [
            73.836998,
            15.672117
          ],
          [
            73.838676,
            15.662858
          ],
          [
            73.837852,
            15.652745
          ],
          [
            73.834763,
            15.644488
          ],
          [
            73.831093,
            15.637
          ],
          [
            73.826836,
            15.629912
          ],
          [
            73.823044,
            15.62148
          ],
          [
            73.822693,
            15.614943
          ],
          [
            73.819893,
            15.595918
          ],
          [
            73.813416,
            15.592742
          ],
          [
            73.810829,
            15.590195
          ],
          [
            73.80999,
            15.590938
          ],
          [
            73.808762,
            15.589953
          ],
          [
            73.808792,
            15.589885
          ],
          [
            73.808998,
            15.591163
          ],
          [
            73.806145,
            15.592623
          ],
          [
            73.804695,
            15.593483
          ],
          [
            73.800781,
            15.594212
          ],
          [
            73.799454,
            15.595363
          ],
          [
            73.799042,
            15.596007
          ],
          [
            73.797539,
            15.595287
          ],
          [
            73.77964,
            15.596575
          ],
          [
            73.773773,
            15.591943
          ],
          [
            73.769043,
            15.590512
          ],
          [
            73.764549,
            15.589992
          ],
          [
            73.760612,
            15.587728
          ],
          [
            73.757515,
            15.587118
          ],
          [
            73.75592,
            15.586187
          ],
          [
            73.753853,
            15.58495
          ],
          [
            73.750771,
            15.58874
          ],
          [
            73.751984,
            15.593312
          ],
          [
            73.751343,
            15.593385
          ],
          [
            73.749672,
            15.593538
          ],
          [
            73.749664,
            15.593532
          ],
          [
            73.749664,
            15.593525
          ],
          [
            73.749664,
            15.59352
          ],
          [
            73.749672,
            15.59352
          ],
          [
            73.749672,
            15.593518
          ],
          [
            73.74968,
            15.593522
          ],
          [
            73.749672,
            15.59352
          ],
          [
            73.749672,
            15.593525
          ],
          [
            73.749672,
            15.59353
          ],
          [
            73.74968,
            15.593537
          ],
          [
            73.74968,
            15.593543
          ],
          [
            73.749466,
            15.593485
          ],
          [
            73.749474,
            15.593525
          ],
          [
            73.749489,
            15.593512
          ],
          [
            73.751877,
            15.594095
          ],
          [
            73.751572,
            15.59492
          ],
          [
            73.756561,
            15.594007
          ],
          [
            73.759109,
            15.592983
          ],
          [
            73.759506,
            15.59156
          ],
          [
            73.760422,
            15.587717
          ],
          [
            73.764221,
            15.588348
          ],
          [
            73.765602,
            15.590052
          ],
          [
            73.769966,
            15.590787
          ],
          [
            73.773468,
            15.591788
          ],
          [
            73.780266,
            15.59717
          ],
          [
            73.780762,
            15.597518
          ],
          [
            73.799355,
            15.596533
          ],
          [
            73.803139,
            15.593835
          ],
          [
            73.80545,
            15.593018
          ],
          [
            73.808968,
            15.591108
          ],
          [
            73.808739,
            15.58999
          ]
        ]
      },
      "properties": {
        "Vehicle_No": "GA 07 G 8101-MAP(WATER TENDER)",
        "Vehicle_Name": "TS101",
        "Branch": "Fire Station Mapusa",
        "created": "23-01-2026 15:00:12+05:30",
        "lastUpdated": "23-01-2026 17:17:08+05:30"
      }
    },
    {
      "type": "Feature",
      "geometry": {
        "type": "LineString",
        "coordinates": [
          [
            73.9699866,
            15.2694416
          ],
          [
            73.97006,
            15.2693216
          ],
          [
            73.970035,
            15.2693316
          ],
          [
            73.9699633,
            15.26935
          ],
          [
            73.9700433,
            15.2695083
          ],
          [
            73.9701733,
            15.26943
          ],
          [
            73.9698966,
            15.2692833
          ],
          [
            73.9697916,
            15.26934
          ],
          [
            73.970085,
            15.2693516
          ],
          [
            73.9697266,
            15.2691183
          ],
          [
            73.9699633,
            15.269325
          ],
          [
            73.9700516,
            15.26938
          ],
          [
            73.96984,
            15.26919
          ],
          [
            73.9698816,
            15.2692183
          ],
          [
            73.9700283,
            15.2701816
          ],
          [
            73.9699383,
            15.2694199
          ],
          [
            73.9699466,
            15.26936
          ],
          [
            73.9701166,
            15.2690966
          ],
          [
            73.970125,
            15.2693583
          ],
          [
            73.97006,
            15.2693299
          ],
          [
            73.9699783,
            15.2693733
          ],
          [
            73.970035,
            15.2692
          ],
          [
            73.97006,
            15.2693299
          ],
          [
            73.9699783,
            15.2691533
          ],
          [
            73.969905,
            15.2691816
          ],
          [
            73.9701733,
            15.2692083
          ],
          [
            73.9700033,
            15.2691649
          ],
          [
            73.9699216,
            15.2691983
          ],
          [
            73.9700933,
            15.269365
          ],
          [
            73.9702066,
            15.26947
          ],
          [
            73.970085,
            15.2693116
          ],
          [
            73.97015,
            15.26926
          ],
          [
            73.9700933,
            15.2692416
          ],
          [
            73.9701083,
            15.2694333
          ],
          [
            73.9700766,
            15.2695699
          ],
          [
            73.9701333,
            15.2695233
          ],
          [
            73.97015,
            15.269315
          ],
          [
            73.970085,
            15.2696733
          ],
          [
            73.969955,
            15.2692533
          ],
          [
            73.970085,
            15.2694016
          ],
          [
            73.9700683,
            15.2694416
          ],
          [
            73.9700116,
            15.2694683
          ],
          [
            73.9701016,
            15.2692933
          ],
          [
            73.9700933,
            15.2693616
          ],
          [
            73.9701333,
            15.2693566
          ],
          [
            73.9701333,
            15.2693733
          ],
          [
            73.9700283,
            15.2694866
          ],
          [
            73.9700766,
            15.2694883
          ],
          [
            73.97006,
            15.2694799
          ],
          [
            73.9701083,
            15.26947
          ],
          [
            73.9701016,
            15.26947
          ],
          [
            73.970085,
            15.2694433
          ],
          [
            73.970255,
            15.269535
          ],
          [
            73.9702883,
            15.2695083
          ],
          [
            73.9701166,
            15.269595
          ],
          [
            73.970215,
            15.2694383
          ],
          [
            73.9701016,
            15.2692966
          ],
          [
            73.9700766,
            15.2694883
          ],
          [
            73.970125,
            15.2694633
          ],
          [
            73.9702316,
            15.26947
          ],
          [
            73.9701666,
            15.2695066
          ],
          [
            73.9701083,
            15.2693433
          ],
          [
            73.9702716,
            15.2692583
          ],
          [
            73.9704433,
            15.2694383
          ],
          [
            73.9699383,
            15.269625
          ],
          [
            73.9700116,
            15.2694799
          ],
          [
            73.97006,
            15.2694233
          ],
          [
            73.9701666,
            15.2694583
          ],
          [
            73.97002,
            15.269545
          ],
          [
            73.9702716,
            15.2693916
          ],
          [
            73.9701983,
            15.2694633
          ],
          [
            73.96997,
            15.2695166
          ],
          [
            73.9700116,
            15.2695083
          ],
          [
            73.9703133,
            15.2696233
          ],
          [
            73.970255,
            15.2694349
          ],
          [
            73.97024,
            15.2694199
          ],
          [
            73.9700516,
            15.2694799
          ],
          [
            73.97006,
            15.2694349
          ],
          [
            73.9701583,
            15.26937
          ],
          [
            73.9700033,
            15.2694866
          ],
          [
            73.9701583,
            15.2692316
          ],
          [
            73.97015,
            15.2692383
          ],
          [
            73.9702316,
            15.269325
          ],
          [
            73.970305,
            15.2693066
          ],
          [
            73.9702316,
            15.2691683
          ],
          [
            73.9701816,
            15.26934
          ],
          [
            73.9702316,
            15.2694166
          ],
          [
            73.9701816,
            15.2693433
          ],
          [
            73.9703283,
            15.2693116
          ],
          [
            73.9702066,
            15.2693466
          ],
          [
            73.970215,
            15.2693233
          ],
          [
            73.9702466,
            15.2693216
          ],
          [
            73.9701333,
            15.2694166
          ],
          [
            73.97015,
            15.2693966
          ],
          [
            73.969995,
            15.2694816
          ],
          [
            73.9699383,
            15.2695166
          ]
        ]
      },
      "properties": {
        "Vehicle_No": "GA 07 G 2317-MRG(EMERGENCY RESCUE TENDER)",
        "Vehicle_Name": "5035",
        "Branch": "Fire Station Margao",
        "created": "23-01-2026 15:00:15+05:30",
        "lastUpdated": "23-01-2026 17:33:03+05:30"
      }
    },
    {
      "type": "Feature",
      "geometry": {
        "type": "LineString",
        "coordinates": [
          [
            73.8170816,
            15.4939433
          ]
        ]
      },
      "properties": {
        "Vehicle_No": "GA 07 G 1570-VAS(QUICK RESPONSE FIRE TENDER)",
        "Vehicle_Name": "5035",
        "Branch": "Fire Station Vasco",
        "created": "23-01-2026 14:59:58+05:30",
        "lastUpdated": "23-01-2026 14:59:58+05:30"
      }
    },
    {
      "type": "Feature",
      "geometry": {
        "type": "LineString",
        "coordinates": [
          [
            73.8512049,
            15.38895
          ]
        ]
      },
      "properties": {
        "Vehicle_No": "GA 07 G 4101-VAS(MS WATER TENDER)",
        "Vehicle_Name": "5035",
        "Branch": "Fire Station Vasco",
        "created": "23-01-2026 15:00:17+05:30",
        "lastUpdated": "23-01-2026 15:00:17+05:30"
      }
    },
    {
      "type": "Feature",
      "geometry": {
        "type": "LineString",
        "coordinates": [
          [
            73.8511467,
            15.3889683
          ]
        ]
      },
      "properties": {
        "Vehicle_No": "GA 07 G 0819-VAS(WATER/FOAM TENDER)",
        "Vehicle_Name": "4G",
        "Branch": "Fire Station Vasco",
        "created": "23-01-2026 15:00:02+05:30",
        "lastUpdated": "23-01-2026 15:00:02+05:30"
      }
    },
    {
      "type": "Feature",
      "geometry": {
        "type": "LineString",
        "coordinates": [
          [
            73.96984,
            15.2695483
          ],
          [
            73.9700683,
            15.2694349
          ]
        ]
      },
      "properties": {
        "Vehicle_No": "GA 07 G 7100-MRG(WATER BOUSER)",
        "Vehicle_Name": "5035",
        "Branch": "Fire Station Margao",
        "created": "23-01-2026 15:00:13+05:30",
        "lastUpdated": "23-01-2026 15:12:00+05:30"
      }
    },
    {
      "type": "Feature",
      "geometry": {
        "type": "LineString",
        "coordinates": [
          [
            73.970475,
            15.2693483
          ],
          [
            73.9703533,
            15.2719733
          ],
          [
            73.9684,
            15.2716233
          ],
          [
            73.9660066,
            15.271525
          ],
          [
            73.9606366,
            15.2715049
          ],
          [
            73.9596116,
            15.2717333
          ],
          [
            73.959685,
            15.2717266
          ]
        ]
      },
      "properties": {
        "Vehicle_No": "GA 07 G 1568-MRG(QUICK RESPONSE )",
        "Vehicle_Name": "5035",
        "Branch": "Fire Station Margao",
        "created": "23-01-2026 15:00:08+05:30",
        "lastUpdated": "23-01-2026 15:10:38+05:30"
      }
    },
    {
      "type": "Feature",
      "geometry": {
        "type": "LineString",
        "coordinates": [
          [
            74.0038816,
            15.2856966
          ],
          [
            74.0024583,
            15.2837566
          ],
          [
            74.0024249,
            15.2837566
          ],
          [
            74.0024333,
            15.28374
          ],
          [
            74.0024816,
            15.2837666
          ],
          [
            74.00249,
            15.28374
          ],
          [
            74.0024983,
            15.2837516
          ],
          [
            74.0026116,
            15.2837183
          ],
          [
            74.0026533,
            15.2837266
          ],
          [
            74.0026616,
            15.2837216
          ],
          [
            74.0026116,
            15.2837033
          ],
          [
            74.0025066,
            15.2836683
          ],
          [
            74.002465,
            15.2836683
          ],
          [
            74.0024083,
            15.2836766
          ],
          [
            74.002385,
            15.2836866
          ],
          [
            74.0023766,
            15.28372
          ],
          [
            74.0023933,
            15.283715
          ],
          [
            74.0024083,
            15.2836766
          ],
          [
            74.0024,
            15.28371
          ],
          [
            74.002385,
            15.2837016
          ],
          [
            74.00236,
            15.2837116
          ],
          [
            74.0023433,
            15.2837916
          ],
          [
            74.00236,
            15.28376
          ],
          [
            74.00236,
            15.2837383
          ],
          [
            74.0023933,
            15.2837266
          ],
          [
            74.002385,
            15.2837366
          ],
          [
            74.0023766,
            15.2837666
          ],
          [
            74.0024,
            15.283775
          ],
          [
            74.0023766,
            15.2837583
          ],
          [
            74.0024083,
            15.2837466
          ],
          [
            74.0024166,
            15.2837483
          ],
          [
            74.0024166,
            15.28375
          ],
          [
            74.0024249,
            15.2837133
          ],
          [
            74.0024166,
            15.2837083
          ],
          [
            74.0024333,
            15.2837133
          ],
          [
            74.0024083,
            15.2837283
          ],
          [
            74.0024249,
            15.2837633
          ],
          [
            74.0027999,
            15.2823533
          ],
          [
            74.0027999,
            15.28206
          ],
          [
            74.0056066,
            15.2814433
          ],
          [
            74.006145,
            15.2812883
          ],
          [
            74.006355,
            15.281285
          ],
          [
            74.0046216,
            15.2751483
          ],
          [
            74.0025716,
            15.2712816
          ],
          [
            73.9967616,
            15.2716333
          ],
          [
            73.987825,
            15.2700666
          ],
          [
            73.9846433,
            15.270625
          ],
          [
            73.9809566,
            15.2712283
          ],
          [
            73.9772783,
            15.2679383
          ],
          [
            73.970435,
            15.26863
          ],
          [
            73.9701166,
            15.2692933
          ],
          [
            73.9701333,
            15.2693216
          ],
          [
            73.97015,
            15.2693283
          ]
        ]
      },
      "properties": {
        "Vehicle_No": "GA 07 G 6101-MRG(WATER TENDER)",
        "Vehicle_Name": "5035",
        "Branch": "Fire Station Margao",
        "created": "23-01-2026 14:59:12+05:30",
        "lastUpdated": "23-01-2026 17:08:51+05:30"
      }
    },
    {
      "type": "Feature",
      "geometry": {
        "type": "LineString",
        "coordinates": [
          [
            73.969905,
            15.2695333
          ]
        ]
      },
      "properties": {
        "Vehicle_No": "GA 07 G 1001-MRG(AERIAL LADDER PLATFORM)",
        "Vehicle_Name": "5035",
        "Branch": "Fire Station Margao",
        "created": "23-01-2026 11:19:51+05:30",
        "lastUpdated": "23-01-2026 11:19:51+05:30"
      }
    },
    {
      "type": "Feature",
      "geometry": {
        "type": "LineString",
        "coordinates": [
          [
            74.002835,
            15.4027406
          ]
        ]
      },
      "properties": {
        "Vehicle_No": "GA 07 G 0820-BIC(WATER TEDNER)",
        "Vehicle_Name": "5026",
        "Branch": "Fire Station Bicholim",
        "created": "23-01-2026 14:59:39+05:30",
        "lastUpdated": "23-01-2026 14:59:39+05:30"
      }
    },
    {
      "type": "Feature",
      "geometry": {
        "type": "LineString",
        "coordinates": [
          [
            73.9139966,
            15.5002866
          ]
        ]
      },
      "properties": {
        "Vehicle_No": "GA 07 G 5101-OLG(MS WATER TENDER)",
        "Vehicle_Name": "5035",
        "Branch": "Fire Station Old Goa",
        "created": "23-01-2026 14:59:31+05:30",
        "lastUpdated": "23-01-2026 14:59:31+05:30"
      }
    },
    {
      "type": "Feature",
      "geometry": {
        "type": "LineString",
        "coordinates": [
          [
            73.94677,
            15.58928
          ],
          [
            73.9468583,
            15.5893166
          ],
          [
            73.9469316,
            15.5892683
          ],
          [
            73.9468666,
            15.58913
          ],
          [
            73.9466233,
            15.5891866
          ],
          [
            73.9465816,
            15.58899
          ],
          [
            73.94659,
            15.5889366
          ],
          [
            73.9465983,
            15.5890766
          ],
          [
            73.9466633,
            15.5895299
          ],
          [
            73.9463616,
            15.589435
          ],
          [
            73.9467449,
            15.5892783
          ],
          [
            73.946525,
            15.58903
          ],
          [
            73.9466233,
            15.5893266
          ],
          [
            73.9467033,
            15.5891666
          ],
          [
            73.94668,
            15.5891283
          ],
          [
            73.9464599,
            15.5892683
          ],
          [
            73.9467283,
            15.5894233
          ],
          [
            73.9466716,
            15.58942
          ],
          [
            73.9467533,
            15.5893533
          ],
          [
            73.9467616,
            15.589255
          ],
          [
            73.94768,
            15.5903233
          ],
          [
            73.9476566,
            15.5903833
          ],
          [
            73.9468833,
            15.5891783
          ],
          [
            73.9470133,
            15.5892666
          ]
        ]
      },
      "properties": {
        "Vehicle_No": "GA 07 G 3101-BIC(MS WATER TENDER)",
        "Vehicle_Name": "5035",
        "Branch": "Fire Station Bicholim",
        "created": "23-01-2026 14:59:58+05:30",
        "lastUpdated": "23-01-2026 17:27:06+05:30"
      }
    },
    {
      "type": "Feature",
      "geometry": {
        "type": "LineString",
        "coordinates": [
          [
            73.946615,
            15.589125
          ]
        ]
      },
      "properties": {
        "Vehicle_No": "GA 07 G 1941-BIC(QUICK RESPONSE)",
        "Vehicle_Name": "5035",
        "Branch": "Fire Station Bicholim",
        "created": "23-01-2026 15:00:11+05:30",
        "lastUpdated": "23-01-2026 15:00:11+05:30"
      }
    },
    {
      "type": "Feature",
      "geometry": {
        "type": "LineString",
        "coordinates": [
          [
            73.85127,
            15.3887449
          ]
        ]
      },
      "properties": {
        "Vehicle_No": "GA 07 G 2319-VAS (EMERGENCY RESCUE TENDER)",
        "Vehicle_Name": "5035",
        "Branch": "Fire Station Vasco",
        "created": "23-01-2026 14:59:28+05:30",
        "lastUpdated": "23-01-2026 14:59:28+05:30"
      }
    },
    {
      "type": "Feature",
      "geometry": {
        "type": "LineString",
        "coordinates": [
          [
            74.1389899,
            15.53104
          ]
        ]
      },
      "properties": {
        "Vehicle_No": "GA 07 G 3737-VAP(WATER TENDER)",
        "Vehicle_Name": "5035",
        "Branch": "Fire Station Valpoi",
        "created": "23-01-2026 14:59:56+05:30",
        "lastUpdated": "23-01-2026 14:59:56+05:30"
      }
    },
    {
      "type": "Feature",
      "geometry": {
        "type": "LineString",
        "coordinates": [
          [
            74.0030999,
            15.4027666
          ]
        ]
      },
      "properties": {
        "Vehicle_No": "GA 07 G 2318-PND(EMERGENCY RESCUE TENDER)",
        "Vehicle_Name": "5035",
        "Branch": "Fire Station Ponda",
        "created": "23-01-2026 15:00:01+05:30",
        "lastUpdated": "23-01-2026 15:00:01+05:30"
      }
    },
    {
      "type": "Feature",
      "geometry": {
        "type": "LineString",
        "coordinates": [
          [
            73.9702233,
            15.2692683
          ],
          [
            73.9705233,
            15.2720233
          ],
          [
            73.9731033,
            15.2742133
          ],
          [
            73.9738199,
            15.27599
          ],
          [
            73.9780766,
            15.2811083
          ],
          [
            73.9798983,
            15.2826383
          ],
          [
            73.9729166,
            15.2968866
          ],
          [
            73.9644283,
            15.3043333
          ],
          [
            73.9486483,
            15.3041133
          ],
          [
            73.9463533,
            15.3040066
          ],
          [
            73.9415766,
            15.3157349
          ],
          [
            73.93584,
            15.323985
          ],
          [
            73.9294516,
            15.3279533
          ],
          [
            73.9275316,
            15.3335266
          ],
          [
            73.9273433,
            15.335225
          ],
          [
            73.92749,
            15.34397
          ],
          [
            73.9274983,
            15.35057
          ],
          [
            73.927815,
            15.3535116
          ],
          [
            73.9259516,
            15.3626283
          ],
          [
            73.926075,
            15.36537
          ],
          [
            73.926205,
            15.3665433
          ],
          [
            73.9263833,
            15.36793
          ],
          [
            73.9264566,
            15.368235
          ],
          [
            73.9267016,
            15.3692083
          ],
          [
            73.9267166,
            15.3706466
          ],
          [
            73.9267016,
            15.3706466
          ],
          [
            73.9266683,
            15.3713799
          ],
          [
            73.926075,
            15.3748416
          ],
          [
            73.9256266,
            15.37716
          ],
          [
            73.9255133,
            15.3815116
          ],
          [
            73.919735,
            15.387795
          ],
          [
            73.91263,
            15.3956216
          ],
          [
            73.90817,
            15.4017183
          ],
          [
            73.9060716,
            15.4148383
          ],
          [
            73.8964766,
            15.4246133
          ],
          [
            73.8872633,
            15.4325233
          ],
          [
            73.8805833,
            15.438275
          ],
          [
            73.8720616,
            15.4421383
          ],
          [
            73.8638833,
            15.4446933
          ],
          [
            73.865145,
            15.4546266
          ],
          [
            73.8620683,
            15.4665666
          ],
          [
            73.8568283,
            15.4645449
          ],
          [
            73.851075,
            15.4580666
          ],
          [
            73.842945,
            15.4561866
          ],
          [
            73.8344733,
            15.4572466
          ],
          [
            73.8282466,
            15.4582866
          ],
          [
            73.8231033,
            15.4637816
          ],
          [
            73.820215,
            15.46649
          ],
          [
            73.8179116,
            15.4692366
          ],
          [
            73.8117833,
            15.4718266
          ],
          [
            73.81202,
            15.4758783
          ],
          [
            73.8124016,
            15.480635
          ],
          [
            73.8151616,
            15.4831033
          ],
          [
            73.8173099,
            15.4860533
          ],
          [
            73.8169433,
            15.4865683
          ],
          [
            73.8169766,
            15.4865816
          ],
          [
            73.81696,
            15.4865766
          ]
        ]
      },
      "properties": {
        "Vehicle_No": "GA 07 G 2004-PND(QUICK RESPONSE)",
        "Vehicle_Name": "5035",
        "Branch": "Fire Station Ponda",
        "created": "23-01-2026 14:59:17+05:30",
        "lastUpdated": "23-01-2026 16:35:41+05:30"
      }
    },
    {
      "type": "Feature",
      "geometry": {
        "type": "LineString",
        "coordinates": [
          [
            74.0031899,
            15.402765
          ]
        ]
      },
      "properties": {
        "Vehicle_No": "GA 07 G 9101-PND(WATER TENDER)",
        "Vehicle_Name": "5035",
        "Branch": "Fire Station Ponda",
        "created": "23-01-2026 14:59:47+05:30",
        "lastUpdated": "23-01-2026 14:59:47+05:30"
      }
    },
    {
      "type": "Feature",
      "geometry": {
        "type": "LineString",
        "coordinates": [
          [
            74.0029216,
            15.40271
          ]
        ]
      },
      "properties": {
        "Vehicle_No": "GA 07 G 9797-PND(WATER BOUSER)",
        "Vehicle_Name": "5035",
        "Branch": "Fire Station Ponda",
        "created": "23-01-2026 14:59:39+05:30",
        "lastUpdated": "23-01-2026 14:59:39+05:30"
      }
    },
    {
      "type": "Feature",
      "geometry": {
        "type": "LineString",
        "coordinates": [
          [
            74.0440349,
            15.0236816
          ]
        ]
      },
      "properties": {
        "Vehicle_No": "GA 07 G 6363-CAN(WATER TENDER)",
        "Vehicle_Name": "5035",
        "Branch": "Fire Station Canacona",
        "created": "23-01-2026 14:49:38+05:30",
        "lastUpdated": "23-01-2026 14:49:38+05:30"
      }
    },
    {
      "type": "Feature",
      "geometry": {
        "type": "LineString",
        "coordinates": [
          [
            74.0440916,
            15.0237033
          ]
        ]
      },
      "properties": {
        "Vehicle_No": "GA 07 G 1567-CAN(QUICK RESPONSE FT)",
        "Vehicle_Name": "5035",
        "Branch": "Fire Station Canacona",
        "created": "23-01-2026 10:07:23+05:30",
        "lastUpdated": "23-01-2026 10:07:23+05:30"
      }
    },
    {
      "type": "Feature",
      "geometry": {
        "type": "LineString",
        "coordinates": [
          [
            73.93558,
            15.3696266
          ],
          [
            73.9344083,
            15.367405
          ],
          [
            73.933155,
            15.3683683
          ],
          [
            73.9276366,
            15.3668566
          ],
          [
            73.9275716,
            15.3653133
          ],
          [
            73.9276033,
            15.365315
          ],
          [
            73.9275233,
            15.368895
          ],
          [
            73.9314933,
            15.3691083
          ],
          [
            73.9357416,
            15.369135
          ],
          [
            73.9355716,
            15.3696449
          ],
          [
            73.9349199,
            15.3698566
          ],
          [
            73.9348966,
            15.369825
          ],
          [
            73.9350016,
            15.36966
          ]
        ]
      },
      "properties": {
        "Vehicle_No": "GA 07 G 1569-VRN(QUICK RESPONSE)",
        "Vehicle_Name": "5035",
        "Branch": "Fire Station Verna",
        "created": "23-01-2026 14:59:34+05:30",
        "lastUpdated": "23-01-2026 16:00:31+05:30"
      }
    },
    {
      "type": "Feature",
      "geometry": {
        "type": "LineString",
        "coordinates": [
          [
            73.93549,
            15.3700383
          ],
          [
            73.9357583,
            15.3696449
          ],
          [
            73.9357916,
            15.3696316
          ],
          [
            73.9358066,
            15.3696333
          ]
        ]
      },
      "properties": {
        "Vehicle_No": "GA 07 G 9909-VRN(ADVANCE MULTI-PURPOSE)",
        "Vehicle_Name": "5035",
        "Branch": "Fire Station Verna",
        "created": "23-01-2026 14:59:34+05:30",
        "lastUpdated": "23-01-2026 15:28:32+05:30"
      }
    },
    {
      "type": "Feature",
      "geometry": {
        "type": "LineString",
        "coordinates": [
          [
            74.1444416,
            15.5355166
          ]
        ]
      },
      "properties": {
        "Vehicle_No": "GA 07 G 1942-VAP(QUICK RESPONSE)",
        "Vehicle_Name": "5035",
        "Branch": "Fire Station Valpoi",
        "created": "23-01-2026 15:00:04+05:30",
        "lastUpdated": "23-01-2026 15:00:04+05:30"
      }
    },
    {
      "type": "Feature",
      "geometry": {
        "type": "LineString",
        "coordinates": [
          [
            74.1034266,
            15.2616449
          ],
          [
            74.1036216,
            15.2602766
          ],
          [
            74.1036783,
            15.260715
          ],
          [
            74.1036699,
            15.2606916
          ]
        ]
      },
      "properties": {
        "Vehicle_No": "GA 07 G 2003-CUR(QUICK RESPONSE)",
        "Vehicle_Name": "5035",
        "Branch": "Fire Station Curchorem",
        "created": "23-01-2026 14:59:01+05:30",
        "lastUpdated": "23-01-2026 15:46:14+05:30"
      }
    },
    {
      "type": "Feature",
      "geometry": {
        "type": "LineString",
        "coordinates": [
          [
            74.1038416,
            15.2604016
          ]
        ]
      },
      "properties": {
        "Vehicle_No": "GA 07 G 7447-CUR(EMERGENCY RESCUE)",
        "Vehicle_Name": "5035",
        "Branch": "Fire Station Curchorem",
        "created": "23-01-2026 14:59:56+05:30",
        "lastUpdated": "23-01-2026 14:59:56+05:30"
      }
    },
    {
      "type": "Feature",
      "geometry": {
        "type": "LineString",
        "coordinates": [
          [
            74.10345,
            15.2604183
          ]
        ]
      },
      "properties": {
        "Vehicle_No": "GA 07 G 7557-CUR(WATER TENDER)",
        "Vehicle_Name": "5035",
        "Branch": "Fire Station Curchorem",
        "created": "23-01-2026 14:59:55+05:30",
        "lastUpdated": "23-01-2026 14:59:55+05:30"
      }
    },
    {
      "type": "Feature",
      "geometry": {
        "type": "LineString",
        "coordinates": [
          [
            74.1037266,
            15.2603033
          ]
        ]
      },
      "properties": {
        "Vehicle_No": "GA 07 G 7667-CUR(WATER BOUSER)",
        "Vehicle_Name": "5035",
        "Branch": "Fire Station Curchorem",
        "created": "23-01-2026 14:59:51+05:30",
        "lastUpdated": "23-01-2026 14:59:51+05:30"
      }
    },
    {
      "type": "Feature",
      "geometry": {
        "type": "LineString",
        "coordinates": [
          [
            73.97242,
            15.4630817
          ],
          [
            73.972575,
            15.4625217
          ],
          [
            73.9731533,
            15.4621183
          ],
          [
            73.9725833,
            15.4628033
          ],
          [
            73.9726567,
            15.4628117
          ],
          [
            73.9723467,
            15.463175
          ],
          [
            73.9728433,
            15.4629617
          ],
          [
            73.9728267,
            15.4634683
          ],
          [
            73.9727133,
            15.4630933
          ],
          [
            73.97229,
            15.4629667
          ],
          [
            73.9720467,
            15.4628983
          ],
          [
            73.972705,
            15.4634133
          ],
          [
            73.972615,
            15.4631367
          ],
          [
            73.9726733,
            15.4630033
          ],
          [
            73.972485,
            15.463465
          ],
          [
            73.9721183,
            15.4632133
          ],
          [
            73.972705,
            15.463495
          ],
          [
            73.9726733,
            15.4633167
          ],
          [
            73.9722817,
            15.4634717
          ],
          [
            73.9723883,
            15.4628333
          ],
          [
            73.9725417,
            15.4628933
          ],
          [
            73.9718583,
            15.4631367
          ],
          [
            73.972315,
            15.4633867
          ],
          [
            73.9723967,
            15.463295
          ],
          [
            73.9725183,
            15.4633167
          ],
          [
            73.9726483,
            15.4628783
          ],
          [
            73.9722983,
            15.46281
          ],
          [
            73.9718267,
            15.4630167
          ]
        ]
      },
      "properties": {
        "Vehicle_No": "GA 07 G 4989-KUN(WATER TENDER)",
        "Vehicle_Name": "G-100",
        "Branch": "Fire Station Kundaim",
        "created": "23-01-2026 15:00:00+05:30",
        "lastUpdated": "23-01-2026 17:30:54+05:30"
      }
    },
    {
      "type": "Feature",
      "geometry": {
        "type": "LineString",
        "coordinates": [
          [
            73.7941183,
            15.5329172
          ],
          [
            73.7943817,
            15.5338456
          ],
          [
            73.7919928,
            15.5396506
          ],
          [
            73.7900567,
            15.5397094
          ],
          [
            73.7896272,
            15.5409283
          ],
          [
            73.7889344,
            15.5503828
          ],
          [
            73.7896261,
            15.5559994
          ],
          [
            73.7886833,
            15.5669117
          ],
          [
            73.7879717,
            15.5679589
          ]
        ]
      },
      "properties": {
        "Vehicle_No": "GA 07 G 2242-PIL(WATER TENDER)",
        "Vehicle_Name": "5026",
        "Branch": "Fire Station Pilerne",
        "created": "23-01-2026 14:57:47+05:30",
        "lastUpdated": "23-01-2026 17:33:37+05:30"
      }
    },
    {
      "type": "Feature",
      "geometry": {
        "type": "LineString",
        "coordinates": [
          [
            73.80865,
            15.5898783
          ]
        ]
      },
      "properties": {
        "Vehicle_No": "GA 07 G 0681-MAP(QUICK RESPONSE)",
        "Vehicle_Name": "AT 5036A-4G",
        "Branch": "Fire Station Mapusa",
        "created": "23-01-2026 15:00:14+05:30",
        "lastUpdated": "23-01-2026 15:00:14+05:30"
      }
    },
    {
      "type": "Feature",
      "geometry": {
        "type": "LineString",
        "coordinates": [
          [
            73.8362722,
            15.6578156
          ],
          [
            73.83617,
            15.65778
          ],
          [
            73.8362172,
            15.6577872
          ],
          [
            73.8362289,
            15.657775
          ],
          [
            73.8362439,
            15.6577667
          ],
          [
            73.8361817,
            15.657815
          ],
          [
            73.8388239,
            15.65814
          ],
          [
            73.8385789,
            15.6600989
          ],
          [
            73.8385972,
            15.66123
          ],
          [
            73.8385767,
            15.6617572
          ],
          [
            73.8385244,
            15.6632833
          ],
          [
            73.8385344,
            15.6651183
          ],
          [
            73.8375094,
            15.6695494
          ],
          [
            73.8369183,
            15.6767189
          ],
          [
            73.8304317,
            15.6870122
          ],
          [
            73.8269872,
            15.6932594
          ],
          [
            73.8226167,
            15.6994278
          ],
          [
            73.82061,
            15.701685
          ],
          [
            73.8205811,
            15.7017006
          ],
          [
            73.8205772,
            15.7016928
          ],
          [
            73.8151922,
            15.7077683
          ],
          [
            73.8150389,
            15.7079344
          ]
        ]
      },
      "properties": {
        "Vehicle_No": "GA 07 G 2101-PER(MS WATER TENDER)",
        "Vehicle_Name": "AT5032-4G",
        "Branch": "Fire Station Pernem",
        "created": "23-01-2026 14:58:28+05:30",
        "lastUpdated": "23-01-2026 17:33:24+05:30"
      }
    },
    {
      "type": "Feature",
      "geometry": {
        "type": "LineString",
        "coordinates": [
          [
            73.7975528,
            15.7165056
          ]
        ]
      },
      "properties": {
        "Vehicle_No": "GA 07 G 4600-PER(MINI RESCUE TENDER)",
        "Vehicle_Name": "AT 5032-4G",
        "Branch": "Fire Station Pernem",
        "created": "23-01-2026 14:57:32+05:30",
        "lastUpdated": "23-01-2026 14:57:32+05:30"
      }
    },
    {
      "type": "Feature",
      "geometry": {
        "type": "LineString",
        "coordinates": [
          [
            73.8174872,
            15.48728
          ]
        ]
      },
      "properties": {
        "Vehicle_No": "GA 07 G 7272-PNJ(WATER TENDER)",
        "Vehicle_Name": "AT-5032-4G",
        "Branch": "Fire Station Panaji",
        "created": "23-01-2026 14:59:07+05:30",
        "lastUpdated": "23-01-2026 14:59:07+05:30"
      }
    },
    {
      "type": "Feature",
      "geometry": {
        "type": "LineString",
        "coordinates": [
          [
            74.0209994,
            15.1862506
          ]
        ]
      },
      "properties": {
        "Vehicle_No": "GA07G2384- Cuncolim",
        "Vehicle_Name": "AT 5032-4G",
        "Branch": "Fire Station Cuncolim",
        "created": "23-01-2026 14:57:42+05:30",
        "lastUpdated": "23-01-2026 14:57:42+05:30"
      }
    },
    {
      "type": "Feature",
      "geometry": {
        "type": "LineString",
        "coordinates": [
          [
            73.7895833,
            15.6921183
          ],
          [
            73.7868567,
            15.69288
          ],
          [
            73.7885983,
            15.6922717
          ],
          [
            73.7903483,
            15.69191
          ],
          [
            73.79152,
            15.6914367
          ],
          [
            73.7915283,
            15.6914383
          ],
          [
            73.7945067,
            15.6905067
          ],
          [
            73.799195,
            15.6968717
          ],
          [
            73.8014,
            15.7002733
          ],
          [
            73.8025317,
            15.70322
          ],
          [
            73.7982017,
            15.7122433
          ],
          [
            73.7978183,
            15.7160317
          ],
          [
            73.797745,
            15.7164483
          ],
          [
            73.79755,
            15.71649
          ],
          [
            73.7975833,
            15.7164983
          ],
          [
            73.79838,
            15.71325
          ],
          [
            73.799325,
            15.7077917
          ],
          [
            73.8007567,
            15.7058617
          ],
          [
            73.80074,
            15.7054783
          ],
          [
            73.8024817,
            15.70345
          ],
          [
            73.8000567,
            15.6976333
          ],
          [
            73.7948967,
            15.6909933
          ],
          [
            73.7867017,
            15.69304
          ],
          [
            73.7848883,
            15.6965867
          ],
          [
            73.7812417,
            15.6993517
          ],
          [
            73.781185,
            15.6994
          ],
          [
            73.7811683,
            15.6994183
          ]
        ]
      },
      "properties": {
        "Vehicle_No": "GA07G2507 - PER Mid Size (Water Tender)",
        "Vehicle_Name": "5035",
        "Branch": "Fire Station Pernem",
        "created": "23-01-2026 15:00:02+05:30",
        "lastUpdated": "23-01-2026 16:54:03+05:30"
      }
    },
    {
      "type": "Feature",
      "geometry": {
        "type": "LineString",
        "coordinates": [
          [
            74.138575,
            15.5309633
          ]
        ]
      },
      "properties": {
        "Vehicle_No": "GA07G2505 - VAP Mid Size (Water Tender)",
        "Vehicle_Name": "5035",
        "Branch": "Fire Station Valpoi",
        "created": "23-01-2026 14:59:45+05:30",
        "lastUpdated": "23-01-2026 14:59:45+05:30"
      }
    },
    {
      "type": "Feature",
      "geometry": {
        "type": "LineString",
        "coordinates": [
          [
            73.9466467,
            15.58935
          ],
          [
            73.9466233,
            15.5892267
          ]
        ]
      },
      "properties": {
        "Vehicle_No": "GA07G2504 - BIC Mid Size (Water Tender)",
        "Vehicle_Name": "5035",
        "Branch": "Fire Station Bicholim",
        "created": "23-01-2026 15:00:01+05:30",
        "lastUpdated": "23-01-2026 15:01:28+05:30"
      }
    },
    {
      "type": "Feature",
      "geometry": {
        "type": "LineString",
        "coordinates": [
          [
            73.8695717,
            15.665375
          ],
          [
            73.8695967,
            15.6653683
          ],
          [
            73.8696133,
            15.665365
          ],
          [
            73.869605,
            15.6653667
          ],
          [
            73.869605,
            15.6653733
          ],
          [
            73.86962,
            15.665365
          ],
          [
            73.871135,
            15.667865
          ],
          [
            73.873095,
            15.6697483
          ],
          [
            73.8732833,
            15.6699283
          ],
          [
            73.8733067,
            15.66992
          ],
          [
            73.8696533,
            15.6654483
          ],
          [
            73.8664233,
            15.6645633
          ],
          [
            73.8664067,
            15.6645483
          ],
          [
            73.8663983,
            15.6645017
          ],
          [
            73.8663817,
            15.6633817
          ],
          [
            73.8663817,
            15.6634133
          ],
          [
            73.8663817,
            15.6623917
          ],
          [
            73.866495,
            15.662245
          ]
        ]
      },
      "properties": {
        "Vehicle_No": "GA07G2503- MAP Mid Size (Water Tender)",
        "Vehicle_Name": "5035",
        "Branch": "Fire Station Mapusa",
        "created": "23-01-2026 15:00:08+05:30",
        "lastUpdated": "23-01-2026 17:18:56+05:30"
      }
    },
    {
      "type": "Feature",
      "geometry": {
        "type": "LineString",
        "coordinates": [
          [
            73.8160483,
            15.4930883
          ]
        ]
      },
      "properties": {
        "Vehicle_No": "GA07G2502 - FFHQ Mid Size (Water Tender)",
        "Vehicle_Name": "5035",
        "Branch": "Fire Force Headquarters",
        "created": "23-01-2026 14:59:09+05:30",
        "lastUpdated": "23-01-2026 14:59:09+05:30"
      }
    }
  ]
}