{
  "type": "FeatureCollection",
  "metadata": {
    "date": "20251226",
    "source": "Directorate of Fire Emergency Services, Govt. of Goa",
    "description": "Daily GPS tracks of fire trucks",
    "lastUpdated": "2025-12-26T03:27:11.844Z",
    "count": 52
  },
  "features": [
    {
      "type": "Feature",
      "geometry": {
        "type": "LineString",
        "coordinates": [
          [
            73.7939933,
            15.533075
          ]
        ]
      },
      "properties": {
        "Vehicle_No": "GA 07 G 0680-PIL(QUICK RESPONSE VEHICLE)",
        "Vehicle_Name": "4G",
        "Branch": "Fire Station Pilerne",
        "created": "26-12-2025 05:29:55+05:30",
        "lastUpdated": "26-12-2025 05:29:55+05:30"
      }
    },
    {
      "type": "Feature",
      "geometry": {
        "type": "LineString",
        "coordinates": [
          [
            73.914116,
            15.500415
          ],
          [
            73.914009,
            15.500303
          ]
        ]
      },
      "properties": {
        "Vehicle_No": "GA07G2506 - Mid Size (Water Tender)",
        "Vehicle_Name": "TS101",
        "Branch": "Fire Station Old Goa",
        "created": "26-12-2025 05:28:03+05:30",
        "lastUpdated": "26-12-2025 05:30:04+05:30"
      }
    },
    {
      "type": "Feature",
      "geometry": {
        "type": "LineString",
        "coordinates": [
          [
            73.829437,
            15.523053
          ],
          [
            73.829285,
            15.523028
          ],
          [
            73.829376,
            15.523102
          ],
          [
            73.829575,
            15.522835
          ],
          [
            73.829575,
            15.522842
          ],
          [
            73.829597,
            15.52284
          ],
          [
            73.829613,
            15.52283
          ],
          [
            73.829613,
            15.522825
          ],
          [
            73.82962,
            15.522827
          ],
          [
            73.829628,
            15.52282
          ],
          [
            73.829643,
            15.522813
          ],
          [
            73.829643,
            15.52281
          ],
          [
            73.829636,
            15.522813
          ],
          [
            73.82959,
            15.522837
          ],
          [
            73.82959,
            15.522835
          ],
          [
            73.82959,
            15.522843
          ],
          [
            73.82959,
            15.52285
          ],
          [
            73.82959,
            15.522853
          ],
          [
            73.829552,
            15.5228
          ],
          [
            73.829567,
            15.522788
          ],
          [
            73.829559,
            15.522782
          ],
          [
            73.829559,
            15.522783
          ],
          [
            73.829559,
            15.522787
          ],
          [
            73.829567,
            15.522793
          ],
          [
            73.829559,
            15.522795
          ],
          [
            73.829536,
            15.522788
          ],
          [
            73.829498,
            15.522895
          ],
          [
            73.829453,
            15.52353
          ],
          [
            73.829384,
            15.523077
          ]
        ]
      },
      "properties": {
        "Vehicle_No": "GA 07 G 5115-POR(MINI WATER TENDER)",
        "Vehicle_Name": "TS101",
        "Branch": "Fire Station Porvorim",
        "created": "26-12-2025 05:26:15+05:30",
        "lastUpdated": "26-12-2025 08:37:37+05:30"
      }
    },
    {
      "type": "Feature",
      "geometry": {
        "type": "LineString",
        "coordinates": [
          [
            73.970612,
            15.269468
          ],
          [
            73.970627,
            15.26942
          ]
        ]
      },
      "properties": {
        "Vehicle_No": "GA 07 G 0350-MRG(WATER TENDER)",
        "Vehicle_Name": "TS101",
        "Branch": "Fire Station Margao",
        "created": "26-12-2025 05:28:49+05:30",
        "lastUpdated": "26-12-2025 05:30:48+05:30"
      }
    },
    {
      "type": "Feature",
      "geometry": {
        "type": "LineString",
        "coordinates": [
          [
            73.808861,
            15.589878
          ],
          [
            73.808762,
            15.590022
          ],
          [
            73.808777,
            15.589948
          ],
          [
            73.808784,
            15.589945
          ],
          [
            73.808792,
            15.590255
          ],
          [
            73.808792,
            15.590252
          ],
          [
            73.8088,
            15.59025
          ],
          [
            73.808792,
            15.590252
          ],
          [
            73.808662,
            15.5899
          ]
        ]
      },
      "properties": {
        "Vehicle_No": "GA 07 G 2900-MAP(MINI RESCUE TENDER)",
        "Vehicle_Name": "TS101",
        "Branch": "Fire Station Mapusa",
        "created": "26-12-2025 05:28:30+05:30",
        "lastUpdated": "26-12-2025 07:45:57+05:30"
      }
    },
    {
      "type": "Feature",
      "geometry": {
        "type": "LineString",
        "coordinates": [
          [
            73.816994,
            15.487208
          ],
          [
            73.817169,
            15.486978
          ],
          [
            73.816963,
            15.487145
          ],
          [
            73.816978,
            15.48717
          ],
          [
            73.815048,
            15.489088
          ],
          [
            73.817009,
            15.492172
          ],
          [
            73.819366,
            15.497692
          ],
          [
            73.822006,
            15.500487
          ],
          [
            73.822983,
            15.500702
          ],
          [
            73.837677,
            15.499288
          ],
          [
            73.83667,
            15.499473
          ],
          [
            73.829025,
            15.50103
          ],
          [
            73.825012,
            15.500933
          ],
          [
            73.819069,
            15.49595
          ],
          [
            73.814812,
            15.489603
          ],
          [
            73.817734,
            15.486632
          ],
          [
            73.816986,
            15.486425
          ],
          [
            73.817207,
            15.486403
          ],
          [
            73.817207,
            15.486402
          ],
          [
            73.81723,
            15.486377
          ],
          [
            73.817253,
            15.486398
          ],
          [
            73.817146,
            15.486875
          ],
          [
            73.817032,
            15.48706
          ],
          [
            73.817024,
            15.487082
          ],
          [
            73.817055,
            15.487073
          ],
          [
            73.817047,
            15.487073
          ],
          [
            73.817093,
            15.487117
          ],
          [
            73.817039,
            15.487188
          ],
          [
            73.816994,
            15.487203
          ],
          [
            73.817062,
            15.487178
          ],
          [
            73.817024,
            15.487163
          ],
          [
            73.817017,
            15.487178
          ],
          [
            73.817062,
            15.487123
          ],
          [
            73.817123,
            15.487067
          ],
          [
            73.817101,
            15.487098
          ],
          [
            73.817017,
            15.48719
          ],
          [
            73.817032,
            15.487145
          ],
          [
            73.817139,
            15.487038
          ],
          [
            73.817093,
            15.487092
          ],
          [
            73.817017,
            15.487172
          ],
          [
            73.817101,
            15.487108
          ],
          [
            73.817131,
            15.487095
          ],
          [
            73.817169,
            15.487055
          ],
          [
            73.817123,
            15.487143
          ],
          [
            73.817215,
            15.487052
          ],
          [
            73.817108,
            15.487085
          ],
          [
            73.817146,
            15.48708
          ],
          [
            73.8172,
            15.487063
          ],
          [
            73.817101,
            15.487148
          ],
          [
            73.817169,
            15.487088
          ],
          [
            73.817078,
            15.48711
          ],
          [
            73.817039,
            15.487112
          ],
          [
            73.817078,
            15.487103
          ],
          [
            73.816994,
            15.487173
          ],
          [
            73.817032,
            15.487175
          ],
          [
            73.817123,
            15.48712
          ],
          [
            73.817101,
            15.487132
          ],
          [
            73.817101,
            15.487138
          ],
          [
            73.817078,
            15.487143
          ],
          [
            73.817101,
            15.487152
          ],
          [
            73.817116,
            15.487105
          ],
          [
            73.817123,
            15.487085
          ],
          [
            73.817078,
            15.487117
          ],
          [
            73.817108,
            15.48708
          ],
          [
            73.817123,
            15.487123
          ],
          [
            73.817093,
            15.487123
          ],
          [
            73.817131,
            15.487058
          ],
          [
            73.817123,
            15.487068
          ],
          [
            73.817108,
            15.487067
          ],
          [
            73.817093,
            15.487057
          ],
          [
            73.817093,
            15.487063
          ],
          [
            73.817039,
            15.487098
          ],
          [
            73.817017,
            15.487135
          ],
          [
            73.816994,
            15.487145
          ],
          [
            73.817009,
            15.487143
          ],
          [
            73.81707,
            15.48713
          ],
          [
            73.817001,
            15.487145
          ],
          [
            73.81707,
            15.487125
          ],
          [
            73.817093,
            15.487108
          ],
          [
            73.81707,
            15.48711
          ],
          [
            73.817039,
            15.487113
          ],
          [
            73.817047,
            15.48715
          ],
          [
            73.817055,
            15.487168
          ],
          [
            73.817101,
            15.48711
          ],
          [
            73.817039,
            15.487188
          ],
          [
            73.817039,
            15.48717
          ],
          [
            73.817017,
            15.487185
          ],
          [
            73.817009,
            15.487195
          ],
          [
            73.817017,
            15.487165
          ],
          [
            73.817024,
            15.487138
          ],
          [
            73.817055,
            15.487098
          ],
          [
            73.817001,
            15.48715
          ],
          [
            73.816971,
            15.48718
          ]
        ]
      },
      "properties": {
        "Vehicle_No": "GA 07 G 7600-FFHQ(WATER BOUSER)",
        "Vehicle_Name": "TS101",
        "Branch": "Fire Force Headquarters",
        "created": "26-12-2025 05:27:37+05:30",
        "lastUpdated": "26-12-2025 08:57:10+05:30"
      }
    },
    {
      "type": "Feature",
      "geometry": {
        "type": "LineString",
        "coordinates": [
          [
            73.817261,
            15.487472
          ],
          [
            73.817368,
            15.48735
          ]
        ]
      },
      "properties": {
        "Vehicle_No": "GA 07 G 2002-FFHQ(TURN TABLE LADDER)",
        "Vehicle_Name": "TS101",
        "Branch": "Fire Force Headquarters",
        "created": "26-12-2025 05:29:47+05:30",
        "lastUpdated": "26-12-2025 05:31:47+05:30"
      }
    },
    {
      "type": "Feature",
      "geometry": {
        "type": "LineString",
        "coordinates": [
          [
            73.817001,
            15.487005
          ],
          [
            73.817085,
            15.486912
          ]
        ]
      },
      "properties": {
        "Vehicle_No": "GA 07 G 7101-FFHQ(WATER TENDER)",
        "Vehicle_Name": "TS101",
        "Branch": "Fire Force Headquarters",
        "created": "26-12-2025 05:29:02+05:30",
        "lastUpdated": "26-12-2025 05:30:59+05:30"
      }
    },
    {
      "type": "Feature",
      "geometry": {
        "type": "LineString",
        "coordinates": [
          [
            73.817223,
            15.487287
          ],
          [
            73.817268,
            15.487183
          ],
          [
            73.817154,
            15.487257
          ],
          [
            73.80732,
            15.468972
          ],
          [
            73.804375,
            15.462373
          ],
          [
            73.803566,
            15.457798
          ],
          [
            73.80349,
            15.460088
          ],
          [
            73.806526,
            15.466375
          ],
          [
            73.808479,
            15.473752
          ],
          [
            73.808434,
            15.47898
          ],
          [
            73.810074,
            15.484453
          ],
          [
            73.814316,
            15.489218
          ],
          [
            73.817566,
            15.48705
          ],
          [
            73.817207,
            15.486367
          ],
          [
            73.817299,
            15.48633
          ],
          [
            73.817291,
            15.486323
          ],
          [
            73.817307,
            15.486325
          ],
          [
            73.817307,
            15.48632
          ],
          [
            73.817299,
            15.486322
          ],
          [
            73.817291,
            15.486317
          ],
          [
            73.817284,
            15.486318
          ],
          [
            73.817291,
            15.48633
          ],
          [
            73.817299,
            15.486325
          ],
          [
            73.817299,
            15.486323
          ],
          [
            73.817299,
            15.486313
          ],
          [
            73.817291,
            15.486305
          ],
          [
            73.817284,
            15.486305
          ],
          [
            73.817284,
            15.486308
          ],
          [
            73.817284,
            15.486315
          ],
          [
            73.817284,
            15.486325
          ],
          [
            73.817284,
            15.486318
          ],
          [
            73.817284,
            15.486325
          ],
          [
            73.817276,
            15.486322
          ],
          [
            73.817276,
            15.486333
          ],
          [
            73.817261,
            15.48634
          ],
          [
            73.817261,
            15.486342
          ],
          [
            73.817261,
            15.486348
          ],
          [
            73.817337,
            15.486343
          ],
          [
            73.817131,
            15.487322
          ],
          [
            73.817169,
            15.487307
          ],
          [
            73.817169,
            15.487323
          ],
          [
            73.817291,
            15.487448
          ],
          [
            73.817291,
            15.487445
          ],
          [
            73.817383,
            15.487563
          ],
          [
            73.817184,
            15.487245
          ]
        ]
      },
      "properties": {
        "Vehicle_No": "GA 07 G 7677-FFHQ(EMERGENCY RESCUE)",
        "Vehicle_Name": "TS101",
        "Branch": "Fire Force Headquarters",
        "created": "26-12-2025 05:28:40+05:30",
        "lastUpdated": "26-12-2025 08:51:09+05:30"
      }
    },
    {
      "type": "Feature",
      "geometry": {
        "type": "LineString",
        "coordinates": [
          [
            73.81739,
            15.48739
          ],
          [
            73.817268,
            15.48729
          ],
          [
            73.8172,
            15.487182
          ],
          [
            73.817703,
            15.486678
          ],
          [
            73.817352,
            15.486335
          ],
          [
            73.817337,
            15.486335
          ],
          [
            73.817329,
            15.486343
          ],
          [
            73.817322,
            15.486353
          ],
          [
            73.817314,
            15.48635
          ],
          [
            73.817291,
            15.486352
          ],
          [
            73.817291,
            15.486343
          ],
          [
            73.817406,
            15.486315
          ],
          [
            73.817101,
            15.486922
          ],
          [
            73.817047,
            15.486817
          ],
          [
            73.817085,
            15.486817
          ],
          [
            73.817131,
            15.486827
          ],
          [
            73.817116,
            15.48679
          ],
          [
            73.817116,
            15.486765
          ],
          [
            73.817101,
            15.486792
          ],
          [
            73.817085,
            15.486805
          ],
          [
            73.817108,
            15.486798
          ],
          [
            73.817116,
            15.486807
          ],
          [
            73.817116,
            15.4868
          ],
          [
            73.817123,
            15.48682
          ],
          [
            73.817101,
            15.486805
          ],
          [
            73.817085,
            15.48681
          ],
          [
            73.817047,
            15.48684
          ],
          [
            73.817085,
            15.486968
          ],
          [
            73.817085,
            15.486977
          ],
          [
            73.817093,
            15.486953
          ],
          [
            73.817093,
            15.486938
          ],
          [
            73.817169,
            15.487082
          ]
        ]
      },
      "properties": {
        "Vehicle_No": "GA 07 G 1121-PNJ(EMERGENCY RESCUE)",
        "Vehicle_Name": "TS101",
        "Branch": "Fire Station Panaji",
        "created": "26-12-2025 05:29:17+05:30",
        "lastUpdated": "26-12-2025 07:34:21+05:30"
      }
    },
    {
      "type": "Feature",
      "geometry": {
        "type": "LineString",
        "coordinates": [
          [
            73.812134,
            15.45832
          ],
          [
            73.812126,
            15.458222
          ],
          [
            73.812141,
            15.458262
          ],
          [
            73.81134,
            15.457463
          ],
          [
            73.811127,
            15.457183
          ],
          [
            73.811134,
            15.457175
          ],
          [
            73.810989,
            15.457105
          ],
          [
            73.810966,
            15.457098
          ]
        ]
      },
      "properties": {
        "Vehicle_No": "GA 07 G 1571-FFHQ(QUICK RESPONSE)",
        "Vehicle_Name": "TS101",
        "Branch": "Fire Force Headquarters",
        "created": "26-12-2025 05:29:16+05:30",
        "lastUpdated": "26-12-2025 08:13:17+05:30"
      }
    },
    {
      "type": "Feature",
      "geometry": {
        "type": "LineString",
        "coordinates": [
          [
            73.808784,
            15.59002
          ],
          [
            73.808632,
            15.589897
          ],
          [
            73.808533,
            15.589833
          ],
          [
            73.808556,
            15.589832
          ],
          [
            73.808563,
            15.589822
          ],
          [
            73.808556,
            15.589842
          ],
          [
            73.808563,
            15.589842
          ],
          [
            73.808525,
            15.589833
          ],
          [
            73.808655,
            15.58988
          ],
          [
            73.8088,
            15.590217
          ],
          [
            73.808792,
            15.590218
          ],
          [
            73.808777,
            15.590225
          ],
          [
            73.808777,
            15.590228
          ],
          [
            73.808769,
            15.59023
          ],
          [
            73.808769,
            15.590235
          ],
          [
            73.808769,
            15.59024
          ],
          [
            73.808708,
            15.590018
          ],
          [
            73.808678,
            15.589938
          ]
        ]
      },
      "properties": {
        "Vehicle_No": "GA 07 G 8101-MAP(WATER TENDER)",
        "Vehicle_Name": "TS101",
        "Branch": "Fire Station Mapusa",
        "created": "26-12-2025 05:29:36+05:30",
        "lastUpdated": "26-12-2025 07:55:51+05:30"
      }
    },
    {
      "type": "Feature",
      "geometry": {
        "type": "LineString",
        "coordinates": [
          [
            73.970125,
            15.2693983
          ],
          [
            73.9699633,
            15.269635
          ],
          [
            73.9700033,
            15.2694383
          ],
          [
            73.970085,
            15.2695433
          ],
          [
            73.9700433,
            15.2694349
          ],
          [
            73.9701416,
            15.269365
          ],
          [
            73.9700933,
            15.26937
          ],
          [
            73.970085,
            15.2696683
          ],
          [
            73.97006,
            15.26941
          ],
          [
            73.9702233,
            15.2692883
          ],
          [
            73.97015,
            15.2694116
          ],
          [
            73.970035,
            15.2694416
          ],
          [
            73.9702233,
            15.2694066
          ],
          [
            73.9700516,
            15.2694199
          ],
          [
            73.9705566,
            15.26901
          ],
          [
            73.9703533,
            15.2693066
          ],
          [
            73.9700766,
            15.269475
          ],
          [
            73.9700433,
            15.2693933
          ],
          [
            73.9700516,
            15.26943
          ],
          [
            73.9701666,
            15.2693833
          ],
          [
            73.97015,
            15.26943
          ],
          [
            73.9701416,
            15.2694199
          ],
          [
            73.9701166,
            15.2693416
          ],
          [
            73.9701733,
            15.2693216
          ],
          [
            73.9701416,
            15.2690833
          ],
          [
            73.97002,
            15.2692766
          ],
          [
            73.9702633,
            15.2693583
          ],
          [
            73.970125,
            15.2693733
          ],
          [
            73.9701333,
            15.2694166
          ],
          [
            73.970085,
            15.2693366
          ],
          [
            73.969995,
            15.2694166
          ],
          [
            73.9702233,
            15.2694333
          ],
          [
            73.97015,
            15.2695
          ],
          [
            73.9700933,
            15.26945
          ],
          [
            73.97002,
            15.2692233
          ],
          [
            73.9684566,
            15.2702916
          ],
          [
            73.9700116,
            15.2693416
          ],
          [
            73.9700766,
            15.26931
          ],
          [
            73.97024,
            15.2692399
          ],
          [
            73.9701416,
            15.269315
          ],
          [
            73.9700766,
            15.2693416
          ],
          [
            73.970035,
            15.2694166
          ],
          [
            73.9701083,
            15.2693516
          ],
          [
            73.9699466,
            15.2690616
          ],
          [
            73.9701016,
            15.2692666
          ],
          [
            73.9700433,
            15.2692549
          ],
          [
            73.969995,
            15.2692766
          ],
          [
            73.97006,
            15.2692916
          ],
          [
            73.97015,
            15.2696383
          ],
          [
            73.9700933,
            15.2693766
          ],
          [
            73.9700283,
            15.269425
          ],
          [
            73.97006,
            15.2693833
          ],
          [
            73.9700933,
            15.2692999
          ],
          [
            73.9701166,
            15.26935
          ],
          [
            73.9701983,
            15.2694066
          ],
          [
            73.9701816,
            15.26935
          ],
          [
            73.9701083,
            15.2692583
          ],
          [
            73.97019,
            15.2693233
          ],
          [
            73.97006,
            15.2694633
          ],
          [
            73.9700933,
            15.26946
          ],
          [
            73.9701416,
            15.2694199
          ],
          [
            73.97006,
            15.2693133
          ],
          [
            73.9700766,
            15.2693333
          ],
          [
            73.9701416,
            15.2693016
          ],
          [
            73.9700933,
            15.2693299
          ],
          [
            73.9701333,
            15.26937
          ],
          [
            73.9700433,
            15.2693466
          ],
          [
            73.9701166,
            15.2694033
          ],
          [
            73.970085,
            15.2695833
          ],
          [
            73.9700516,
            15.2694416
          ],
          [
            73.9700683,
            15.2694783
          ],
          [
            73.97015,
            15.2694116
          ],
          [
            73.9699783,
            15.26945
          ],
          [
            73.9698166,
            15.2695116
          ],
          [
            73.970085,
            15.2694483
          ],
          [
            73.9701733,
            15.2694033
          ],
          [
            73.9702883,
            15.2694166
          ],
          [
            73.9705233,
            15.2690616
          ],
          [
            73.9703933,
            15.2692316
          ],
          [
            73.97002,
            15.2695233
          ],
          [
            73.9700433,
            15.2695316
          ],
          [
            73.9702066,
            15.2695166
          ],
          [
            73.9702066,
            15.2693666
          ],
          [
            73.9701166,
            15.26944
          ],
          [
            73.9701816,
            15.2693416
          ],
          [
            73.9700683,
            15.2694133
          ],
          [
            73.97019,
            15.269325
          ],
          [
            73.9700283,
            15.2693033
          ],
          [
            73.9700933,
            15.2693433
          ],
          [
            73.97019,
            15.2692916
          ],
          [
            73.970035,
            15.26934
          ],
          [
            73.97015,
            15.269325
          ],
          [
            73.9701333,
            15.26941
          ],
          [
            73.9699866,
            15.269385
          ],
          [
            73.9701983,
            15.2694016
          ],
          [
            73.97015,
            15.26946
          ],
          [
            73.9701166,
            15.2693333
          ],
          [
            73.9701666,
            15.2693566
          ],
          [
            73.9700516,
            15.2693433
          ],
          [
            73.9700933,
            15.2693383
          ],
          [
            73.9701416,
            15.2693333
          ],
          [
            73.9700933,
            15.2694166
          ],
          [
            73.9701666,
            15.2693216
          ],
          [
            73.9701333,
            15.2693566
          ],
          [
            73.97015,
            15.2693283
          ],
          [
            73.9700433,
            15.26935
          ],
          [
            73.9701666,
            15.2692916
          ],
          [
            73.96997,
            15.269355
          ],
          [
            73.9701666,
            15.26938
          ],
          [
            73.97015,
            15.2693666
          ],
          [
            73.9699783,
            15.2693516
          ],
          [
            73.9701166,
            15.2693766
          ],
          [
            73.9699633,
            15.269385
          ],
          [
            73.9701166,
            15.26932
          ],
          [
            73.9696933,
            15.26947
          ],
          [
            73.9699466,
            15.2693666
          ],
          [
            73.9698166,
            15.26932
          ],
          [
            73.969995,
            15.2693183
          ],
          [
            73.970035,
            15.2693333
          ],
          [
            73.9700433,
            15.2693299
          ],
          [
            73.9698566,
            15.2694216
          ],
          [
            73.9699383,
            15.2693749
          ],
          [
            73.9700433,
            15.2693916
          ],
          [
            73.9701416,
            15.269415
          ],
          [
            73.969955,
            15.269445
          ],
          [
            73.9700433,
            15.2694766
          ],
          [
            73.9700433,
            15.2694533
          ],
          [
            73.97006,
            15.2694616
          ],
          [
            73.9703283,
            15.2693883
          ],
          [
            73.9701666,
            15.2693866
          ],
          [
            73.9699133,
            15.2695033
          ],
          [
            73.9699466,
            15.2694349
          ],
          [
            73.9705816,
            15.2692733
          ],
          [
            73.970385,
            15.2693383
          ],
          [
            73.969865,
            15.2695183
          ],
          [
            73.969955,
            15.2694266
          ],
          [
            73.96989,
            15.2694616
          ],
          [
            73.9699866,
            15.2695
          ],
          [
            73.970035,
            15.269445
          ],
          [
            73.9699783,
            15.269485
          ],
          [
            73.9700933,
            15.2693933
          ],
          [
            73.97006,
            15.2694433
          ],
          [
            73.9700433,
            15.26945
          ],
          [
            73.9700433,
            15.269445
          ],
          [
            73.9699466,
            15.2694433
          ],
          [
            73.969955,
            15.2693066
          ],
          [
            73.970305,
            15.269085
          ],
          [
            73.970125,
            15.2692966
          ],
          [
            73.9701666,
            15.2692399
          ],
          [
            73.97006,
            15.2693383
          ],
          [
            73.9704666,
            15.2693783
          ],
          [
            73.970255,
            15.2693666
          ],
          [
            73.9700516,
            15.2692116
          ],
          [
            73.9700433,
            15.269325
          ],
          [
            73.970035,
            15.2693433
          ],
          [
            73.970035,
            15.269355
          ],
          [
            73.9700516,
            15.269485
          ],
          [
            73.9701016,
            15.2693483
          ],
          [
            73.97015,
            15.269625
          ],
          [
            73.97006,
            15.2695699
          ],
          [
            73.970125,
            15.269415
          ],
          [
            73.9701016,
            15.2694583
          ],
          [
            73.970125,
            15.2693666
          ],
          [
            73.9701583,
            15.2694883
          ],
          [
            73.9701666,
            15.2694583
          ]
        ]
      },
      "properties": {
        "Vehicle_No": "GA 07 G 2317-MRG(EMERGENCY RESCUE TENDER)",
        "Vehicle_Name": "5035",
        "Branch": "Fire Station Margao",
        "created": "26-12-2025 05:29:47+05:30",
        "lastUpdated": "26-12-2025 08:56:44+05:30"
      }
    },
    {
      "type": "Feature",
      "geometry": {
        "type": "LineString",
        "coordinates": [
          [
            73.8512933,
            15.3887383
          ],
          [
            73.8513266,
            15.38878
          ],
          [
            73.85127,
            15.3887733
          ],
          [
            73.8513666,
            15.3888283
          ]
        ]
      },
      "properties": {
        "Vehicle_No": "GA 07 G 1570-VAS(QUICK RESPONSE FIRE TENDER)",
        "Vehicle_Name": "5035",
        "Branch": "Fire Station Vasco",
        "created": "26-12-2025 05:29:11+05:30",
        "lastUpdated": "26-12-2025 08:38:30+05:30"
      }
    },
    {
      "type": "Feature",
      "geometry": {
        "type": "LineString",
        "coordinates": [
          [
            73.851245,
            15.3888566
          ]
        ]
      },
      "properties": {
        "Vehicle_No": "GA 07 G 4101-VAS(MS WATER TENDER)",
        "Vehicle_Name": "5035",
        "Branch": "Fire Station Vasco",
        "created": "26-12-2025 05:29:33+05:30",
        "lastUpdated": "26-12-2025 05:29:33+05:30"
      }
    },
    {
      "type": "Feature",
      "geometry": {
        "type": "LineString",
        "coordinates": [
          [
            73.8513267,
            15.3888267
          ],
          [
            73.85127,
            15.3888517
          ]
        ]
      },
      "properties": {
        "Vehicle_No": "GA 07 G 0819-VAS(WATER/FOAM TENDER)",
        "Vehicle_Name": "4G",
        "Branch": "Fire Station Vasco",
        "created": "26-12-2025 05:29:55+05:30",
        "lastUpdated": "26-12-2025 07:38:58+05:30"
      }
    },
    {
      "type": "Feature",
      "geometry": {
        "type": "LineString",
        "coordinates": [
          [
            73.9701333,
            15.2695533
          ]
        ]
      },
      "properties": {
        "Vehicle_No": "GA 07 G 7100-MRG(WATER BOUSER)",
        "Vehicle_Name": "5035",
        "Branch": "Fire Station Margao",
        "created": "26-12-2025 05:29:35+05:30",
        "lastUpdated": "26-12-2025 05:29:35+05:30"
      }
    },
    {
      "type": "Feature",
      "geometry": {
        "type": "LineString",
        "coordinates": [
          [
            73.9704266,
            15.2693966
          ]
        ]
      },
      "properties": {
        "Vehicle_No": "GA 07 G 1568-MRG(QUICK RESPONSE )",
        "Vehicle_Name": "5035",
        "Branch": "Fire Station Margao",
        "created": "26-12-2025 05:29:24+05:30",
        "lastUpdated": "26-12-2025 05:29:24+05:30"
      }
    },
    {
      "type": "Feature",
      "geometry": {
        "type": "LineString",
        "coordinates": [
          [
            73.97015,
            15.2694116
          ]
        ]
      },
      "properties": {
        "Vehicle_No": "GA 07 G 6101-MRG(WATER TENDER)",
        "Vehicle_Name": "5035",
        "Branch": "Fire Station Margao",
        "created": "25-12-2025 16:23:26+05:30",
        "lastUpdated": "25-12-2025 16:23:26+05:30"
      }
    },
    {
      "type": "Feature",
      "geometry": {
        "type": "LineString",
        "coordinates": [
          [
            73.9702466,
            15.269385
          ],
          [
            73.9701583,
            15.2694583
          ]
        ]
      },
      "properties": {
        "Vehicle_No": "GA 07 G 1001-MRG(AERIAL LADDER PLATFORM)",
        "Vehicle_Name": "5035",
        "Branch": "Fire Station Margao",
        "created": "26-12-2025 05:29:10+05:30",
        "lastUpdated": "26-12-2025 05:30:33+05:30"
      }
    },
    {
      "type": "Feature",
      "geometry": {
        "type": "LineString",
        "coordinates": [
          [
            74.0027667,
            15.4028067
          ]
        ]
      },
      "properties": {
        "Vehicle_No": "GA 07 G 0820-BIC(WATER TEDNER)",
        "Vehicle_Name": "5026",
        "Branch": "Fire Station Bicholim",
        "created": "26-12-2025 05:28:12+05:30",
        "lastUpdated": "26-12-2025 05:28:12+05:30"
      }
    },
    {
      "type": "Feature",
      "geometry": {
        "type": "LineString",
        "coordinates": [
          [
            73.9140633,
            15.50027
          ]
        ]
      },
      "properties": {
        "Vehicle_No": "GA 07 G 5101-OLG(MS WATER TENDER)",
        "Vehicle_Name": "5035",
        "Branch": "Fire Station Old Goa",
        "created": "26-12-2025 05:29:07+05:30",
        "lastUpdated": "26-12-2025 05:29:07+05:30"
      }
    },
    {
      "type": "Feature",
      "geometry": {
        "type": "LineString",
        "coordinates": [
          [
            73.9466066,
            15.5892083
          ],
          [
            73.9466066,
            15.58927
          ],
          [
            73.9466966,
            15.58949
          ],
          [
            73.9467366,
            15.5894483
          ],
          [
            73.9466883,
            15.5894266
          ],
          [
            73.9465333,
            15.5893533
          ],
          [
            73.9463866,
            15.589065
          ],
          [
            73.9462733,
            15.58895
          ],
          [
            73.9464433,
            15.58899
          ],
          [
            73.9465166,
            15.5890766
          ],
          [
            73.9465166,
            15.5890333
          ],
          [
            73.9465983,
            15.5891566
          ],
          [
            73.9465583,
            15.589245
          ],
          [
            73.94633,
            15.58892
          ],
          [
            73.94624,
            15.588985
          ],
          [
            73.9461266,
            15.5890383
          ],
          [
            73.94611,
            15.5889416
          ],
          [
            73.946135,
            15.5889466
          ],
          [
            73.9457999,
            15.5890033
          ],
          [
            73.9457999,
            15.58896
          ],
          [
            73.946175,
            15.5889416
          ],
          [
            73.9463466,
            15.58876
          ],
          [
            73.9463616,
            15.5884783
          ],
          [
            73.9463699,
            15.588575
          ],
          [
            73.9464116,
            15.5886916
          ],
          [
            73.9466233,
            15.5893616
          ],
          [
            73.9466466,
            15.5892816
          ],
          [
            73.946615,
            15.589315
          ],
          [
            73.9468916,
            15.5893583
          ],
          [
            73.9465583,
            15.5892916
          ],
          [
            73.9467033,
            15.5895449
          ],
          [
            73.94677,
            15.5895183
          ],
          [
            73.9467616,
            15.589465
          ],
          [
            73.9466716,
            15.589245
          ],
          [
            73.9466883,
            15.5892816
          ],
          [
            73.9467283,
            15.5894616
          ],
          [
            73.9467283,
            15.58942
          ],
          [
            73.9467033,
            15.5892116
          ],
          [
            73.94668,
            15.5893033
          ],
          [
            73.9466716,
            15.5893133
          ],
          [
            73.94668,
            15.58925
          ],
          [
            73.9466233,
            15.589075
          ],
          [
            73.9466233,
            15.5891316
          ],
          [
            73.9466066,
            15.5891466
          ],
          [
            73.9465416,
            15.589375
          ],
          [
            73.9466383,
            15.5895566
          ],
          [
            73.9464433,
            15.5891466
          ],
          [
            73.9465333,
            15.5891499
          ],
          [
            73.9463533,
            15.58916
          ],
          [
            73.9465816,
            15.5893683
          ],
          [
            73.9467283,
            15.5895266
          ],
          [
            73.9464683,
            15.58925
          ],
          [
            73.9465,
            15.5892083
          ]
        ]
      },
      "properties": {
        "Vehicle_No": "GA 07 G 3101-BIC(MS WATER TENDER)",
        "Vehicle_Name": "5035",
        "Branch": "Fire Station Bicholim",
        "created": "26-12-2025 05:29:15+05:30",
        "lastUpdated": "26-12-2025 08:56:35+05:30"
      }
    },
    {
      "type": "Feature",
      "geometry": {
        "type": "LineString",
        "coordinates": [
          [
            73.94672,
            15.5895083
          ]
        ]
      },
      "properties": {
        "Vehicle_No": "GA 07 G 1941-BIC(QUICK RESPONSE)",
        "Vehicle_Name": "5035",
        "Branch": "Fire Station Bicholim",
        "created": "26-12-2025 05:28:43+05:30",
        "lastUpdated": "26-12-2025 05:28:43+05:30"
      }
    },
    {
      "type": "Feature",
      "geometry": {
        "type": "LineString",
        "coordinates": [
          [
            73.8513833,
            15.3888666
          ]
        ]
      },
      "properties": {
        "Vehicle_No": "GA 07 G 2319-VAS (EMERGENCY RESCUE TENDER)",
        "Vehicle_Name": "5035",
        "Branch": "Fire Station Vasco",
        "created": "26-12-2025 05:29:24+05:30",
        "lastUpdated": "26-12-2025 05:29:24+05:30"
      }
    },
    {
      "type": "Feature",
      "geometry": {
        "type": "LineString",
        "coordinates": [
          [
            74.138965,
            15.5310599
          ],
          [
            74.1386883,
            15.5309916
          ],
          [
            74.1386883,
            15.5309933
          ],
          [
            74.13868,
            15.530995
          ],
          [
            74.1386883,
            15.530995
          ],
          [
            74.1386966,
            15.5309816
          ],
          [
            74.1386966,
            15.530975
          ],
          [
            74.1386883,
            15.5308883
          ],
          [
            74.13868,
            15.5309266
          ],
          [
            74.13868,
            15.5309466
          ]
        ]
      },
      "properties": {
        "Vehicle_No": "GA 07 G 3737-VAP(WATER TENDER)",
        "Vehicle_Name": "5035",
        "Branch": "Fire Station Valpoi",
        "created": "26-12-2025 05:28:55+05:30",
        "lastUpdated": "26-12-2025 07:21:59+05:30"
      }
    },
    {
      "type": "Feature",
      "geometry": {
        "type": "LineString",
        "coordinates": [
          [
            74.0028966,
            15.4027483
          ]
        ]
      },
      "properties": {
        "Vehicle_No": "GA 07 G 2318-PND(EMERGENCY RESCUE TENDER)",
        "Vehicle_Name": "5035",
        "Branch": "Fire Station Ponda",
        "created": "26-12-2025 05:29:06+05:30",
        "lastUpdated": "26-12-2025 05:29:06+05:30"
      }
    },
    {
      "type": "Feature",
      "geometry": {
        "type": "LineString",
        "coordinates": [
          [
            74.0027833,
            15.4026299
          ]
        ]
      },
      "properties": {
        "Vehicle_No": "GA 07 G 2004-PND(QUICK RESPONSE)",
        "Vehicle_Name": "5035",
        "Branch": "Fire Station Ponda",
        "created": "26-12-2025 05:29:43+05:30",
        "lastUpdated": "26-12-2025 05:29:43+05:30"
      }
    },
    {
      "type": "Feature",
      "geometry": {
        "type": "LineString",
        "coordinates": [
          [
            74.0035066,
            15.402295
          ],
          [
            74.0025883,
            15.4027399
          ],
          [
            74.0027016,
            15.40273
          ],
          [
            74.002775,
            15.4026816
          ],
          [
            74.00275,
            15.40268
          ]
        ]
      },
      "properties": {
        "Vehicle_No": "GA 07 G 9101-PND(WATER TENDER)",
        "Vehicle_Name": "5035",
        "Branch": "Fire Station Ponda",
        "created": "26-12-2025 05:28:46+05:30",
        "lastUpdated": "26-12-2025 08:56:16+05:30"
      }
    },
    {
      "type": "Feature",
      "geometry": {
        "type": "LineString",
        "coordinates": [
          [
            74.0028733,
            15.402765
          ]
        ]
      },
      "properties": {
        "Vehicle_No": "GA 07 G 9797-PND(WATER BOUSER)",
        "Vehicle_Name": "5035",
        "Branch": "Fire Station Ponda",
        "created": "26-12-2025 05:29:58+05:30",
        "lastUpdated": "26-12-2025 05:29:58+05:30"
      }
    },
    {
      "type": "Feature",
      "geometry": {
        "type": "LineString",
        "coordinates": [
          [
            74.0440266,
            15.0236233
          ],
          [
            74.037395,
            15.0118883
          ],
          [
            74.0401616,
            15.0091966
          ],
          [
            74.0452716,
            15.0078466
          ],
          [
            74.0489833,
            15.0071016
          ],
          [
            74.055875,
            15.0067166
          ],
          [
            74.06455,
            15.0066483
          ],
          [
            74.0693433,
            15.008515
          ],
          [
            74.0721916,
            15.0077183
          ],
          [
            74.0721916,
            15.0077233
          ],
          [
            74.0722333,
            15.0077499
          ],
          [
            74.0720133,
            15.0079983
          ],
          [
            74.0713466,
            15.008005
          ],
          [
            74.0713133,
            15.0085533
          ],
          [
            74.0712966,
            15.0085333
          ],
          [
            74.0683349,
            15.0074583
          ],
          [
            74.0620366,
            15.00614
          ]
        ]
      },
      "properties": {
        "Vehicle_No": "GA 07 G 6363-CAN(WATER TENDER)",
        "Vehicle_Name": "5035",
        "Branch": "Fire Station Canacona",
        "created": "26-12-2025 05:29:37+05:30",
        "lastUpdated": "26-12-2025 08:57:04+05:30"
      }
    },
    {
      "type": "Feature",
      "geometry": {
        "type": "LineString",
        "coordinates": [
          [
            74.044075,
            15.0236333
          ]
        ]
      },
      "properties": {
        "Vehicle_No": "GA 07 G 1567-CAN(QUICK RESPONSE FT)",
        "Vehicle_Name": "5035",
        "Branch": "Fire Station Canacona",
        "created": "26-12-2025 05:29:51+05:30",
        "lastUpdated": "26-12-2025 05:29:51+05:30"
      }
    },
    {
      "type": "Feature",
      "geometry": {
        "type": "LineString",
        "coordinates": [
          [
            73.93562,
            15.3698666
          ]
        ]
      },
      "properties": {
        "Vehicle_No": "GA 07 G 1569-VRN(QUICK RESPONSE)",
        "Vehicle_Name": "5035",
        "Branch": "Fire Station Verna",
        "created": "26-12-2025 05:29:21+05:30",
        "lastUpdated": "26-12-2025 05:29:21+05:30"
      }
    },
    {
      "type": "Feature",
      "geometry": {
        "type": "LineString",
        "coordinates": [
          [
            73.9356933,
            15.3697816
          ]
        ]
      },
      "properties": {
        "Vehicle_No": "GA 07 G 9909-VRN(ADVANCE MULTI-PURPOSE)",
        "Vehicle_Name": "5035",
        "Branch": "Fire Station Verna",
        "created": "26-12-2025 05:30:01+05:30",
        "lastUpdated": "26-12-2025 05:30:01+05:30"
      }
    },
    {
      "type": "Feature",
      "geometry": {
        "type": "LineString",
        "coordinates": [
          [
            74.1388183,
            15.5311233
          ],
          [
            74.13877,
            15.530995
          ],
          [
            74.1387616,
            15.53098
          ]
        ]
      },
      "properties": {
        "Vehicle_No": "GA 07 G 1942-VAP(QUICK RESPONSE)",
        "Vehicle_Name": "5035",
        "Branch": "Fire Station Valpoi",
        "created": "26-12-2025 05:29:49+05:30",
        "lastUpdated": "26-12-2025 07:18:52+05:30"
      }
    },
    {
      "type": "Feature",
      "geometry": {
        "type": "LineString",
        "coordinates": [
          [
            74.1036616,
            15.26036
          ],
          [
            74.1036699,
            15.2603533
          ]
        ]
      },
      "properties": {
        "Vehicle_No": "GA 07 G 2003-CUR(QUICK RESPONSE)",
        "Vehicle_Name": "5035",
        "Branch": "Fire Station Curchorem",
        "created": "26-12-2025 05:29:23+05:30",
        "lastUpdated": "26-12-2025 05:30:22+05:30"
      }
    },
    {
      "type": "Feature",
      "geometry": {
        "type": "LineString",
        "coordinates": [
          [
            74.1037033,
            15.26048
          ]
        ]
      },
      "properties": {
        "Vehicle_No": "GA 07 G 7447-CUR(EMERGENCY RESCUE)",
        "Vehicle_Name": "5035",
        "Branch": "Fire Station Curchorem",
        "created": "26-12-2025 05:29:37+05:30",
        "lastUpdated": "26-12-2025 05:29:37+05:30"
      }
    },
    {
      "type": "Feature",
      "geometry": {
        "type": "LineString",
        "coordinates": [
          [
            74.1037433,
            15.2604316
          ]
        ]
      },
      "properties": {
        "Vehicle_No": "GA 07 G 7557-CUR(WATER TENDER)",
        "Vehicle_Name": "5035",
        "Branch": "Fire Station Curchorem",
        "created": "26-12-2025 05:29:48+05:30",
        "lastUpdated": "26-12-2025 05:29:48+05:30"
      }
    },
    {
      "type": "Feature",
      "geometry": {
        "type": "LineString",
        "coordinates": [
          [
            73.993025,
            15.14382
          ]
        ]
      },
      "properties": {
        "Vehicle_No": "GA 07 G 7667-CUR(WATER BOUSER)",
        "Vehicle_Name": "5035",
        "Branch": "Fire Station Curchorem",
        "created": "26-12-2025 05:29:36+05:30",
        "lastUpdated": "26-12-2025 05:29:36+05:30"
      }
    },
    {
      "type": "Feature",
      "geometry": {
        "type": "LineString",
        "coordinates": [
          [
            73.9723467,
            15.46306
          ],
          [
            73.972705,
            15.4634567
          ],
          [
            73.9725183,
            15.4625983
          ],
          [
            73.9725017,
            15.4629083
          ],
          [
            73.972535,
            15.4634833
          ],
          [
            73.9726967,
            15.4632617
          ],
          [
            73.9722983,
            15.4627183
          ],
          [
            73.97273,
            15.4633183
          ],
          [
            73.9726567,
            15.4629417
          ],
          [
            73.9727617,
            15.4629683
          ],
          [
            73.9725583,
            15.4630533
          ],
          [
            73.9726883,
            15.462985
          ]
        ]
      },
      "properties": {
        "Vehicle_No": "GA 07 G 4989-KUN(WATER TENDER)",
        "Vehicle_Name": "G-100",
        "Branch": "Fire Station Kundaim",
        "created": "26-12-2025 05:29:50+05:30",
        "lastUpdated": "26-12-2025 08:41:45+05:30"
      }
    },
    {
      "type": "Feature",
      "geometry": {
        "type": "LineString",
        "coordinates": [
          [
            73.7939311,
            15.5330028
          ]
        ]
      },
      "properties": {
        "Vehicle_No": "GA 07 G 2242-PIL(WATER TENDER)",
        "Vehicle_Name": "5026",
        "Branch": "Fire Station Pilerne",
        "created": "26-12-2025 05:28:58+05:30",
        "lastUpdated": "26-12-2025 05:28:58+05:30"
      }
    },
    {
      "type": "Feature",
      "geometry": {
        "type": "LineString",
        "coordinates": [
          [
            73.80883,
            15.5897833
          ],
          [
            73.808505,
            15.5900433
          ],
          [
            73.80865,
            15.5898483
          ],
          [
            73.8086433,
            15.5898517
          ]
        ]
      },
      "properties": {
        "Vehicle_No": "GA 07 G 0681-MAP(QUICK RESPONSE)",
        "Vehicle_Name": "AT 5036A-4G",
        "Branch": "Fire Station Mapusa",
        "created": "26-12-2025 05:29:59+05:30",
        "lastUpdated": "26-12-2025 07:10:56+05:30"
      }
    },
    {
      "type": "Feature",
      "geometry": {
        "type": "LineString",
        "coordinates": [
          [
            73.7974239,
            15.7164939
          ]
        ]
      },
      "properties": {
        "Vehicle_No": "GA 07 G 0307-PER(QUICK RESPONSE)",
        "Vehicle_Name": "AT5032-4G",
        "Branch": "Fire Station Pernem",
        "created": "23-10-2025 15:19:09+05:30",
        "lastUpdated": "23-10-2025 15:19:09+05:30"
      }
    },
    {
      "type": "Feature",
      "geometry": {
        "type": "LineString",
        "coordinates": [
          [
            73.7975106,
            15.7164889
          ],
          [
            73.7975639,
            15.7165133
          ],
          [
            73.7975661,
            15.7164983
          ],
          [
            73.7975544,
            15.7164994
          ],
          [
            73.797565,
            15.7164983
          ],
          [
            73.7975778,
            15.7165006
          ],
          [
            73.7975767,
            15.7165
          ],
          [
            73.7975783,
            15.7164978
          ],
          [
            73.7975839,
            15.7164933
          ],
          [
            73.7975833,
            15.7164889
          ],
          [
            73.7975839,
            15.7164833
          ],
          [
            73.7975867,
            15.7164811
          ],
          [
            73.7975861,
            15.7164761
          ],
          [
            73.7975878,
            15.7164756
          ],
          [
            73.7975939,
            15.7164717
          ],
          [
            73.7976006,
            15.7164683
          ],
          [
            73.797605,
            15.7164672
          ],
          [
            73.7976083,
            15.7164706
          ],
          [
            73.7976078,
            15.716475
          ],
          [
            73.7976056,
            15.7164794
          ],
          [
            73.79761,
            15.7164789
          ],
          [
            73.797615,
            15.7164733
          ],
          [
            73.7976172,
            15.7164717
          ],
          [
            73.7976172,
            15.7164706
          ],
          [
            73.7976161,
            15.7164744
          ],
          [
            73.7976183,
            15.7164739
          ],
          [
            73.7976167,
            15.71647
          ],
          [
            73.797615,
            15.7164728
          ],
          [
            73.7976156,
            15.7164733
          ],
          [
            73.7976167,
            15.7164683
          ],
          [
            73.7976172,
            15.7164644
          ],
          [
            73.797615,
            15.7164633
          ],
          [
            73.7976178,
            15.7164617
          ],
          [
            73.7976211,
            15.7164606
          ],
          [
            73.79762,
            15.7164556
          ],
          [
            73.7976167,
            15.7164544
          ]
        ]
      },
      "properties": {
        "Vehicle_No": "GA 07 G 2101-PER(MS WATER TENDER)",
        "Vehicle_Name": "AT5032-4G",
        "Branch": "Fire Station Pernem",
        "created": "26-12-2025 05:29:26+05:30",
        "lastUpdated": "26-12-2025 08:57:06+05:30"
      }
    },
    {
      "type": "Feature",
      "geometry": {
        "type": "LineString",
        "coordinates": [
          [
            73.7975122,
            15.7165267
          ],
          [
            73.7974144,
            15.7165483
          ],
          [
            73.7974539,
            15.7165378
          ],
          [
            73.7974567,
            15.7165317
          ],
          [
            73.7974594,
            15.7165317
          ],
          [
            73.7974594,
            15.71653
          ],
          [
            73.7974622,
            15.7165289
          ],
          [
            73.7974617,
            15.7165278
          ],
          [
            73.7974622,
            15.7165233
          ],
          [
            73.7974656,
            15.7165211
          ],
          [
            73.7974667,
            15.7165256
          ],
          [
            73.7974672,
            15.7165267
          ],
          [
            73.7974667,
            15.7165267
          ],
          [
            73.7974656,
            15.7165294
          ],
          [
            73.7974667,
            15.716525
          ],
          [
            73.7974678,
            15.7165283
          ],
          [
            73.7974683,
            15.7165339
          ],
          [
            73.7974722,
            15.7165328
          ],
          [
            73.7974739,
            15.71653
          ],
          [
            73.7974778,
            15.7165306
          ],
          [
            73.7974811,
            15.7165317
          ],
          [
            73.7974828,
            15.7165322
          ],
          [
            73.7974806,
            15.7165339
          ],
          [
            73.7974811,
            15.7165317
          ],
          [
            73.7974844,
            15.7165294
          ],
          [
            73.7974822,
            15.7165267
          ],
          [
            73.7974861,
            15.7165261
          ],
          [
            73.7974878,
            15.716525
          ],
          [
            73.7974917,
            15.716525
          ],
          [
            73.7974922,
            15.7165239
          ],
          [
            73.7974933,
            15.7165239
          ],
          [
            73.797495,
            15.7165278
          ],
          [
            73.7974967,
            15.71653
          ],
          [
            73.7974944,
            15.7165306
          ],
          [
            73.7974989,
            15.7165322
          ],
          [
            73.7975006,
            15.7165344
          ],
          [
            73.7975,
            15.7165317
          ],
          [
            73.7975011,
            15.7165322
          ],
          [
            73.7974994,
            15.7165339
          ],
          [
            73.7974972,
            15.7165322
          ]
        ]
      },
      "properties": {
        "Vehicle_No": "GA 07 G 4600-PER(MINI RESCUE TENDER)",
        "Vehicle_Name": "AT 5032-4G",
        "Branch": "Fire Station Pernem",
        "created": "26-12-2025 05:28:56+05:30",
        "lastUpdated": "26-12-2025 08:57:07+05:30"
      }
    },
    {
      "type": "Feature",
      "geometry": {
        "type": "LineString",
        "coordinates": [
          [
            73.8173917,
            15.4870928
          ],
          [
            73.8177478,
            15.4874428
          ],
          [
            73.8177683,
            15.4867472
          ],
          [
            73.8170839,
            15.4869833
          ],
          [
            73.81778,
            15.4863156
          ],
          [
            73.8176533,
            15.4862544
          ],
          [
            73.8174961,
            15.4862072
          ],
          [
            73.817385,
            15.4862583
          ],
          [
            73.8172489,
            15.486305
          ],
          [
            73.8173428,
            15.4864939
          ],
          [
            73.8171506,
            15.4868433
          ],
          [
            73.8173967,
            15.4867906
          ]
        ]
      },
      "properties": {
        "Vehicle_No": "GA 07 G 7272-PNJ(WATER TENDER)",
        "Vehicle_Name": "AT-5032-4G",
        "Branch": "Fire Station Panaji",
        "created": "26-12-2025 05:29:31+05:30",
        "lastUpdated": "26-12-2025 07:26:35+05:30"
      }
    },
    {
      "type": "Feature",
      "geometry": {
        "type": "LineString",
        "coordinates": [
          [
            74.0210233,
            15.1862789
          ]
        ]
      },
      "properties": {
        "Vehicle_No": "GA07G2384- Cuncolim",
        "Vehicle_Name": "AT 5032-4G",
        "Branch": "Fire Station Cuncolim",
        "created": "26-12-2025 05:28:56+05:30",
        "lastUpdated": "26-12-2025 05:28:56+05:30"
      }
    },
    {
      "type": "Feature",
      "geometry": {
        "type": "LineString",
        "coordinates": [
          [
            73.7975417,
            15.716595
          ]
        ]
      },
      "properties": {
        "Vehicle_No": "GA07G2507 - Mid Size (Water Tender)",
        "Vehicle_Name": "5035",
        "Branch": "Fire Station Pernem",
        "created": "26-12-2025 05:29:04+05:30",
        "lastUpdated": "26-12-2025 05:29:04+05:30"
      }
    },
    {
      "type": "Feature",
      "geometry": {
        "type": "LineString",
        "coordinates": [
          [
            74.1386067,
            15.5309583
          ]
        ]
      },
      "properties": {
        "Vehicle_No": "GA07G2505 - Mid Size (Water Tender)",
        "Vehicle_Name": "5035",
        "Branch": "Fire Station Valpoi",
        "created": "26-12-2025 05:30:02+05:30",
        "lastUpdated": "26-12-2025 05:30:02+05:30"
      }
    },
    {
      "type": "Feature",
      "geometry": {
        "type": "LineString",
        "coordinates": [
          [
            73.9465817,
            15.5894367
          ]
        ]
      },
      "properties": {
        "Vehicle_No": "GA07G2504 - Mid Size (Water Tender)",
        "Vehicle_Name": "5035",
        "Branch": "Fire Station Bicholim",
        "created": "26-12-2025 05:29:14+05:30",
        "lastUpdated": "26-12-2025 05:29:14+05:30"
      }
    },
    {
      "type": "Feature",
      "geometry": {
        "type": "LineString",
        "coordinates": [
          [
            73.8087317,
            15.58999
          ]
        ]
      },
      "properties": {
        "Vehicle_No": "GA07G2503-Mid Size (Water Tender)",
        "Vehicle_Name": "5035",
        "Branch": "Fire Station Mapusa",
        "created": "26-12-2025 05:29:05+05:30",
        "lastUpdated": "26-12-2025 05:29:05+05:30"
      }
    },
    {
      "type": "Feature",
      "geometry": {
        "type": "LineString",
        "coordinates": [
          [
            73.81718,
            15.487005
          ],
          [
            73.8176267,
            15.4870767
          ]
        ]
      },
      "properties": {
        "Vehicle_No": "GA07G2502 - Mid Size (Water Tender)",
        "Vehicle_Name": "5035",
        "Branch": "Fire Force Headquarters",
        "created": "26-12-2025 05:29:36+05:30",
        "lastUpdated": "26-12-2025 05:30:39+05:30"
      }
    }
  ]
}