{
  "type": "FeatureCollection",
  "metadata": {
    "date": "20251228",
    "source": "Directorate of Fire Emergency Services, Govt. of Goa",
    "description": "Daily GPS tracks of fire trucks",
    "lastUpdated": "2025-12-28T02:41:28.675Z",
    "count": 52
  },
  "features": [
    {
      "type": "Feature",
      "geometry": {
        "type": "LineString",
        "coordinates": [
          [
            73.7939933,
            15.533075
          ]
        ]
      },
      "properties": {
        "Vehicle_No": "GA 07 G 0680-PIL(QUICK RESPONSE VEHICLE)",
        "Vehicle_Name": "4G",
        "Branch": "Fire Station Pilerne",
        "created": "28-12-2025 05:29:54+05:30",
        "lastUpdated": "28-12-2025 05:29:54+05:30"
      }
    },
    {
      "type": "Feature",
      "geometry": {
        "type": "LineString",
        "coordinates": [
          [
            73.914215,
            15.500282
          ],
          [
            73.914131,
            15.50035
          ]
        ]
      },
      "properties": {
        "Vehicle_No": "GA07G2506 - Mid Size (Water Tender)",
        "Vehicle_Name": "TS101",
        "Branch": "Fire Station Old Goa",
        "created": "28-12-2025 05:28:52+05:30",
        "lastUpdated": "28-12-2025 05:30:49+05:30"
      }
    },
    {
      "type": "Feature",
      "geometry": {
        "type": "LineString",
        "coordinates": [
          [
            73.829391,
            15.523295
          ],
          [
            73.829414,
            15.523055
          ],
          [
            73.829361,
            15.522932
          ],
          [
            73.829475,
            15.522938
          ],
          [
            73.829208,
            15.523048
          ],
          [
            73.829193,
            15.523022
          ],
          [
            73.82917,
            15.523103
          ],
          [
            73.82933,
            15.523042
          ]
        ]
      },
      "properties": {
        "Vehicle_No": "GA 07 G 5115-POR(MINI WATER TENDER)",
        "Vehicle_Name": "TS101",
        "Branch": "Fire Station Porvorim",
        "created": "28-12-2025 05:28:42+05:30",
        "lastUpdated": "28-12-2025 08:11:22+05:30"
      }
    },
    {
      "type": "Feature",
      "geometry": {
        "type": "LineString",
        "coordinates": [
          [
            73.97065,
            15.26944
          ]
        ]
      },
      "properties": {
        "Vehicle_No": "GA 07 G 0350-MRG(WATER TENDER)",
        "Vehicle_Name": "TS101",
        "Branch": "Fire Station Margao",
        "created": "28-12-2025 05:30:09+05:30",
        "lastUpdated": "28-12-2025 05:30:09+05:30"
      }
    },
    {
      "type": "Feature",
      "geometry": {
        "type": "LineString",
        "coordinates": [
          [
            73.808762,
            15.589873
          ],
          [
            73.808739,
            15.589887
          ]
        ]
      },
      "properties": {
        "Vehicle_No": "GA 07 G 2900-MAP(MINI RESCUE TENDER)",
        "Vehicle_Name": "TS101",
        "Branch": "Fire Station Mapusa",
        "created": "28-12-2025 05:30:08+05:30",
        "lastUpdated": "28-12-2025 08:07:52+05:30"
      }
    },
    {
      "type": "Feature",
      "geometry": {
        "type": "LineString",
        "coordinates": [
          [
            73.816917,
            15.48719
          ],
          [
            73.817421,
            15.487095
          ],
          [
            73.817162,
            15.48714
          ],
          [
            73.817101,
            15.486933
          ],
          [
            73.817322,
            15.487295
          ],
          [
            73.814186,
            15.488808
          ],
          [
            73.810532,
            15.48477
          ],
          [
            73.80854,
            15.478947
          ],
          [
            73.80835,
            15.472468
          ],
          [
            73.805908,
            15.464787
          ],
          [
            73.803612,
            15.457773
          ],
          [
            73.803581,
            15.459535
          ],
          [
            73.807037,
            15.46782
          ],
          [
            73.808426,
            15.475177
          ],
          [
            73.808975,
            15.482682
          ],
          [
            73.812523,
            15.487127
          ],
          [
            73.815956,
            15.488315
          ],
          [
            73.817543,
            15.486595
          ],
          [
            73.817245,
            15.486315
          ],
          [
            73.817322,
            15.486303
          ],
          [
            73.817329,
            15.486292
          ],
          [
            73.817108,
            15.486385
          ],
          [
            73.817032,
            15.486943
          ],
          [
            73.817024,
            15.48703
          ],
          [
            73.817131,
            15.486965
          ],
          [
            73.817162,
            15.486958
          ]
        ]
      },
      "properties": {
        "Vehicle_No": "GA 07 G 7600-FFHQ(WATER BOUSER)",
        "Vehicle_Name": "TS101",
        "Branch": "Fire Force Headquarters",
        "created": "28-12-2025 05:29:04+05:30",
        "lastUpdated": "28-12-2025 07:33:08+05:30"
      }
    },
    {
      "type": "Feature",
      "geometry": {
        "type": "LineString",
        "coordinates": [
          [
            73.817299,
            15.487418
          ],
          [
            73.817245,
            15.487365
          ],
          [
            73.817284,
            15.487388
          ],
          [
            73.817253,
            15.487382
          ],
          [
            73.817253,
            15.487345
          ],
          [
            73.815392,
            15.48871
          ],
          [
            73.812637,
            15.48714
          ],
          [
            73.809067,
            15.48311
          ],
          [
            73.812889,
            15.487558
          ],
          [
            73.816154,
            15.48807
          ],
          [
            73.817131,
            15.486838
          ],
          [
            73.817146,
            15.487173
          ],
          [
            73.81723,
            15.487268
          ]
        ]
      },
      "properties": {
        "Vehicle_No": "GA 07 G 2002-FFHQ(TURN TABLE LADDER)",
        "Vehicle_Name": "TS101",
        "Branch": "Fire Force Headquarters",
        "created": "28-12-2025 05:29:08+05:30",
        "lastUpdated": "28-12-2025 07:41:39+05:30"
      }
    },
    {
      "type": "Feature",
      "geometry": {
        "type": "LineString",
        "coordinates": [
          [
            73.817116,
            15.486777
          ],
          [
            73.817062,
            15.486822
          ]
        ]
      },
      "properties": {
        "Vehicle_No": "GA 07 G 7101-FFHQ(WATER TENDER)",
        "Vehicle_Name": "TS101",
        "Branch": "Fire Force Headquarters",
        "created": "28-12-2025 05:28:18+05:30",
        "lastUpdated": "28-12-2025 05:30:15+05:30"
      }
    },
    {
      "type": "Feature",
      "geometry": {
        "type": "LineString",
        "coordinates": [
          [
            73.81739,
            15.487485
          ],
          [
            73.817276,
            15.487235
          ],
          [
            73.817299,
            15.487248
          ],
          [
            73.817261,
            15.487255
          ],
          [
            73.817261,
            15.487242
          ],
          [
            73.817307,
            15.487332
          ],
          [
            73.817284,
            15.487295
          ],
          [
            73.817238,
            15.4873
          ],
          [
            73.817268,
            15.48733
          ],
          [
            73.817276,
            15.487337
          ],
          [
            73.817276,
            15.48733
          ],
          [
            73.817276,
            15.487293
          ],
          [
            73.817284,
            15.487295
          ],
          [
            73.817307,
            15.4873
          ],
          [
            73.817268,
            15.487295
          ],
          [
            73.817253,
            15.487247
          ],
          [
            73.81723,
            15.487232
          ],
          [
            73.81723,
            15.487248
          ],
          [
            73.81723,
            15.487252
          ],
          [
            73.817223,
            15.487258
          ],
          [
            73.816811,
            15.485218
          ],
          [
            73.814064,
            15.482223
          ],
          [
            73.81208,
            15.477305
          ],
          [
            73.811806,
            15.47277
          ],
          [
            73.808792,
            15.472517
          ],
          [
            73.808365,
            15.477442
          ],
          [
            73.809196,
            15.483583
          ],
          [
            73.813179,
            15.487888
          ],
          [
            73.817719,
            15.486725
          ],
          [
            73.817169,
            15.486378
          ],
          [
            73.817238,
            15.48635
          ],
          [
            73.817169,
            15.486783
          ],
          [
            73.817169,
            15.487135
          ]
        ]
      },
      "properties": {
        "Vehicle_No": "GA 07 G 7677-FFHQ(EMERGENCY RESCUE)",
        "Vehicle_Name": "TS101",
        "Branch": "Fire Force Headquarters",
        "created": "28-12-2025 05:26:22+05:30",
        "lastUpdated": "28-12-2025 07:28:17+05:30"
      }
    },
    {
      "type": "Feature",
      "geometry": {
        "type": "LineString",
        "coordinates": [
          [
            73.817261,
            15.487287
          ],
          [
            73.817245,
            15.487173
          ],
          [
            73.817268,
            15.487228
          ],
          [
            73.817276,
            15.487245
          ],
          [
            73.817276,
            15.487253
          ],
          [
            73.817291,
            15.487263
          ],
          [
            73.817299,
            15.487255
          ],
          [
            73.817307,
            15.487265
          ],
          [
            73.817314,
            15.48727
          ],
          [
            73.817307,
            15.48728
          ],
          [
            73.817314,
            15.487283
          ],
          [
            73.817322,
            15.487283
          ],
          [
            73.817322,
            15.487285
          ],
          [
            73.817322,
            15.487278
          ],
          [
            73.817337,
            15.487278
          ],
          [
            73.817329,
            15.487268
          ],
          [
            73.817322,
            15.487262
          ],
          [
            73.817322,
            15.487278
          ],
          [
            73.817314,
            15.487267
          ],
          [
            73.817307,
            15.487242
          ]
        ]
      },
      "properties": {
        "Vehicle_No": "GA 07 G 1121-PNJ(EMERGENCY RESCUE)",
        "Vehicle_Name": "TS101",
        "Branch": "Fire Station Panaji",
        "created": "28-12-2025 05:26:50+05:30",
        "lastUpdated": "28-12-2025 07:37:45+05:30"
      }
    },
    {
      "type": "Feature",
      "geometry": {
        "type": "LineString",
        "coordinates": [
          [
            73.817581,
            15.487045
          ],
          [
            73.817543,
            15.486522
          ],
          [
            73.817596,
            15.486412
          ]
        ]
      },
      "properties": {
        "Vehicle_No": "GA 07 G 1571-FFHQ(QUICK RESPONSE)",
        "Vehicle_Name": "TS101",
        "Branch": "Fire Force Headquarters",
        "created": "28-12-2025 05:28:49+05:30",
        "lastUpdated": "28-12-2025 07:20:57+05:30"
      }
    },
    {
      "type": "Feature",
      "geometry": {
        "type": "LineString",
        "coordinates": [
          [
            73.808662,
            15.590017
          ],
          [
            73.808769,
            15.590015
          ],
          [
            73.808594,
            15.58992
          ],
          [
            73.808594,
            15.589918
          ],
          [
            73.808609,
            15.589908
          ]
        ]
      },
      "properties": {
        "Vehicle_No": "GA 07 G 8101-MAP(WATER TENDER)",
        "Vehicle_Name": "TS101",
        "Branch": "Fire Station Mapusa",
        "created": "28-12-2025 05:27:10+05:30",
        "lastUpdated": "28-12-2025 08:08:25+05:30"
      }
    },
    {
      "type": "Feature",
      "geometry": {
        "type": "LineString",
        "coordinates": [
          [
            73.97002,
            15.269385
          ],
          [
            73.9701016,
            15.269415
          ],
          [
            73.970085,
            15.26945
          ],
          [
            73.9701333,
            15.26935
          ],
          [
            73.9701733,
            15.269415
          ],
          [
            73.9702883,
            15.2691733
          ],
          [
            73.9700766,
            15.269365
          ],
          [
            73.9700683,
            15.269395
          ],
          [
            73.9701583,
            15.269385
          ],
          [
            73.9701416,
            15.2694166
          ],
          [
            73.9701583,
            15.2694583
          ],
          [
            73.9701333,
            15.2694316
          ],
          [
            73.97006,
            15.2693516
          ],
          [
            73.970035,
            15.269385
          ],
          [
            73.9701666,
            15.2694683
          ],
          [
            73.9700433,
            15.2694333
          ],
          [
            73.9700766,
            15.26947
          ],
          [
            73.9702716,
            15.26927
          ],
          [
            73.970125,
            15.2694033
          ],
          [
            73.9701983,
            15.2693033
          ],
          [
            73.9701733,
            15.2693066
          ],
          [
            73.9701583,
            15.269405
          ],
          [
            73.9702466,
            15.26955
          ],
          [
            73.9701333,
            15.2694483
          ],
          [
            73.9702316,
            15.2694416
          ],
          [
            73.9702233,
            15.2694966
          ],
          [
            73.970215,
            15.2694233
          ],
          [
            73.970215,
            15.26943
          ],
          [
            73.9701083,
            15.2694683
          ],
          [
            73.9701083,
            15.2694383
          ],
          [
            73.970215,
            15.2694333
          ],
          [
            73.9701666,
            15.2693966
          ],
          [
            73.9701666,
            15.2693683
          ],
          [
            73.9701416,
            15.2694216
          ],
          [
            73.9700933,
            15.269475
          ],
          [
            73.970255,
            15.2693783
          ],
          [
            73.97019,
            15.2694333
          ],
          [
            73.9701983,
            15.2694433
          ],
          [
            73.9701583,
            15.2694383
          ],
          [
            73.9704266,
            15.2693516
          ],
          [
            73.9701416,
            15.2694033
          ],
          [
            73.97019,
            15.2690833
          ],
          [
            73.9700433,
            15.2692933
          ],
          [
            73.9699783,
            15.26943
          ],
          [
            73.970305,
            15.2693883
          ],
          [
            73.970215,
            15.2693833
          ],
          [
            73.9701983,
            15.2694216
          ],
          [
            73.9701983,
            15.26941
          ],
          [
            73.9699783,
            15.26944
          ],
          [
            73.9701016,
            15.26943
          ],
          [
            73.9701333,
            15.269405
          ],
          [
            73.970125,
            15.26943
          ],
          [
            73.9701983,
            15.2694666
          ],
          [
            73.97024,
            15.2694033
          ],
          [
            73.9702716,
            15.2685783
          ],
          [
            73.9702966,
            15.2691683
          ],
          [
            73.9702716,
            15.269275
          ],
          [
            73.9702633,
            15.2693666
          ],
          [
            73.9701083,
            15.2694166
          ],
          [
            73.97006,
            15.2694516
          ],
          [
            73.9700683,
            15.269415
          ],
          [
            73.9702466,
            15.2693233
          ],
          [
            73.97037,
            15.2691566
          ],
          [
            73.9700933,
            15.269305
          ],
          [
            73.97028,
            15.2694199
          ],
          [
            73.9703199,
            15.2694133
          ],
          [
            73.970125,
            15.26949
          ],
          [
            73.9700283,
            15.2694783
          ],
          [
            73.9705316,
            15.2697983
          ],
          [
            73.9702883,
            15.269595
          ],
          [
            73.9700433,
            15.2693183
          ],
          [
            73.9701416,
            15.2692849
          ],
          [
            73.97019,
            15.269505
          ],
          [
            73.9700766,
            15.2694316
          ],
          [
            73.9704583,
            15.2691983
          ],
          [
            73.9702883,
            15.2693016
          ],
          [
            73.9702316,
            15.2693233
          ],
          [
            73.9700933,
            15.269325
          ],
          [
            73.9702466,
            15.26935
          ],
          [
            73.970215,
            15.269355
          ],
          [
            73.97019,
            15.2693383
          ],
          [
            73.9701666,
            15.269035
          ],
          [
            73.9701666,
            15.2693116
          ],
          [
            73.97019,
            15.2693583
          ],
          [
            73.97006,
            15.2694066
          ],
          [
            73.9700033,
            15.26931
          ],
          [
            73.9700433,
            15.269425
          ],
          [
            73.9700033,
            15.26937
          ],
          [
            73.970085,
            15.26947
          ],
          [
            73.9700683,
            15.2694166
          ],
          [
            73.9701016,
            15.2694533
          ],
          [
            73.97037,
            15.269315
          ],
          [
            73.9701733,
            15.2693316
          ],
          [
            73.969905,
            15.2693333
          ],
          [
            73.9700116,
            15.26945
          ],
          [
            73.9701816,
            15.2693766
          ],
          [
            73.9701666,
            15.26937
          ],
          [
            73.97006,
            15.2693916
          ],
          [
            73.9701733,
            15.2694766
          ],
          [
            73.9701083,
            15.2694033
          ],
          [
            73.9700683,
            15.2693749
          ],
          [
            73.9700283,
            15.2692733
          ],
          [
            73.970085,
            15.2694133
          ],
          [
            73.9701816,
            15.2694116
          ],
          [
            73.9701983,
            15.26923
          ],
          [
            73.97015,
            15.2692766
          ],
          [
            73.9700933,
            15.2693333
          ],
          [
            73.96993,
            15.2693016
          ],
          [
            73.970215,
            15.2694483
          ],
          [
            73.9701733,
            15.2693749
          ],
          [
            73.97015,
            15.269445
          ],
          [
            73.97019,
            15.2692549
          ],
          [
            73.9698483,
            15.26962
          ],
          [
            73.9702883,
            15.2693916
          ],
          [
            73.9702066,
            15.2693933
          ],
          [
            73.96993,
            15.269395
          ],
          [
            73.9699466,
            15.2693983
          ],
          [
            73.9703199,
            15.2692766
          ],
          [
            73.969905,
            15.269235
          ],
          [
            73.9699133,
            15.269365
          ],
          [
            73.9698566,
            15.2693016
          ],
          [
            73.9699633,
            15.2694166
          ],
          [
            73.9701583,
            15.26935
          ],
          [
            73.9701733,
            15.2692849
          ],
          [
            73.9700116,
            15.2693433
          ],
          [
            73.9699866,
            15.2692816
          ],
          [
            73.9699783,
            15.26918
          ],
          [
            73.9699783,
            15.269185
          ]
        ]
      },
      "properties": {
        "Vehicle_No": "GA 07 G 2317-MRG(EMERGENCY RESCUE TENDER)",
        "Vehicle_Name": "5035",
        "Branch": "Fire Station Margao",
        "created": "28-12-2025 05:30:11+05:30",
        "lastUpdated": "28-12-2025 08:10:49+05:30"
      }
    },
    {
      "type": "Feature",
      "geometry": {
        "type": "LineString",
        "coordinates": [
          [
            73.851335,
            15.3888066
          ]
        ]
      },
      "properties": {
        "Vehicle_No": "GA 07 G 1570-VAS(QUICK RESPONSE FIRE TENDER)",
        "Vehicle_Name": "5035",
        "Branch": "Fire Station Vasco",
        "created": "28-12-2025 05:29:08+05:30",
        "lastUpdated": "28-12-2025 05:29:08+05:30"
      }
    },
    {
      "type": "Feature",
      "geometry": {
        "type": "LineString",
        "coordinates": [
          [
            73.851245,
            15.3888566
          ]
        ]
      },
      "properties": {
        "Vehicle_No": "GA 07 G 4101-VAS(MS WATER TENDER)",
        "Vehicle_Name": "5035",
        "Branch": "Fire Station Vasco",
        "created": "28-12-2025 05:29:52+05:30",
        "lastUpdated": "28-12-2025 05:29:52+05:30"
      }
    },
    {
      "type": "Feature",
      "geometry": {
        "type": "LineString",
        "coordinates": [
          [
            73.851245,
            15.3888
          ],
          [
            73.8520667,
            15.3903417
          ],
          [
            73.85052,
            15.3909117
          ],
          [
            73.8479417,
            15.3889183
          ],
          [
            73.8439783,
            15.386255
          ],
          [
            73.8419267,
            15.385745
          ],
          [
            73.8420167,
            15.3852983
          ],
          [
            73.8467933,
            15.3861367
          ],
          [
            73.850805,
            15.3828633
          ],
          [
            73.84489,
            15.38129
          ],
          [
            73.8406333,
            15.37902
          ],
          [
            73.83715,
            15.379335
          ],
          [
            73.837175,
            15.3794233
          ],
          [
            73.83715,
            15.3794283
          ]
        ]
      },
      "properties": {
        "Vehicle_No": "GA 07 G 0819-VAS(WATER/FOAM TENDER)",
        "Vehicle_Name": "4G",
        "Branch": "Fire Station Vasco",
        "created": "28-12-2025 05:30:12+05:30",
        "lastUpdated": "28-12-2025 05:55:11+05:30"
      }
    },
    {
      "type": "Feature",
      "geometry": {
        "type": "LineString",
        "coordinates": [
          [
            73.9702316,
            15.2694316
          ],
          [
            73.9702716,
            15.2692233
          ]
        ]
      },
      "properties": {
        "Vehicle_No": "GA 07 G 7100-MRG(WATER BOUSER)",
        "Vehicle_Name": "5035",
        "Branch": "Fire Station Margao",
        "created": "28-12-2025 05:29:55+05:30",
        "lastUpdated": "28-12-2025 05:30:31+05:30"
      }
    },
    {
      "type": "Feature",
      "geometry": {
        "type": "LineString",
        "coordinates": [
          [
            73.9704266,
            15.2693966
          ]
        ]
      },
      "properties": {
        "Vehicle_No": "GA 07 G 1568-MRG(QUICK RESPONSE )",
        "Vehicle_Name": "5035",
        "Branch": "Fire Station Margao",
        "created": "28-12-2025 05:30:12+05:30",
        "lastUpdated": "28-12-2025 05:30:12+05:30"
      }
    },
    {
      "type": "Feature",
      "geometry": {
        "type": "LineString",
        "coordinates": [
          [
            73.9697916,
            15.2694116
          ]
        ]
      },
      "properties": {
        "Vehicle_No": "GA 07 G 6101-MRG(WATER TENDER)",
        "Vehicle_Name": "5035",
        "Branch": "Fire Station Margao",
        "created": "28-12-2025 05:29:22+05:30",
        "lastUpdated": "28-12-2025 05:29:22+05:30"
      }
    },
    {
      "type": "Feature",
      "geometry": {
        "type": "LineString",
        "coordinates": [
          [
            73.9699133,
            15.2693783
          ],
          [
            73.969955,
            15.2693433
          ]
        ]
      },
      "properties": {
        "Vehicle_No": "GA 07 G 1001-MRG(AERIAL LADDER PLATFORM)",
        "Vehicle_Name": "5035",
        "Branch": "Fire Station Margao",
        "created": "28-12-2025 05:29:49+05:30",
        "lastUpdated": "28-12-2025 05:30:49+05:30"
      }
    },
    {
      "type": "Feature",
      "geometry": {
        "type": "LineString",
        "coordinates": [
          [
            74.0027828,
            15.4027978
          ]
        ]
      },
      "properties": {
        "Vehicle_No": "GA 07 G 0820-BIC(WATER TEDNER)",
        "Vehicle_Name": "5026",
        "Branch": "Fire Station Bicholim",
        "created": "28-12-2025 05:29:37+05:30",
        "lastUpdated": "28-12-2025 05:29:37+05:30"
      }
    },
    {
      "type": "Feature",
      "geometry": {
        "type": "LineString",
        "coordinates": [
          [
            73.91399,
            15.5003216
          ]
        ]
      },
      "properties": {
        "Vehicle_No": "GA 07 G 5101-OLG(MS WATER TENDER)",
        "Vehicle_Name": "5035",
        "Branch": "Fire Station Old Goa",
        "created": "28-12-2025 05:30:12+05:30",
        "lastUpdated": "28-12-2025 05:30:12+05:30"
      }
    },
    {
      "type": "Feature",
      "geometry": {
        "type": "LineString",
        "coordinates": [
          [
            73.894775,
            15.6052666
          ]
        ]
      },
      "properties": {
        "Vehicle_No": "GA 07 G 3101-BIC(MS WATER TENDER)",
        "Vehicle_Name": "5035",
        "Branch": "Fire Station Bicholim",
        "created": "28-12-2025 05:29:46+05:30",
        "lastUpdated": "28-12-2025 05:29:46+05:30"
      }
    },
    {
      "type": "Feature",
      "geometry": {
        "type": "LineString",
        "coordinates": [
          [
            73.9474116,
            15.5904016
          ],
          [
            73.947575,
            15.58912
          ],
          [
            73.9473383,
            15.5895533
          ]
        ]
      },
      "properties": {
        "Vehicle_No": "GA 07 G 1941-BIC(QUICK RESPONSE)",
        "Vehicle_Name": "5035",
        "Branch": "Fire Station Bicholim",
        "created": "28-12-2025 05:29:18+05:30",
        "lastUpdated": "28-12-2025 06:48:55+05:30"
      }
    },
    {
      "type": "Feature",
      "geometry": {
        "type": "LineString",
        "coordinates": [
          [
            73.8513833,
            15.3888666
          ]
        ]
      },
      "properties": {
        "Vehicle_No": "GA 07 G 2319-VAS (EMERGENCY RESCUE TENDER)",
        "Vehicle_Name": "5035",
        "Branch": "Fire Station Vasco",
        "created": "28-12-2025 05:30:09+05:30",
        "lastUpdated": "28-12-2025 05:30:09+05:30"
      }
    },
    {
      "type": "Feature",
      "geometry": {
        "type": "LineString",
        "coordinates": [
          [
            74.13868,
            15.5309466
          ]
        ]
      },
      "properties": {
        "Vehicle_No": "GA 07 G 3737-VAP(WATER TENDER)",
        "Vehicle_Name": "5035",
        "Branch": "Fire Station Valpoi",
        "created": "28-12-2025 05:29:14+05:30",
        "lastUpdated": "28-12-2025 05:29:14+05:30"
      }
    },
    {
      "type": "Feature",
      "geometry": {
        "type": "LineString",
        "coordinates": [
          [
            74.00293,
            15.40294
          ],
          [
            74.0028883,
            15.4029433
          ],
          [
            74.0029216,
            15.4029
          ],
          [
            74.00306,
            15.403165
          ],
          [
            74.0028816,
            15.4027999
          ],
          [
            74.0028816,
            15.40281
          ],
          [
            74.0029133,
            15.4028216
          ],
          [
            74.0028816,
            15.4028133
          ],
          [
            74.0028966,
            15.402795
          ]
        ]
      },
      "properties": {
        "Vehicle_No": "GA 07 G 2318-PND(EMERGENCY RESCUE TENDER)",
        "Vehicle_Name": "5035",
        "Branch": "Fire Station Ponda",
        "created": "28-12-2025 05:29:16+05:30",
        "lastUpdated": "28-12-2025 07:55:27+05:30"
      }
    },
    {
      "type": "Feature",
      "geometry": {
        "type": "LineString",
        "coordinates": [
          [
            74.0027833,
            15.4026299
          ]
        ]
      },
      "properties": {
        "Vehicle_No": "GA 07 G 2004-PND(QUICK RESPONSE)",
        "Vehicle_Name": "5035",
        "Branch": "Fire Station Ponda",
        "created": "28-12-2025 05:29:15+05:30",
        "lastUpdated": "28-12-2025 05:29:15+05:30"
      }
    },
    {
      "type": "Feature",
      "geometry": {
        "type": "LineString",
        "coordinates": [
          [
            74.0027266,
            15.4028266
          ]
        ]
      },
      "properties": {
        "Vehicle_No": "GA 07 G 9101-PND(WATER TENDER)",
        "Vehicle_Name": "5035",
        "Branch": "Fire Station Ponda",
        "created": "28-12-2025 05:29:45+05:30",
        "lastUpdated": "28-12-2025 05:29:45+05:30"
      }
    },
    {
      "type": "Feature",
      "geometry": {
        "type": "LineString",
        "coordinates": [
          [
            74.0027666,
            15.402735
          ]
        ]
      },
      "properties": {
        "Vehicle_No": "GA 07 G 9797-PND(WATER BOUSER)",
        "Vehicle_Name": "5035",
        "Branch": "Fire Station Ponda",
        "created": "28-12-2025 05:28:57+05:30",
        "lastUpdated": "28-12-2025 05:28:57+05:30"
      }
    },
    {
      "type": "Feature",
      "geometry": {
        "type": "LineString",
        "coordinates": [
          [
            74.0440183,
            15.0236666
          ]
        ]
      },
      "properties": {
        "Vehicle_No": "GA 07 G 6363-CAN(WATER TENDER)",
        "Vehicle_Name": "5035",
        "Branch": "Fire Station Canacona",
        "created": "28-12-2025 05:29:49+05:30",
        "lastUpdated": "28-12-2025 05:29:49+05:30"
      }
    },
    {
      "type": "Feature",
      "geometry": {
        "type": "LineString",
        "coordinates": [
          [
            74.0395016,
            15.0164433
          ]
        ]
      },
      "properties": {
        "Vehicle_No": "GA 07 G 1567-CAN(QUICK RESPONSE FT)",
        "Vehicle_Name": "5035",
        "Branch": "Fire Station Canacona",
        "created": "26-12-2025 17:18:04+05:30",
        "lastUpdated": "26-12-2025 17:18:04+05:30"
      }
    },
    {
      "type": "Feature",
      "geometry": {
        "type": "LineString",
        "coordinates": [
          [
            73.9354816,
            15.3697266
          ],
          [
            73.9356116,
            15.3695783
          ],
          [
            73.9360349,
            15.3698616
          ]
        ]
      },
      "properties": {
        "Vehicle_No": "GA 07 G 1569-VRN(QUICK RESPONSE)",
        "Vehicle_Name": "5035",
        "Branch": "Fire Station Verna",
        "created": "28-12-2025 05:29:39+05:30",
        "lastUpdated": "28-12-2025 07:53:45+05:30"
      }
    },
    {
      "type": "Feature",
      "geometry": {
        "type": "LineString",
        "coordinates": [
          [
            73.9331866,
            15.3688216
          ],
          [
            73.93317,
            15.3688116
          ],
          [
            73.933155,
            15.3687883
          ],
          [
            73.9345216,
            15.37005
          ],
          [
            73.9357749,
            15.36969
          ],
          [
            73.9356283,
            15.3697183
          ],
          [
            73.935555,
            15.369605
          ],
          [
            73.9357833,
            15.3697066
          ],
          [
            73.9359783,
            15.3698716
          ]
        ]
      },
      "properties": {
        "Vehicle_No": "GA 07 G 9909-VRN(ADVANCE MULTI-PURPOSE)",
        "Vehicle_Name": "5035",
        "Branch": "Fire Station Verna",
        "created": "28-12-2025 05:30:11+05:30",
        "lastUpdated": "28-12-2025 05:51:55+05:30"
      }
    },
    {
      "type": "Feature",
      "geometry": {
        "type": "LineString",
        "coordinates": [
          [
            74.13877,
            15.5310566
          ]
        ]
      },
      "properties": {
        "Vehicle_No": "GA 07 G 1942-VAP(QUICK RESPONSE)",
        "Vehicle_Name": "5035",
        "Branch": "Fire Station Valpoi",
        "created": "28-12-2025 05:29:39+05:30",
        "lastUpdated": "28-12-2025 05:29:39+05:30"
      }
    },
    {
      "type": "Feature",
      "geometry": {
        "type": "LineString",
        "coordinates": [
          [
            74.103785,
            15.2606116
          ],
          [
            74.1035233,
            15.2602583
          ]
        ]
      },
      "properties": {
        "Vehicle_No": "GA 07 G 2003-CUR(QUICK RESPONSE)",
        "Vehicle_Name": "5035",
        "Branch": "Fire Station Curchorem",
        "created": "28-12-2025 05:29:44+05:30",
        "lastUpdated": "28-12-2025 06:01:55+05:30"
      }
    },
    {
      "type": "Feature",
      "geometry": {
        "type": "LineString",
        "coordinates": [
          [
            74.1037033,
            15.26048
          ]
        ]
      },
      "properties": {
        "Vehicle_No": "GA 07 G 7447-CUR(EMERGENCY RESCUE)",
        "Vehicle_Name": "5035",
        "Branch": "Fire Station Curchorem",
        "created": "28-12-2025 05:29:26+05:30",
        "lastUpdated": "28-12-2025 05:29:26+05:30"
      }
    },
    {
      "type": "Feature",
      "geometry": {
        "type": "LineString",
        "coordinates": [
          [
            74.10345,
            15.2604066
          ]
        ]
      },
      "properties": {
        "Vehicle_No": "GA 07 G 7557-CUR(WATER TENDER)",
        "Vehicle_Name": "5035",
        "Branch": "Fire Station Curchorem",
        "created": "28-12-2025 05:29:19+05:30",
        "lastUpdated": "28-12-2025 05:29:19+05:30"
      }
    },
    {
      "type": "Feature",
      "geometry": {
        "type": "LineString",
        "coordinates": [
          [
            73.9930183,
            15.14378
          ]
        ]
      },
      "properties": {
        "Vehicle_No": "GA 07 G 7667-CUR(WATER BOUSER)",
        "Vehicle_Name": "5035",
        "Branch": "Fire Station Curchorem",
        "created": "28-12-2025 05:29:27+05:30",
        "lastUpdated": "28-12-2025 05:29:27+05:30"
      }
    },
    {
      "type": "Feature",
      "geometry": {
        "type": "LineString",
        "coordinates": [
          [
            73.9726483,
            15.4631667
          ],
          [
            73.9725267,
            15.462885
          ],
          [
            73.9724033,
            15.4629483
          ],
          [
            73.9721033,
            15.462165
          ]
        ]
      },
      "properties": {
        "Vehicle_No": "GA 07 G 4989-KUN(WATER TENDER)",
        "Vehicle_Name": "G-100",
        "Branch": "Fire Station Kundaim",
        "created": "28-12-2025 05:29:57+05:30",
        "lastUpdated": "28-12-2025 07:52:06+05:30"
      }
    },
    {
      "type": "Feature",
      "geometry": {
        "type": "LineString",
        "coordinates": [
          [
            73.7940972,
            15.5327489
          ]
        ]
      },
      "properties": {
        "Vehicle_No": "GA 07 G 2242-PIL(WATER TENDER)",
        "Vehicle_Name": "5026",
        "Branch": "Fire Station Pilerne",
        "created": "28-12-2025 05:28:19+05:30",
        "lastUpdated": "28-12-2025 05:28:19+05:30"
      }
    },
    {
      "type": "Feature",
      "geometry": {
        "type": "LineString",
        "coordinates": [
          [
            73.8087883,
            15.5897883
          ]
        ]
      },
      "properties": {
        "Vehicle_No": "GA 07 G 0681-MAP(QUICK RESPONSE)",
        "Vehicle_Name": "AT 5036A-4G",
        "Branch": "Fire Station Mapusa",
        "created": "28-12-2025 05:30:08+05:30",
        "lastUpdated": "28-12-2025 05:30:08+05:30"
      }
    },
    {
      "type": "Feature",
      "geometry": {
        "type": "LineString",
        "coordinates": [
          [
            73.7974239,
            15.7164939
          ]
        ]
      },
      "properties": {
        "Vehicle_No": "GA 07 G 0307-PER(QUICK RESPONSE)",
        "Vehicle_Name": "AT5032-4G",
        "Branch": "Fire Station Pernem",
        "created": "23-10-2025 15:19:09+05:30",
        "lastUpdated": "23-10-2025 15:19:09+05:30"
      }
    },
    {
      "type": "Feature",
      "geometry": {
        "type": "LineString",
        "coordinates": [
          [
            73.7975767,
            15.7164944
          ],
          [
            73.79744,
            15.7165561
          ]
        ]
      },
      "properties": {
        "Vehicle_No": "GA 07 G 2101-PER(MS WATER TENDER)",
        "Vehicle_Name": "AT5032-4G",
        "Branch": "Fire Station Pernem",
        "created": "28-12-2025 05:29:05+05:30",
        "lastUpdated": "28-12-2025 08:07:42+05:30"
      }
    },
    {
      "type": "Feature",
      "geometry": {
        "type": "LineString",
        "coordinates": [
          [
            73.7975622,
            15.7165228
          ]
        ]
      },
      "properties": {
        "Vehicle_No": "GA 07 G 4600-PER(MINI RESCUE TENDER)",
        "Vehicle_Name": "AT 5032-4G",
        "Branch": "Fire Station Pernem",
        "created": "28-12-2025 05:27:54+05:30",
        "lastUpdated": "28-12-2025 05:27:54+05:30"
      }
    },
    {
      "type": "Feature",
      "geometry": {
        "type": "LineString",
        "coordinates": [
          [
            73.8172828,
            15.4867878
          ],
          [
            73.8177594,
            15.4875261
          ],
          [
            73.8170978,
            15.4871067
          ],
          [
            73.8178589,
            15.4877139
          ],
          [
            73.8177822,
            15.4875833
          ],
          [
            73.8171294,
            15.4875289
          ],
          [
            73.8173289,
            15.4877428
          ],
          [
            73.817545,
            15.4875333
          ],
          [
            73.8181472,
            15.4880272
          ],
          [
            73.8180439,
            15.487975
          ],
          [
            73.8180111,
            15.48815
          ],
          [
            73.8179278,
            15.4880244
          ],
          [
            73.8175289,
            15.487605
          ],
          [
            73.8180122,
            15.4877128
          ],
          [
            73.8180411,
            15.4877406
          ],
          [
            73.8158172,
            15.4863417
          ],
          [
            73.8173111,
            15.4873156
          ],
          [
            73.8175094,
            15.4880428
          ],
          [
            73.8173144,
            15.4878289
          ],
          [
            73.8173983,
            15.4878589
          ],
          [
            73.8178611,
            15.4880078
          ]
        ]
      },
      "properties": {
        "Vehicle_No": "GA 07 G 7272-PNJ(WATER TENDER)",
        "Vehicle_Name": "AT-5032-4G",
        "Branch": "Fire Station Panaji",
        "created": "28-12-2025 05:29:25+05:30",
        "lastUpdated": "28-12-2025 08:10:18+05:30"
      }
    },
    {
      "type": "Feature",
      "geometry": {
        "type": "LineString",
        "coordinates": [
          [
            74.0210572,
            15.1861967
          ]
        ]
      },
      "properties": {
        "Vehicle_No": "GA07G2384- Cuncolim",
        "Vehicle_Name": "AT 5032-4G",
        "Branch": "Fire Station Cuncolim",
        "created": "28-12-2025 05:28:05+05:30",
        "lastUpdated": "28-12-2025 05:28:05+05:30"
      }
    },
    {
      "type": "Feature",
      "geometry": {
        "type": "LineString",
        "coordinates": [
          [
            73.7975267,
            15.7164617
          ]
        ]
      },
      "properties": {
        "Vehicle_No": "GA07G2507 - Mid Size (Water Tender)",
        "Vehicle_Name": "5035",
        "Branch": "Fire Station Pernem",
        "created": "28-12-2025 05:29:39+05:30",
        "lastUpdated": "28-12-2025 05:29:39+05:30"
      }
    },
    {
      "type": "Feature",
      "geometry": {
        "type": "LineString",
        "coordinates": [
          [
            74.138615,
            15.5309533
          ]
        ]
      },
      "properties": {
        "Vehicle_No": "GA07G2505 - Mid Size (Water Tender)",
        "Vehicle_Name": "5035",
        "Branch": "Fire Station Valpoi",
        "created": "28-12-2025 05:30:06+05:30",
        "lastUpdated": "28-12-2025 05:30:06+05:30"
      }
    },
    {
      "type": "Feature",
      "geometry": {
        "type": "LineString",
        "coordinates": [
          [
            73.9464933,
            15.5891767
          ]
        ]
      },
      "properties": {
        "Vehicle_No": "GA07G2504 - Mid Size (Water Tender)",
        "Vehicle_Name": "5035",
        "Branch": "Fire Station Bicholim",
        "created": "28-12-2025 05:29:24+05:30",
        "lastUpdated": "28-12-2025 05:29:24+05:30"
      }
    },
    {
      "type": "Feature",
      "geometry": {
        "type": "LineString",
        "coordinates": [
          [
            73.8086433,
            15.5899117
          ],
          [
            73.809465,
            15.59105
          ],
          [
            73.81084,
            15.5896967
          ],
          [
            73.8151767,
            15.5890267
          ],
          [
            73.8187417,
            15.5894333
          ],
          [
            73.8209317,
            15.5868383
          ],
          [
            73.8243,
            15.58337
          ],
          [
            73.8286217,
            15.5814333
          ],
          [
            73.8339767,
            15.5803283
          ],
          [
            73.837785,
            15.5807783
          ],
          [
            73.841415,
            15.5823133
          ],
          [
            73.845125,
            15.5860983
          ],
          [
            73.8500083,
            15.5845783
          ],
          [
            73.8562583,
            15.5809933
          ],
          [
            73.8606683,
            15.578865
          ],
          [
            73.8652267,
            15.57759
          ],
          [
            73.8641433,
            15.571665
          ],
          [
            73.863135,
            15.568905
          ],
          [
            73.8617683,
            15.5631283
          ],
          [
            73.8620117,
            15.56184
          ],
          [
            73.8651533,
            15.5613117
          ],
          [
            73.8650883,
            15.561345
          ],
          [
            73.8619067,
            15.5620033
          ],
          [
            73.8617017,
            15.5631633
          ],
          [
            73.8617017,
            15.5632167
          ],
          [
            73.861695,
            15.5632433
          ],
          [
            73.8616783,
            15.5632433
          ],
          [
            73.86171,
            15.5632933
          ],
          [
            73.8617183,
            15.563305
          ],
          [
            73.8617183,
            15.5633217
          ],
          [
            73.8617183,
            15.5633083
          ],
          [
            73.86171,
            15.5632767
          ],
          [
            73.8617183,
            15.563245
          ],
          [
            73.8617017,
            15.563225
          ],
          [
            73.861695,
            15.5632183
          ],
          [
            73.86171,
            15.563245
          ],
          [
            73.8617267,
            15.5632717
          ],
          [
            73.86171,
            15.563265
          ],
          [
            73.861645,
            15.5632867
          ],
          [
            73.861645,
            15.563245
          ],
          [
            73.8616367,
            15.563235
          ],
          [
            73.8616533,
            15.56323
          ],
          [
            73.8616533,
            15.5632533
          ],
          [
            73.8617267,
            15.5633
          ],
          [
            73.86171,
            15.563275
          ],
          [
            73.8617017,
            15.5632567
          ],
          [
            73.8616867,
            15.5632567
          ],
          [
            73.8617017,
            15.5632467
          ],
          [
            73.86171,
            15.5632083
          ],
          [
            73.8617517,
            15.5632367
          ],
          [
            73.8617183,
            15.5632067
          ],
          [
            73.8617183,
            15.5632017
          ],
          [
            73.8617433,
            15.5632133
          ],
          [
            73.8617433,
            15.5632267
          ],
          [
            73.8617683,
            15.56323
          ],
          [
            73.8617917,
            15.5632383
          ],
          [
            73.861775,
            15.56324
          ],
          [
            73.8617517,
            15.5632083
          ],
          [
            73.8617833,
            15.5632267
          ],
          [
            73.8618,
            15.5632317
          ],
          [
            73.861825,
            15.5632583
          ],
          [
            73.861825,
            15.563265
          ],
          [
            73.8618333,
            15.5632717
          ],
          [
            73.8618083,
            15.563265
          ],
          [
            73.861775,
            15.5632533
          ],
          [
            73.8617683,
            15.5632567
          ],
          [
            73.8617267,
            15.563235
          ],
          [
            73.8617183,
            15.5632317
          ],
          [
            73.861735,
            15.5632183
          ],
          [
            73.861735,
            15.5632433
          ],
          [
            73.8617517,
            15.56324
          ],
          [
            73.8617683,
            15.5632367
          ],
          [
            73.8617917,
            15.56324
          ],
          [
            73.8617917,
            15.5632683
          ],
          [
            73.8617517,
            15.56337
          ],
          [
            73.8628667,
            15.5682117
          ],
          [
            73.86407,
            15.571725
          ],
          [
            73.8638583,
            15.5751567
          ],
          [
            73.8644783,
            15.577735
          ],
          [
            73.8595867,
            15.5792117
          ],
          [
            73.854745,
            15.5817883
          ],
          [
            73.8478833,
            15.586115
          ],
          [
            73.84336,
            15.5854833
          ],
          [
            73.842195,
            15.58316
          ],
          [
            73.8389733,
            15.5809483
          ],
          [
            73.8342617,
            15.5804283
          ],
          [
            73.8251217,
            15.5830233
          ],
          [
            73.8209067,
            15.5867917
          ],
          [
            73.8205317,
            15.5870917
          ],
          [
            73.81412,
            15.588785
          ],
          [
            73.8099767,
            15.5900283
          ],
          [
            73.8091233,
            15.5888333
          ],
          [
            73.8099767,
            15.59065
          ],
          [
            73.8088617,
            15.589905
          ],
          [
            73.808935,
            15.58988
          ]
        ]
      },
      "properties": {
        "Vehicle_No": "GA07G2503-Mid Size (Water Tender)",
        "Vehicle_Name": "5035",
        "Branch": "Fire Station Mapusa",
        "created": "28-12-2025 05:30:02+05:30",
        "lastUpdated": "28-12-2025 08:04:31+05:30"
      }
    },
    {
      "type": "Feature",
      "geometry": {
        "type": "LineString",
        "coordinates": [
          [
            73.8109867,
            15.4571333
          ]
        ]
      },
      "properties": {
        "Vehicle_No": "GA07G2502 - Mid Size (Water Tender)",
        "Vehicle_Name": "5035",
        "Branch": "Fire Force Headquarters",
        "created": "28-12-2025 05:30:11+05:30",
        "lastUpdated": "28-12-2025 05:30:11+05:30"
      }
    }
  ]
}