{
  "type": "FeatureCollection",
  "metadata": {
    "date": "20260119",
    "source": "Directorate of Fire Emergency Services, Govt. of Goa",
    "description": "Daily GPS tracks of fire trucks",
    "lastUpdated": "2026-01-19T10:08:15.239Z",
    "count": 51
  },
  "features": [
    {
      "type": "Feature",
      "geometry": {
        "type": "LineString",
        "coordinates": [
          [
            73.7546633,
            15.5589867
          ],
          [
            73.755615,
            15.5568617
          ],
          [
            73.7564217,
            15.5554583
          ],
          [
            73.7608717,
            15.5518333
          ],
          [
            73.76084,
            15.551675
          ],
          [
            73.760815,
            15.5516433
          ],
          [
            73.760815,
            15.5516983
          ],
          [
            73.7608883,
            15.5517783
          ],
          [
            73.7644617,
            15.5501767
          ],
          [
            73.769645,
            15.5478433
          ],
          [
            73.7726967,
            15.5501417
          ],
          [
            73.7734867,
            15.5534533
          ],
          [
            73.77631,
            15.557685
          ],
          [
            73.77959,
            15.5538283
          ]
        ]
      },
      "properties": {
        "Vehicle_No": "GA 07 G 0680-PIL(QUICK RESPONSE VEHICLE)",
        "Vehicle_Name": "4G",
        "Branch": "Fire Station Pilerne",
        "created": "19-01-2026 15:01:00+05:30",
        "lastUpdated": "19-01-2026 15:37:48+05:30"
      }
    },
    {
      "type": "Feature",
      "geometry": {
        "type": "LineString",
        "coordinates": [
          [
            73.914024,
            15.500297
          ]
        ]
      },
      "properties": {
        "Vehicle_No": "GA07G2506 - OLG Mid Size (Water Tender)",
        "Vehicle_Name": "TS101",
        "Branch": "Fire Station Old Goa",
        "created": "19-01-2026 15:00:31+05:30",
        "lastUpdated": "19-01-2026 15:00:31+05:30"
      }
    },
    {
      "type": "Feature",
      "geometry": {
        "type": "LineString",
        "coordinates": [
          [
            73.82943,
            15.523075
          ],
          [
            73.828896,
            15.52287
          ],
          [
            73.829338,
            15.523098
          ]
        ]
      },
      "properties": {
        "Vehicle_No": "GA 07 G 5115-POR(MINI WATER TENDER)",
        "Vehicle_Name": "TS101",
        "Branch": "Fire Station Porvorim",
        "created": "19-01-2026 14:58:27+05:30",
        "lastUpdated": "19-01-2026 15:06:27+05:30"
      }
    },
    {
      "type": "Feature",
      "geometry": {
        "type": "LineString",
        "coordinates": [
          [
            73.970619,
            15.269432
          ]
        ]
      },
      "properties": {
        "Vehicle_No": "GA 07 G 0350-MRG(WATER TENDER)",
        "Vehicle_Name": "TS101",
        "Branch": "Fire Station Margao",
        "created": "19-01-2026 15:00:32+05:30",
        "lastUpdated": "19-01-2026 15:00:32+05:30"
      }
    },
    {
      "type": "Feature",
      "geometry": {
        "type": "LineString",
        "coordinates": [
          [
            73.808853,
            15.589917
          ]
        ]
      },
      "properties": {
        "Vehicle_No": "GA 07 G 2900-MAP(MINI RESCUE TENDER)",
        "Vehicle_Name": "TS101",
        "Branch": "Fire Station Mapusa",
        "created": "19-01-2026 15:01:03+05:30",
        "lastUpdated": "19-01-2026 15:01:03+05:30"
      }
    },
    {
      "type": "Feature",
      "geometry": {
        "type": "LineString",
        "coordinates": [
          [
            73.817276,
            15.487277
          ]
        ]
      },
      "properties": {
        "Vehicle_No": "GA 07 G 7600-FFHQ(WATER BOUSER)",
        "Vehicle_Name": "TS101",
        "Branch": "Fire Force Headquarters",
        "created": "19-01-2026 14:59:51+05:30",
        "lastUpdated": "19-01-2026 14:59:51+05:30"
      }
    },
    {
      "type": "Feature",
      "geometry": {
        "type": "LineString",
        "coordinates": [
          [
            73.817139,
            15.487228
          ]
        ]
      },
      "properties": {
        "Vehicle_No": "GA 07 G 2002-FFHQ(TURN TABLE LADDER)",
        "Vehicle_Name": "TS101",
        "Branch": "Fire Force Headquarters",
        "created": "19-01-2026 14:59:57+05:30",
        "lastUpdated": "19-01-2026 14:59:57+05:30"
      }
    },
    {
      "type": "Feature",
      "geometry": {
        "type": "LineString",
        "coordinates": [
          [
            73.8172,
            15.486613
          ]
        ]
      },
      "properties": {
        "Vehicle_No": "GA 07 G 7101-FFHQ(WATER TENDER)",
        "Vehicle_Name": "TS101",
        "Branch": "Fire Force Headquarters",
        "created": "19-01-2026 15:01:01+05:30",
        "lastUpdated": "19-01-2026 15:01:01+05:30"
      }
    },
    {
      "type": "Feature",
      "geometry": {
        "type": "LineString",
        "coordinates": [
          [
            73.817001,
            15.487138
          ]
        ]
      },
      "properties": {
        "Vehicle_No": "GA 07 G 7677-FFHQ(EMERGENCY RESCUE)",
        "Vehicle_Name": "TS101",
        "Branch": "Fire Force Headquarters",
        "created": "19-01-2026 15:00:02+05:30",
        "lastUpdated": "19-01-2026 15:00:02+05:30"
      }
    },
    {
      "type": "Feature",
      "geometry": {
        "type": "LineString",
        "coordinates": [
          [
            73.817177,
            15.487167
          ]
        ]
      },
      "properties": {
        "Vehicle_No": "GA 07 G 1121-PNJ(EMERGENCY RESCUE)",
        "Vehicle_Name": "TS101",
        "Branch": "Fire Station Panaji",
        "created": "19-01-2026 15:01:16+05:30",
        "lastUpdated": "19-01-2026 15:01:16+05:30"
      }
    },
    {
      "type": "Feature",
      "geometry": {
        "type": "LineString",
        "coordinates": [
          [
            73.817345,
            15.486857
          ]
        ]
      },
      "properties": {
        "Vehicle_No": "GA 07 G 1571-FFHQ(QUICK RESPONSE)",
        "Vehicle_Name": "TS101",
        "Branch": "Fire Force Headquarters",
        "created": "19-01-2026 14:58:30+05:30",
        "lastUpdated": "19-01-2026 14:58:30+05:30"
      }
    },
    {
      "type": "Feature",
      "geometry": {
        "type": "LineString",
        "coordinates": [
          [
            73.808556,
            15.58997
          ]
        ]
      },
      "properties": {
        "Vehicle_No": "GA 07 G 8101-MAP(WATER TENDER)",
        "Vehicle_Name": "TS101",
        "Branch": "Fire Station Mapusa",
        "created": "19-01-2026 14:59:47+05:30",
        "lastUpdated": "19-01-2026 14:59:47+05:30"
      }
    },
    {
      "type": "Feature",
      "geometry": {
        "type": "LineString",
        "coordinates": [
          [
            73.9700116,
            15.2696166
          ],
          [
            73.9703283,
            15.269505
          ],
          [
            73.96997,
            15.2694516
          ],
          [
            73.9700766,
            15.2694116
          ],
          [
            73.969955,
            15.269425
          ],
          [
            73.9700116,
            15.269385
          ],
          [
            73.9700033,
            15.2694416
          ],
          [
            73.9700283,
            15.2694349
          ],
          [
            73.9698733,
            15.2693749
          ],
          [
            73.9698083,
            15.269475
          ],
          [
            73.969865,
            15.2694349
          ],
          [
            73.9698816,
            15.2694383
          ],
          [
            73.969995,
            15.26946
          ],
          [
            73.9698483,
            15.26953
          ],
          [
            73.9699383,
            15.2693966
          ],
          [
            73.9700933,
            15.2693916
          ],
          [
            73.9701016,
            15.269355
          ],
          [
            73.9699783,
            15.2693583
          ],
          [
            73.9701416,
            15.2694016
          ],
          [
            73.9701333,
            15.2693933
          ],
          [
            73.9701333,
            15.2694066
          ],
          [
            73.9699866,
            15.2693666
          ],
          [
            73.9700933,
            15.2694066
          ],
          [
            73.9698816,
            15.2694133
          ],
          [
            73.96989,
            15.269405
          ],
          [
            73.97006,
            15.2694933
          ]
        ]
      },
      "properties": {
        "Vehicle_No": "GA 07 G 2317-MRG(EMERGENCY RESCUE TENDER)",
        "Vehicle_Name": "5035",
        "Branch": "Fire Station Margao",
        "created": "19-01-2026 15:01:16+05:30",
        "lastUpdated": "19-01-2026 15:37:23+05:30"
      }
    },
    {
      "type": "Feature",
      "geometry": {
        "type": "LineString",
        "coordinates": [
          [
            73.8513266,
            15.3888166
          ]
        ]
      },
      "properties": {
        "Vehicle_No": "GA 07 G 1570-VAS(QUICK RESPONSE FIRE TENDER)",
        "Vehicle_Name": "5035",
        "Branch": "Fire Station Vasco",
        "created": "19-01-2026 15:01:06+05:30",
        "lastUpdated": "19-01-2026 15:01:06+05:30"
      }
    },
    {
      "type": "Feature",
      "geometry": {
        "type": "LineString",
        "coordinates": [
          [
            73.851285,
            15.3888166
          ]
        ]
      },
      "properties": {
        "Vehicle_No": "GA 07 G 4101-VAS(MS WATER TENDER)",
        "Vehicle_Name": "5035",
        "Branch": "Fire Station Vasco",
        "created": "19-01-2026 15:00:49+05:30",
        "lastUpdated": "19-01-2026 15:00:49+05:30"
      }
    },
    {
      "type": "Feature",
      "geometry": {
        "type": "LineString",
        "coordinates": [
          [
            73.85131,
            15.3888383
          ]
        ]
      },
      "properties": {
        "Vehicle_No": "GA 07 G 0819-VAS(WATER/FOAM TENDER)",
        "Vehicle_Name": "4G",
        "Branch": "Fire Station Vasco",
        "created": "19-01-2026 15:00:57+05:30",
        "lastUpdated": "19-01-2026 15:00:57+05:30"
      }
    },
    {
      "type": "Feature",
      "geometry": {
        "type": "LineString",
        "coordinates": [
          [
            73.9698966,
            15.2696283
          ]
        ]
      },
      "properties": {
        "Vehicle_No": "GA 07 G 7100-MRG(WATER BOUSER)",
        "Vehicle_Name": "5035",
        "Branch": "Fire Station Margao",
        "created": "19-01-2026 15:00:39+05:30",
        "lastUpdated": "19-01-2026 15:00:39+05:30"
      }
    },
    {
      "type": "Feature",
      "geometry": {
        "type": "LineString",
        "coordinates": [
          [
            73.9596116,
            15.2718316
          ]
        ]
      },
      "properties": {
        "Vehicle_No": "GA 07 G 1568-MRG(QUICK RESPONSE )",
        "Vehicle_Name": "5035",
        "Branch": "Fire Station Margao",
        "created": "19-01-2026 15:01:05+05:30",
        "lastUpdated": "19-01-2026 15:01:05+05:30"
      }
    },
    {
      "type": "Feature",
      "geometry": {
        "type": "LineString",
        "coordinates": [
          [
            73.9705083,
            15.2694333
          ]
        ]
      },
      "properties": {
        "Vehicle_No": "GA 07 G 6101-MRG(WATER TENDER)",
        "Vehicle_Name": "5035",
        "Branch": "Fire Station Margao",
        "created": "19-01-2026 15:01:01+05:30",
        "lastUpdated": "19-01-2026 15:01:01+05:30"
      }
    },
    {
      "type": "Feature",
      "geometry": {
        "type": "LineString",
        "coordinates": [
          [
            73.9702066,
            15.2695116
          ]
        ]
      },
      "properties": {
        "Vehicle_No": "GA 07 G 1001-MRG(AERIAL LADDER PLATFORM)",
        "Vehicle_Name": "5035",
        "Branch": "Fire Station Margao",
        "created": "19-01-2026 15:00:37+05:30",
        "lastUpdated": "19-01-2026 15:00:37+05:30"
      }
    },
    {
      "type": "Feature",
      "geometry": {
        "type": "LineString",
        "coordinates": [
          [
            74.002835,
            15.4027606
          ]
        ]
      },
      "properties": {
        "Vehicle_No": "GA 07 G 0820-BIC(WATER TEDNER)",
        "Vehicle_Name": "5026",
        "Branch": "Fire Station Bicholim",
        "created": "19-01-2026 15:00:06+05:30",
        "lastUpdated": "19-01-2026 15:00:06+05:30"
      }
    },
    {
      "type": "Feature",
      "geometry": {
        "type": "LineString",
        "coordinates": [
          [
            73.9140633,
            15.50026
          ]
        ]
      },
      "properties": {
        "Vehicle_No": "GA 07 G 5101-OLG(MS WATER TENDER)",
        "Vehicle_Name": "5035",
        "Branch": "Fire Station Old Goa",
        "created": "19-01-2026 15:01:00+05:30",
        "lastUpdated": "19-01-2026 15:01:00+05:30"
      }
    },
    {
      "type": "Feature",
      "geometry": {
        "type": "LineString",
        "coordinates": [
          [
            73.9463383,
            15.5892266
          ],
          [
            73.9462233,
            15.5894083
          ],
          [
            73.94615,
            15.5893533
          ],
          [
            73.9460533,
            15.5894983
          ],
          [
            73.9460699,
            15.5895816
          ],
          [
            73.9460533,
            15.5895683
          ],
          [
            73.9461433,
            15.5897383
          ],
          [
            73.9466233,
            15.58958
          ],
          [
            73.9465166,
            15.589425
          ],
          [
            73.9465333,
            15.5893866
          ],
          [
            73.9465333,
            15.5893583
          ],
          [
            73.9467283,
            15.589475
          ],
          [
            73.9466716,
            15.58914
          ],
          [
            73.9463616,
            15.5887566
          ]
        ]
      },
      "properties": {
        "Vehicle_No": "GA 07 G 3101-BIC(MS WATER TENDER)",
        "Vehicle_Name": "5035",
        "Branch": "Fire Station Bicholim",
        "created": "19-01-2026 15:01:15+05:30",
        "lastUpdated": "19-01-2026 15:36:28+05:30"
      }
    },
    {
      "type": "Feature",
      "geometry": {
        "type": "LineString",
        "coordinates": [
          [
            73.9467283,
            15.5894633
          ]
        ]
      },
      "properties": {
        "Vehicle_No": "GA 07 G 1941-BIC(QUICK RESPONSE)",
        "Vehicle_Name": "5035",
        "Branch": "Fire Station Bicholim",
        "created": "19-01-2026 15:00:42+05:30",
        "lastUpdated": "19-01-2026 15:00:42+05:30"
      }
    },
    {
      "type": "Feature",
      "geometry": {
        "type": "LineString",
        "coordinates": [
          [
            73.8532383,
            15.3900983
          ]
        ]
      },
      "properties": {
        "Vehicle_No": "GA 07 G 2319-VAS (EMERGENCY RESCUE TENDER)",
        "Vehicle_Name": "5035",
        "Branch": "Fire Station Vasco",
        "created": "19-01-2026 15:00:14+05:30",
        "lastUpdated": "19-01-2026 15:00:14+05:30"
      }
    },
    {
      "type": "Feature",
      "geometry": {
        "type": "LineString",
        "coordinates": [
          [
            74.1386966,
            15.5310683
          ]
        ]
      },
      "properties": {
        "Vehicle_No": "GA 07 G 3737-VAP(WATER TENDER)",
        "Vehicle_Name": "5035",
        "Branch": "Fire Station Valpoi",
        "created": "19-01-2026 15:01:10+05:30",
        "lastUpdated": "19-01-2026 15:01:10+05:30"
      }
    },
    {
      "type": "Feature",
      "geometry": {
        "type": "LineString",
        "coordinates": [
          [
            74.0028883,
            15.4028783
          ]
        ]
      },
      "properties": {
        "Vehicle_No": "GA 07 G 2318-PND(EMERGENCY RESCUE TENDER)",
        "Vehicle_Name": "5035",
        "Branch": "Fire Station Ponda",
        "created": "19-01-2026 15:00:14+05:30",
        "lastUpdated": "19-01-2026 15:00:14+05:30"
      }
    },
    {
      "type": "Feature",
      "geometry": {
        "type": "LineString",
        "coordinates": [
          [
            73.9073083,
            15.4141016
          ]
        ]
      },
      "properties": {
        "Vehicle_No": "GA 07 G 2004-PND(QUICK RESPONSE)",
        "Vehicle_Name": "5035",
        "Branch": "Fire Station Ponda",
        "created": "30-12-2025 13:47:09+05:30",
        "lastUpdated": "30-12-2025 13:47:09+05:30"
      }
    },
    {
      "type": "Feature",
      "geometry": {
        "type": "LineString",
        "coordinates": [
          [
            74.0028316,
            15.4026916
          ]
        ]
      },
      "properties": {
        "Vehicle_No": "GA 07 G 9101-PND(WATER TENDER)",
        "Vehicle_Name": "5035",
        "Branch": "Fire Station Ponda",
        "created": "19-01-2026 15:01:10+05:30",
        "lastUpdated": "19-01-2026 15:01:10+05:30"
      }
    },
    {
      "type": "Feature",
      "geometry": {
        "type": "LineString",
        "coordinates": [
          [
            74.0028566,
            15.40273
          ]
        ]
      },
      "properties": {
        "Vehicle_No": "GA 07 G 9797-PND(WATER BOUSER)",
        "Vehicle_Name": "5035",
        "Branch": "Fire Station Ponda",
        "created": "19-01-2026 15:00:41+05:30",
        "lastUpdated": "19-01-2026 15:00:41+05:30"
      }
    },
    {
      "type": "Feature",
      "geometry": {
        "type": "LineString",
        "coordinates": [
          [
            74.0440433,
            15.0236483
          ]
        ]
      },
      "properties": {
        "Vehicle_No": "GA 07 G 6363-CAN(WATER TENDER)",
        "Vehicle_Name": "5035",
        "Branch": "Fire Station Canacona",
        "created": "19-01-2026 15:00:29+05:30",
        "lastUpdated": "19-01-2026 15:00:29+05:30"
      }
    },
    {
      "type": "Feature",
      "geometry": {
        "type": "LineString",
        "coordinates": [
          [
            74.0441,
            15.0236883
          ]
        ]
      },
      "properties": {
        "Vehicle_No": "GA 07 G 1567-CAN(QUICK RESPONSE FT)",
        "Vehicle_Name": "5035",
        "Branch": "Fire Station Canacona",
        "created": "18-01-2026 00:12:23+05:30",
        "lastUpdated": "18-01-2026 00:12:23+05:30"
      }
    },
    {
      "type": "Feature",
      "geometry": {
        "type": "LineString",
        "coordinates": [
          [
            73.9356033,
            15.3697816
          ],
          [
            73.935815,
            15.3699016
          ],
          [
            73.93588,
            15.367885
          ],
          [
            73.93588,
            15.3678183
          ],
          [
            73.9345216,
            15.3673416
          ],
          [
            73.9287683,
            15.36911
          ]
        ]
      },
      "properties": {
        "Vehicle_No": "GA 07 G 1569-VRN(QUICK RESPONSE)",
        "Vehicle_Name": "5035",
        "Branch": "Fire Station Verna",
        "created": "19-01-2026 15:01:11+05:30",
        "lastUpdated": "19-01-2026 15:38:07+05:30"
      }
    },
    {
      "type": "Feature",
      "geometry": {
        "type": "LineString",
        "coordinates": [
          [
            73.935465,
            15.369785
          ]
        ]
      },
      "properties": {
        "Vehicle_No": "GA 07 G 9909-VRN(ADVANCE MULTI-PURPOSE)",
        "Vehicle_Name": "5035",
        "Branch": "Fire Station Verna",
        "created": "19-01-2026 15:01:17+05:30",
        "lastUpdated": "19-01-2026 15:01:17+05:30"
      }
    },
    {
      "type": "Feature",
      "geometry": {
        "type": "LineString",
        "coordinates": [
          [
            74.1388099,
            15.5311116
          ]
        ]
      },
      "properties": {
        "Vehicle_No": "GA 07 G 1942-VAP(QUICK RESPONSE)",
        "Vehicle_Name": "5035",
        "Branch": "Fire Station Valpoi",
        "created": "19-01-2026 15:00:15+05:30",
        "lastUpdated": "19-01-2026 15:00:15+05:30"
      }
    },
    {
      "type": "Feature",
      "geometry": {
        "type": "LineString",
        "coordinates": [
          [
            74.1031816,
            15.260065
          ]
        ]
      },
      "properties": {
        "Vehicle_No": "GA 07 G 2003-CUR(QUICK RESPONSE)",
        "Vehicle_Name": "5035",
        "Branch": "Fire Station Curchorem",
        "created": "19-01-2026 15:00:54+05:30",
        "lastUpdated": "19-01-2026 15:00:54+05:30"
      }
    },
    {
      "type": "Feature",
      "geometry": {
        "type": "LineString",
        "coordinates": [
          [
            74.1037116,
            15.2604466
          ]
        ]
      },
      "properties": {
        "Vehicle_No": "GA 07 G 7447-CUR(EMERGENCY RESCUE)",
        "Vehicle_Name": "5035",
        "Branch": "Fire Station Curchorem",
        "created": "19-01-2026 15:00:15+05:30",
        "lastUpdated": "19-01-2026 15:00:15+05:30"
      }
    },
    {
      "type": "Feature",
      "geometry": {
        "type": "LineString",
        "coordinates": [
          [
            74.1034416,
            15.2604016
          ]
        ]
      },
      "properties": {
        "Vehicle_No": "GA 07 G 7557-CUR(WATER TENDER)",
        "Vehicle_Name": "5035",
        "Branch": "Fire Station Curchorem",
        "created": "19-01-2026 15:00:19+05:30",
        "lastUpdated": "19-01-2026 15:00:19+05:30"
      }
    },
    {
      "type": "Feature",
      "geometry": {
        "type": "LineString",
        "coordinates": [
          [
            74.1035649,
            15.2604566
          ]
        ]
      },
      "properties": {
        "Vehicle_No": "GA 07 G 7667-CUR(WATER BOUSER)",
        "Vehicle_Name": "5035",
        "Branch": "Fire Station Curchorem",
        "created": "19-01-2026 15:01:10+05:30",
        "lastUpdated": "19-01-2026 15:01:10+05:30"
      }
    },
    {
      "type": "Feature",
      "geometry": {
        "type": "LineString",
        "coordinates": [
          [
            73.9725917,
            15.46281
          ],
          [
            73.9725417,
            15.4631933
          ],
          [
            73.972445,
            15.4632433
          ],
          [
            73.9727133,
            15.462985
          ],
          [
            73.9728117,
            15.4629183
          ],
          [
            73.97242,
            15.4625367
          ],
          [
            73.9724117,
            15.4625217
          ]
        ]
      },
      "properties": {
        "Vehicle_No": "GA 07 G 4989-KUN(WATER TENDER)",
        "Vehicle_Name": "G-100",
        "Branch": "Fire Station Kundaim",
        "created": "19-01-2026 15:00:38+05:30",
        "lastUpdated": "19-01-2026 15:34:47+05:30"
      }
    },
    {
      "type": "Feature",
      "geometry": {
        "type": "LineString",
        "coordinates": [
          [
            73.79398,
            15.5329917
          ]
        ]
      },
      "properties": {
        "Vehicle_No": "GA 07 G 2242-PIL(WATER TENDER)",
        "Vehicle_Name": "5026",
        "Branch": "Fire Station Pilerne",
        "created": "19-01-2026 14:59:00+05:30",
        "lastUpdated": "19-01-2026 14:59:00+05:30"
      }
    },
    {
      "type": "Feature",
      "geometry": {
        "type": "LineString",
        "coordinates": [
          [
            73.8086583,
            15.58973
          ]
        ]
      },
      "properties": {
        "Vehicle_No": "GA 07 G 0681-MAP(QUICK RESPONSE)",
        "Vehicle_Name": "AT 5036A-4G",
        "Branch": "Fire Station Mapusa",
        "created": "19-01-2026 15:01:11+05:30",
        "lastUpdated": "19-01-2026 15:01:11+05:30"
      }
    },
    {
      "type": "Feature",
      "geometry": {
        "type": "LineString",
        "coordinates": [
          [
            73.7975128,
            15.716455
          ]
        ]
      },
      "properties": {
        "Vehicle_No": "GA 07 G 2101-PER(MS WATER TENDER)",
        "Vehicle_Name": "AT5032-4G",
        "Branch": "Fire Station Pernem",
        "created": "19-01-2026 15:00:37+05:30",
        "lastUpdated": "19-01-2026 15:00:37+05:30"
      }
    },
    {
      "type": "Feature",
      "geometry": {
        "type": "LineString",
        "coordinates": [
          [
            73.7976044,
            15.7165589
          ]
        ]
      },
      "properties": {
        "Vehicle_No": "GA 07 G 4600-PER(MINI RESCUE TENDER)",
        "Vehicle_Name": "AT 5032-4G",
        "Branch": "Fire Station Pernem",
        "created": "19-01-2026 14:58:53+05:30",
        "lastUpdated": "19-01-2026 14:58:53+05:30"
      }
    },
    {
      "type": "Feature",
      "geometry": {
        "type": "LineString",
        "coordinates": [
          [
            73.8172767,
            15.4871967
          ]
        ]
      },
      "properties": {
        "Vehicle_No": "GA 07 G 7272-PNJ(WATER TENDER)",
        "Vehicle_Name": "AT-5032-4G",
        "Branch": "Fire Station Panaji",
        "created": "19-01-2026 14:59:38+05:30",
        "lastUpdated": "19-01-2026 14:59:38+05:30"
      }
    },
    {
      "type": "Feature",
      "geometry": {
        "type": "LineString",
        "coordinates": [
          [
            74.0210667,
            15.1863011
          ]
        ]
      },
      "properties": {
        "Vehicle_No": "GA07G2384- Cuncolim",
        "Vehicle_Name": "AT 5032-4G",
        "Branch": "Fire Station Cuncolim",
        "created": "19-01-2026 14:58:19+05:30",
        "lastUpdated": "19-01-2026 14:58:19+05:30"
      }
    },
    {
      "type": "Feature",
      "geometry": {
        "type": "LineString",
        "coordinates": [
          [
            73.7974933,
            15.7163717
          ]
        ]
      },
      "properties": {
        "Vehicle_No": "GA07G2507 - PER Mid Size (Water Tender)",
        "Vehicle_Name": "5035",
        "Branch": "Fire Station Pernem",
        "created": "19-01-2026 15:00:57+05:30",
        "lastUpdated": "19-01-2026 15:00:57+05:30"
      }
    },
    {
      "type": "Feature",
      "geometry": {
        "type": "LineString",
        "coordinates": [
          [
            74.1385817,
            15.530965
          ]
        ]
      },
      "properties": {
        "Vehicle_No": "GA07G2505 - VAP Mid Size (Water Tender)",
        "Vehicle_Name": "5035",
        "Branch": "Fire Station Valpoi",
        "created": "19-01-2026 15:00:58+05:30",
        "lastUpdated": "19-01-2026 15:00:58+05:30"
      }
    },
    {
      "type": "Feature",
      "geometry": {
        "type": "LineString",
        "coordinates": [
          [
            73.9381833,
            15.6699
          ]
        ]
      },
      "properties": {
        "Vehicle_No": "GA07G2504 - BIC Mid Size (Water Tender)",
        "Vehicle_Name": "5035",
        "Branch": "Fire Station Bicholim",
        "created": "19-01-2026 15:00:44+05:30",
        "lastUpdated": "19-01-2026 15:00:44+05:30"
      }
    },
    {
      "type": "Feature",
      "geometry": {
        "type": "LineString",
        "coordinates": [
          [
            73.808675,
            15.5900283
          ]
        ]
      },
      "properties": {
        "Vehicle_No": "GA07G2503- MAP Mid Size (Water Tender)",
        "Vehicle_Name": "5035",
        "Branch": "Fire Station Mapusa",
        "created": "19-01-2026 15:00:46+05:30",
        "lastUpdated": "19-01-2026 15:00:46+05:30"
      }
    },
    {
      "type": "Feature",
      "geometry": {
        "type": "LineString",
        "coordinates": [
          [
            73.8172533,
            15.4870033
          ]
        ]
      },
      "properties": {
        "Vehicle_No": "GA07G2502 - FFHQ Mid Size (Water Tender)",
        "Vehicle_Name": "5035",
        "Branch": "Fire Force Headquarters",
        "created": "19-01-2026 15:00:22+05:30",
        "lastUpdated": "19-01-2026 15:00:22+05:30"
      }
    }
  ]
}