{
  "type": "FeatureCollection",
  "metadata": {
    "date": "20251224",
    "source": "Directorate of Fire Emergency Services, Govt. of Goa",
    "description": "Daily GPS tracks of fire trucks",
    "lastUpdated": "2025-12-24T00:40:49.911Z",
    "count": 52
  },
  "features": [
    {
      "type": "Feature",
      "geometry": {
        "type": "LineString",
        "coordinates": [
          [
            73.7939133,
            15.5330133
          ]
        ]
      },
      "properties": {
        "Vehicle_No": "GA 07 G 0680-PIL(QUICK RESPONSE VEHICLE)",
        "Vehicle_Name": "4G",
        "Branch": "Fire Station Pilerne",
        "created": "24-12-2025 05:29:56",
        "lastUpdated": "24-12-2025 05:29:56"
      }
    },
    {
      "type": "Feature",
      "geometry": {
        "type": "LineString",
        "coordinates": [
          [
            73.914207,
            15.500267
          ],
          [
            73.914108,
            15.500323
          ]
        ]
      },
      "properties": {
        "Vehicle_No": "GA07G2506 - Mid Size (Water Tender)",
        "Vehicle_Name": "TS101",
        "Branch": "Fire Station Old Goa",
        "created": "24-12-2025 05:29:12",
        "lastUpdated": "24-12-2025 05:31:07"
      }
    },
    {
      "type": "Feature",
      "geometry": {
        "type": "LineString",
        "coordinates": [
          [
            73.829422,
            15.52299
          ]
        ]
      },
      "properties": {
        "Vehicle_No": "GA 07 G 5115-POR(MINI WATER TENDER)",
        "Vehicle_Name": "TS101",
        "Branch": "Fire Station Porvorim",
        "created": "24-12-2025 05:30:37",
        "lastUpdated": "24-12-2025 05:30:37"
      }
    },
    {
      "type": "Feature",
      "geometry": {
        "type": "LineString",
        "coordinates": [
          [
            73.970596,
            15.269388
          ],
          [
            73.970612,
            15.269435
          ]
        ]
      },
      "properties": {
        "Vehicle_No": "GA 07 G 0350-MRG(WATER TENDER)",
        "Vehicle_Name": "TS101",
        "Branch": "Fire Station Margao",
        "created": "24-12-2025 05:29:41",
        "lastUpdated": "24-12-2025 05:31:28"
      }
    },
    {
      "type": "Feature",
      "geometry": {
        "type": "LineString",
        "coordinates": [
          [
            73.808784,
            15.589932
          ],
          [
            73.8088,
            15.590093
          ]
        ]
      },
      "properties": {
        "Vehicle_No": "GA 07 G 2900-MAP(MINI RESCUE TENDER)",
        "Vehicle_Name": "TS101",
        "Branch": "Fire Station Mapusa",
        "created": "24-12-2025 05:29:14",
        "lastUpdated": "24-12-2025 05:33:19"
      }
    },
    {
      "type": "Feature",
      "geometry": {
        "type": "LineString",
        "coordinates": [
          [
            73.817093,
            15.487125
          ]
        ]
      },
      "properties": {
        "Vehicle_No": "GA 07 G 7600-FFHQ(WATER BOUSER)",
        "Vehicle_Name": "TS101",
        "Branch": "Fire Force Headquarters",
        "created": "24-12-2025 05:30:17",
        "lastUpdated": "24-12-2025 05:30:17"
      }
    },
    {
      "type": "Feature",
      "geometry": {
        "type": "LineString",
        "coordinates": [
          [
            73.817307,
            15.487188
          ],
          [
            73.817368,
            15.487387
          ]
        ]
      },
      "properties": {
        "Vehicle_No": "GA 07 G 2002-FFHQ(TURN TABLE LADDER)",
        "Vehicle_Name": "TS101",
        "Branch": "Fire Force Headquarters",
        "created": "24-12-2025 05:29:06",
        "lastUpdated": "24-12-2025 05:31:05"
      }
    },
    {
      "type": "Feature",
      "geometry": {
        "type": "LineString",
        "coordinates": [
          [
            73.816963,
            15.486823
          ],
          [
            73.817123,
            15.486943
          ]
        ]
      },
      "properties": {
        "Vehicle_No": "GA 07 G 7101-FFHQ(WATER TENDER)",
        "Vehicle_Name": "TS101",
        "Branch": "Fire Force Headquarters",
        "created": "24-12-2025 05:29:41",
        "lastUpdated": "24-12-2025 05:31:38"
      }
    },
    {
      "type": "Feature",
      "geometry": {
        "type": "LineString",
        "coordinates": [
          [
            73.817215,
            15.487168
          ]
        ]
      },
      "properties": {
        "Vehicle_No": "GA 07 G 7677-FFHQ(EMERGENCY RESCUE)",
        "Vehicle_Name": "TS101",
        "Branch": "Fire Force Headquarters",
        "created": "24-12-2025 05:30:36",
        "lastUpdated": "24-12-2025 05:30:36"
      }
    },
    {
      "type": "Feature",
      "geometry": {
        "type": "LineString",
        "coordinates": [
          [
            73.817322,
            15.487275
          ],
          [
            73.817268,
            15.487273
          ]
        ]
      },
      "properties": {
        "Vehicle_No": "GA 07 G 1121-PNJ(EMERGENCY RESCUE)",
        "Vehicle_Name": "TS101",
        "Branch": "Fire Station Panaji",
        "created": "24-12-2025 05:29:09",
        "lastUpdated": "24-12-2025 05:33:15"
      }
    },
    {
      "type": "Feature",
      "geometry": {
        "type": "LineString",
        "coordinates": [
          [
            73.81694,
            15.48656
          ],
          [
            73.816956,
            15.486562
          ]
        ]
      },
      "properties": {
        "Vehicle_No": "GA 07 G 1571-FFHQ(QUICK RESPONSE)",
        "Vehicle_Name": "TS101",
        "Branch": "Fire Force Headquarters",
        "created": "24-12-2025 05:29:04",
        "lastUpdated": "24-12-2025 05:31:03"
      }
    },
    {
      "type": "Feature",
      "geometry": {
        "type": "LineString",
        "coordinates": [
          [
            73.808876,
            15.589852
          ],
          [
            73.808708,
            15.590007
          ]
        ]
      },
      "properties": {
        "Vehicle_No": "GA 07 G 8101-MAP(WATER TENDER)",
        "Vehicle_Name": "TS101",
        "Branch": "Fire Station Mapusa",
        "created": "24-12-2025 05:29:37",
        "lastUpdated": "24-12-2025 05:31:37"
      }
    },
    {
      "type": "Feature",
      "geometry": {
        "type": "LineString",
        "coordinates": [
          [
            73.97006,
            15.2693933
          ],
          [
            73.9701016,
            15.26944
          ],
          [
            73.9701583,
            15.2692966
          ],
          [
            73.9701083,
            15.26931
          ],
          [
            73.9704183,
            15.2695133
          ],
          [
            73.9701583,
            15.2693783
          ],
          [
            73.9701166,
            15.2693183
          ],
          [
            73.970125,
            15.2693733
          ],
          [
            73.9702883,
            15.2692833
          ],
          [
            73.9701583,
            15.2693416
          ],
          [
            73.9701083,
            15.269365
          ],
          [
            73.9701416,
            15.2694033
          ],
          [
            73.9701083,
            15.2694349
          ],
          [
            73.9701816,
            15.2693966
          ],
          [
            73.9701083,
            15.2691466
          ],
          [
            73.9700516,
            15.2692849
          ],
          [
            73.9700933,
            15.2692816
          ],
          [
            73.9701016,
            15.2693216
          ],
          [
            73.9700933,
            15.2694783
          ],
          [
            73.9700433,
            15.269505
          ],
          [
            73.9700516,
            15.26949
          ],
          [
            73.96989,
            15.2692683
          ],
          [
            73.970125,
            15.2692566
          ],
          [
            73.9701416,
            15.2693316
          ],
          [
            73.970085,
            15.2693766
          ],
          [
            73.97006,
            15.2694199
          ],
          [
            73.9698966,
            15.2694266
          ],
          [
            73.970035,
            15.2694116
          ],
          [
            73.9701083,
            15.269315
          ],
          [
            73.9702066,
            15.2691716
          ],
          [
            73.97019,
            15.2694166
          ],
          [
            73.970125,
            15.2695316
          ],
          [
            73.9701666,
            15.2694133
          ]
        ]
      },
      "properties": {
        "Vehicle_No": "GA 07 G 2317-MRG(EMERGENCY RESCUE TENDER)",
        "Vehicle_Name": "5035",
        "Branch": "Fire Station Margao",
        "created": "24-12-2025 05:30:53",
        "lastUpdated": "24-12-2025 06:10:34"
      }
    },
    {
      "type": "Feature",
      "geometry": {
        "type": "LineString",
        "coordinates": [
          [
            73.8512283,
            15.3888083
          ],
          [
            73.8513183,
            15.3887916
          ]
        ]
      },
      "properties": {
        "Vehicle_No": "GA 07 G 1570-VAS(QUICK RESPONSE FIRE TENDER)",
        "Vehicle_Name": "5035",
        "Branch": "Fire Station Vasco",
        "created": "24-12-2025 05:30:03",
        "lastUpdated": "24-12-2025 05:31:27"
      }
    },
    {
      "type": "Feature",
      "geometry": {
        "type": "LineString",
        "coordinates": [
          [
            73.85092,
            15.3890783
          ]
        ]
      },
      "properties": {
        "Vehicle_No": "GA 07 G 4101-VAS(MS WATER TENDER)",
        "Vehicle_Name": "5035",
        "Branch": "Fire Station Vasco",
        "created": "24-12-2025 05:30:39",
        "lastUpdated": "24-12-2025 05:30:39"
      }
    },
    {
      "type": "Feature",
      "geometry": {
        "type": "LineString",
        "coordinates": [
          [
            73.8513017,
            15.3888033
          ]
        ]
      },
      "properties": {
        "Vehicle_No": "GA 07 G 0819-VAS(WATER/FOAM TENDER)",
        "Vehicle_Name": "4G",
        "Branch": "Fire Station Vasco",
        "created": "24-12-2025 05:30:47",
        "lastUpdated": "24-12-2025 05:30:47"
      }
    },
    {
      "type": "Feature",
      "geometry": {
        "type": "LineString",
        "coordinates": [
          [
            73.9704999,
            15.2694016
          ],
          [
            73.970215,
            15.269475
          ]
        ]
      },
      "properties": {
        "Vehicle_No": "GA 07 G 7100-MRG(WATER BOUSER)",
        "Vehicle_Name": "5035",
        "Branch": "Fire Station Margao",
        "created": "24-12-2025 05:30:02",
        "lastUpdated": "24-12-2025 05:31:25"
      }
    },
    {
      "type": "Feature",
      "geometry": {
        "type": "LineString",
        "coordinates": [
          [
            73.9705816,
            15.269445
          ]
        ]
      },
      "properties": {
        "Vehicle_No": "GA 07 G 1568-MRG(QUICK RESPONSE )",
        "Vehicle_Name": "5035",
        "Branch": "Fire Station Margao",
        "created": "24-12-2025 05:30:52",
        "lastUpdated": "24-12-2025 05:30:52"
      }
    },
    {
      "type": "Feature",
      "geometry": {
        "type": "LineString",
        "coordinates": [
          [
            73.97028,
            15.2693033
          ]
        ]
      },
      "properties": {
        "Vehicle_No": "GA 07 G 6101-MRG(WATER TENDER)",
        "Vehicle_Name": "5035",
        "Branch": "Fire Station Margao",
        "created": "24-12-2025 05:30:36",
        "lastUpdated": "24-12-2025 05:30:36"
      }
    },
    {
      "type": "Feature",
      "geometry": {
        "type": "LineString",
        "coordinates": [
          [
            73.9701583,
            15.2692399
          ],
          [
            73.9700766,
            15.2693666
          ]
        ]
      },
      "properties": {
        "Vehicle_No": "GA 07 G 1001-MRG(AERIAL LADDER PLATFORM)",
        "Vehicle_Name": "5035",
        "Branch": "Fire Station Margao",
        "created": "24-12-2025 05:30:51",
        "lastUpdated": "24-12-2025 05:31:30"
      }
    },
    {
      "type": "Feature",
      "geometry": {
        "type": "LineString",
        "coordinates": [
          [
            74.0028783,
            15.4027256
          ]
        ]
      },
      "properties": {
        "Vehicle_No": "GA 07 G 0820-BIC(WATER TEDNER)",
        "Vehicle_Name": "5026",
        "Branch": "Fire Station Bicholim",
        "created": "24-12-2025 05:29:35",
        "lastUpdated": "24-12-2025 05:29:35"
      }
    },
    {
      "type": "Feature",
      "geometry": {
        "type": "LineString",
        "coordinates": [
          [
            73.91403,
            15.5003033
          ]
        ]
      },
      "properties": {
        "Vehicle_No": "GA 07 G 5101-OLG(MS WATER TENDER)",
        "Vehicle_Name": "5035",
        "Branch": "Fire Station Old Goa",
        "created": "24-12-2025 05:30:27",
        "lastUpdated": "24-12-2025 05:30:27"
      }
    },
    {
      "type": "Feature",
      "geometry": {
        "type": "LineString",
        "coordinates": [
          [
            73.9463783,
            15.5888183
          ],
          [
            73.9464266,
            15.5888033
          ],
          [
            73.9464266,
            15.5887966
          ],
          [
            73.9462816,
            15.5888733
          ],
          [
            73.9463616,
            15.588895
          ],
          [
            73.94642,
            15.589205
          ],
          [
            73.9462233,
            15.5890016
          ],
          [
            73.9463216,
            15.5890033
          ],
          [
            73.9462733,
            15.58912
          ],
          [
            73.9462883,
            15.5890883
          ],
          [
            73.946265,
            15.58911
          ],
          [
            73.9465166,
            15.5890783
          ],
          [
            73.9464933,
            15.588975
          ],
          [
            73.9465,
            15.5889783
          ],
          [
            73.9464433,
            15.58907
          ],
          [
            73.9464933,
            15.5890933
          ],
          [
            73.9465333,
            15.5891716
          ],
          [
            73.94633,
            15.5889916
          ],
          [
            73.946395,
            15.589205
          ],
          [
            73.9463866,
            15.5892916
          ],
          [
            73.9464433,
            15.5894633
          ],
          [
            73.9464033,
            15.58937
          ]
        ]
      },
      "properties": {
        "Vehicle_No": "GA 07 G 3101-BIC(MS WATER TENDER)",
        "Vehicle_Name": "5035",
        "Branch": "Fire Station Bicholim",
        "created": "24-12-2025 05:30:15",
        "lastUpdated": "24-12-2025 06:06:30"
      }
    },
    {
      "type": "Feature",
      "geometry": {
        "type": "LineString",
        "coordinates": [
          [
            73.9467033,
            15.5894533
          ]
        ]
      },
      "properties": {
        "Vehicle_No": "GA 07 G 1941-BIC(QUICK RESPONSE)",
        "Vehicle_Name": "5035",
        "Branch": "Fire Station Bicholim",
        "created": "24-12-2025 05:29:59",
        "lastUpdated": "24-12-2025 05:29:59"
      }
    },
    {
      "type": "Feature",
      "geometry": {
        "type": "LineString",
        "coordinates": [
          [
            73.8524983,
            15.3901916
          ]
        ]
      },
      "properties": {
        "Vehicle_No": "GA 07 G 2319-VAS (EMERGENCY RESCUE TENDER)",
        "Vehicle_Name": "5035",
        "Branch": "Fire Station Vasco",
        "created": "24-12-2025 05:30:37",
        "lastUpdated": "24-12-2025 05:30:37"
      }
    },
    {
      "type": "Feature",
      "geometry": {
        "type": "LineString",
        "coordinates": [
          [
            74.138965,
            15.5310599
          ]
        ]
      },
      "properties": {
        "Vehicle_No": "GA 07 G 3737-VAP(WATER TENDER)",
        "Vehicle_Name": "5035",
        "Branch": "Fire Station Valpoi",
        "created": "24-12-2025 05:30:28",
        "lastUpdated": "24-12-2025 05:30:28"
      }
    },
    {
      "type": "Feature",
      "geometry": {
        "type": "LineString",
        "coordinates": [
          [
            74.0028816,
            15.4027999
          ]
        ]
      },
      "properties": {
        "Vehicle_No": "GA 07 G 2318-PND(EMERGENCY RESCUE TENDER)",
        "Vehicle_Name": "5035",
        "Branch": "Fire Station Ponda",
        "created": "24-12-2025 05:30:42",
        "lastUpdated": "24-12-2025 05:30:42"
      }
    },
    {
      "type": "Feature",
      "geometry": {
        "type": "LineString",
        "coordinates": [
          [
            74.0028483,
            15.4026666
          ]
        ]
      },
      "properties": {
        "Vehicle_No": "GA 07 G 2004-PND(QUICK RESPONSE)",
        "Vehicle_Name": "5035",
        "Branch": "Fire Station Ponda",
        "created": "24-12-2025 05:30:10",
        "lastUpdated": "24-12-2025 05:30:10"
      }
    },
    {
      "type": "Feature",
      "geometry": {
        "type": "LineString",
        "coordinates": [
          [
            74.0028083,
            15.4026516
          ]
        ]
      },
      "properties": {
        "Vehicle_No": "GA 07 G 9101-PND(WATER TENDER)",
        "Vehicle_Name": "5035",
        "Branch": "Fire Station Ponda",
        "created": "24-12-2025 05:30:49",
        "lastUpdated": "24-12-2025 05:30:49"
      }
    },
    {
      "type": "Feature",
      "geometry": {
        "type": "LineString",
        "coordinates": [
          [
            74.0028483,
            15.4025783
          ]
        ]
      },
      "properties": {
        "Vehicle_No": "GA 07 G 9797-PND(WATER BOUSER)",
        "Vehicle_Name": "5035",
        "Branch": "Fire Station Ponda",
        "created": "24-12-2025 05:30:54",
        "lastUpdated": "24-12-2025 05:30:54"
      }
    },
    {
      "type": "Feature",
      "geometry": {
        "type": "LineString",
        "coordinates": [
          [
            74.0440266,
            15.0236516
          ]
        ]
      },
      "properties": {
        "Vehicle_No": "GA 07 G 6363-CAN(WATER TENDER)",
        "Vehicle_Name": "5035",
        "Branch": "Fire Station Canacona",
        "created": "24-12-2025 00:34:34",
        "lastUpdated": "24-12-2025 00:34:34"
      }
    },
    {
      "type": "Feature",
      "geometry": {
        "type": "LineString",
        "coordinates": [
          [
            74.0440916,
            15.02362
          ]
        ]
      },
      "properties": {
        "Vehicle_No": "GA 07 G 1567-CAN(QUICK RESPONSE FT)",
        "Vehicle_Name": "5035",
        "Branch": "Fire Station Canacona",
        "created": "24-12-2025 05:30:41",
        "lastUpdated": "24-12-2025 05:30:41"
      }
    },
    {
      "type": "Feature",
      "geometry": {
        "type": "LineString",
        "coordinates": [
          [
            73.9355066,
            15.3694983
          ]
        ]
      },
      "properties": {
        "Vehicle_No": "GA 07 G 1569-VRN(QUICK RESPONSE)",
        "Vehicle_Name": "5035",
        "Branch": "Fire Station Verna",
        "created": "24-12-2025 05:30:38",
        "lastUpdated": "24-12-2025 05:30:38"
      }
    },
    {
      "type": "Feature",
      "geometry": {
        "type": "LineString",
        "coordinates": [
          [
            73.9353266,
            15.36974
          ],
          [
            73.9352216,
            15.3697483
          ]
        ]
      },
      "properties": {
        "Vehicle_No": "GA 07 G 9909-VRN(ADVANCE MULTI-PURPOSE)",
        "Vehicle_Name": "5035",
        "Branch": "Fire Station Verna",
        "created": "24-12-2025 05:29:54",
        "lastUpdated": "24-12-2025 05:31:20"
      }
    },
    {
      "type": "Feature",
      "geometry": {
        "type": "LineString",
        "coordinates": [
          [
            74.1388183,
            15.5311233
          ]
        ]
      },
      "properties": {
        "Vehicle_No": "GA 07 G 1942-VAP(QUICK RESPONSE)",
        "Vehicle_Name": "5035",
        "Branch": "Fire Station Valpoi",
        "created": "24-12-2025 05:29:52",
        "lastUpdated": "24-12-2025 05:29:52"
      }
    },
    {
      "type": "Feature",
      "geometry": {
        "type": "LineString",
        "coordinates": [
          [
            74.1036466,
            15.2603333
          ]
        ]
      },
      "properties": {
        "Vehicle_No": "GA 07 G 2003-CUR(QUICK RESPONSE)",
        "Vehicle_Name": "5035",
        "Branch": "Fire Station Curchorem",
        "created": "24-12-2025 05:30:51",
        "lastUpdated": "24-12-2025 05:30:51"
      }
    },
    {
      "type": "Feature",
      "geometry": {
        "type": "LineString",
        "coordinates": [
          [
            74.1037033,
            15.26048
          ]
        ]
      },
      "properties": {
        "Vehicle_No": "GA 07 G 7447-CUR(EMERGENCY RESCUE)",
        "Vehicle_Name": "5035",
        "Branch": "Fire Station Curchorem",
        "created": "24-12-2025 05:29:44",
        "lastUpdated": "24-12-2025 05:29:44"
      }
    },
    {
      "type": "Feature",
      "geometry": {
        "type": "LineString",
        "coordinates": [
          [
            74.1034666,
            15.2603583
          ]
        ]
      },
      "properties": {
        "Vehicle_No": "GA 07 G 7557-CUR(WATER TENDER)",
        "Vehicle_Name": "5035",
        "Branch": "Fire Station Curchorem",
        "created": "24-12-2025 05:29:46",
        "lastUpdated": "24-12-2025 05:29:46"
      }
    },
    {
      "type": "Feature",
      "geometry": {
        "type": "LineString",
        "coordinates": [
          [
            73.9910883,
            15.1454333
          ]
        ]
      },
      "properties": {
        "Vehicle_No": "GA 07 G 7667-CUR(WATER BOUSER)",
        "Vehicle_Name": "5035",
        "Branch": "Fire Station Curchorem",
        "created": "24-12-2025 05:30:50",
        "lastUpdated": "24-12-2025 05:30:50"
      }
    },
    {
      "type": "Feature",
      "geometry": {
        "type": "LineString",
        "coordinates": [
          [
            73.97255,
            15.4626467
          ],
          [
            73.97273,
            15.4636767
          ]
        ]
      },
      "properties": {
        "Vehicle_No": "GA 07 G 4989-KUN(WATER TENDER)",
        "Vehicle_Name": "G-100",
        "Branch": "Fire Station Kundaim",
        "created": "24-12-2025 05:29:55",
        "lastUpdated": "24-12-2025 05:57:54"
      }
    },
    {
      "type": "Feature",
      "geometry": {
        "type": "LineString",
        "coordinates": [
          [
            73.7941133,
            15.53295
          ]
        ]
      },
      "properties": {
        "Vehicle_No": "GA 07 G 2242-PIL(WATER TENDER)",
        "Vehicle_Name": "5026",
        "Branch": "Fire Station Pilerne",
        "created": "24-12-2025 05:30:44",
        "lastUpdated": "24-12-2025 05:30:44"
      }
    },
    {
      "type": "Feature",
      "geometry": {
        "type": "LineString",
        "coordinates": [
          [
            73.8088533,
            15.5897883
          ]
        ]
      },
      "properties": {
        "Vehicle_No": "GA 07 G 0681-MAP(QUICK RESPONSE)",
        "Vehicle_Name": "AT 5036A-4G",
        "Branch": "Fire Station Mapusa",
        "created": "24-12-2025 05:30:53",
        "lastUpdated": "24-12-2025 05:30:53"
      }
    },
    {
      "type": "Feature",
      "geometry": {
        "type": "LineString",
        "coordinates": [
          [
            73.7974239,
            15.7164939
          ]
        ]
      },
      "properties": {
        "Vehicle_No": "GA 07 G 0307-PER(QUICK RESPONSE)",
        "Vehicle_Name": "AT5032-4G",
        "Branch": "Fire Station Pernem",
        "created": "23-10-2025 15:19:09",
        "lastUpdated": "23-10-2025 15:19:09"
      }
    },
    {
      "type": "Feature",
      "geometry": {
        "type": "LineString",
        "coordinates": [
          [
            73.7974156,
            15.7165089
          ]
        ]
      },
      "properties": {
        "Vehicle_No": "GA 07 G 2101-PER(MS WATER TENDER)",
        "Vehicle_Name": "AT5032-4G",
        "Branch": "Fire Station Pernem",
        "created": "24-12-2025 05:30:35",
        "lastUpdated": "24-12-2025 05:30:35"
      }
    },
    {
      "type": "Feature",
      "geometry": {
        "type": "LineString",
        "coordinates": [
          [
            73.7975094,
            15.7164589
          ]
        ]
      },
      "properties": {
        "Vehicle_No": "GA 07 G 4600-PER(MINI RESCUE TENDER)",
        "Vehicle_Name": "AT 5032-4G",
        "Branch": "Fire Station Pernem",
        "created": "24-12-2025 05:30:28",
        "lastUpdated": "24-12-2025 05:30:28"
      }
    },
    {
      "type": "Feature",
      "geometry": {
        "type": "LineString",
        "coordinates": [
          [
            73.81793,
            15.4883861
          ]
        ]
      },
      "properties": {
        "Vehicle_No": "GA 07 G 7272-PNJ(WATER TENDER)",
        "Vehicle_Name": "AT-5032-4G",
        "Branch": "Fire Station Panaji",
        "created": "24-12-2025 05:28:32",
        "lastUpdated": "24-12-2025 05:28:32"
      }
    },
    {
      "type": "Feature",
      "geometry": {
        "type": "LineString",
        "coordinates": [
          [
            74.0210117,
            15.1863306
          ]
        ]
      },
      "properties": {
        "Vehicle_No": "GA07G2384- Cuncolim",
        "Vehicle_Name": "AT 5032-4G",
        "Branch": "Fire Station Cuncolim",
        "created": "24-12-2025 05:30:30",
        "lastUpdated": "24-12-2025 05:30:30"
      }
    },
    {
      "type": "Feature",
      "geometry": {
        "type": "LineString",
        "coordinates": [
          [
            73.7975267,
            15.7164417
          ]
        ]
      },
      "properties": {
        "Vehicle_No": "GA07G2507 - Mid Size (Water Tender)",
        "Vehicle_Name": "5035",
        "Branch": "Fire Station Pernem",
        "created": "24-12-2025 05:30:24",
        "lastUpdated": "24-12-2025 05:30:24"
      }
    },
    {
      "type": "Feature",
      "geometry": {
        "type": "LineString",
        "coordinates": [
          [
            74.1386067,
            15.5309583
          ]
        ]
      },
      "properties": {
        "Vehicle_No": "GA07G2505 - Mid Size (Water Tender)",
        "Vehicle_Name": "5035",
        "Branch": "Fire Station Valpoi",
        "created": "24-12-2025 05:30:51",
        "lastUpdated": "24-12-2025 05:30:51"
      }
    },
    {
      "type": "Feature",
      "geometry": {
        "type": "LineString",
        "coordinates": [
          [
            73.9465,
            15.5893983
          ]
        ]
      },
      "properties": {
        "Vehicle_No": "GA07G2504 - Mid Size (Water Tender)",
        "Vehicle_Name": "5035",
        "Branch": "Fire Station Bicholim",
        "created": "24-12-2025 05:30:13",
        "lastUpdated": "24-12-2025 05:30:13"
      }
    },
    {
      "type": "Feature",
      "geometry": {
        "type": "LineString",
        "coordinates": [
          [
            73.8087567,
            15.5898983
          ]
        ]
      },
      "properties": {
        "Vehicle_No": "GA07G2503-Mid Size (Water Tender)",
        "Vehicle_Name": "5035",
        "Branch": "Fire Station Mapusa",
        "created": "24-12-2025 05:30:29",
        "lastUpdated": "24-12-2025 05:30:29"
      }
    },
    {
      "type": "Feature",
      "geometry": {
        "type": "LineString",
        "coordinates": [
          [
            73.8171633,
            15.4870933
          ],
          [
            73.8169267,
            15.4871033
          ],
          [
            73.8169517,
            15.487045
          ],
          [
            73.8169833,
            15.48701
          ],
          [
            73.8170567,
            15.4870567
          ],
          [
            73.8172367,
            15.4871033
          ],
          [
            73.8171867,
            15.4870083
          ],
          [
            73.8172033,
            15.4870017
          ],
          [
            73.8174233,
            15.4869367
          ],
          [
            73.8175867,
            15.4868267
          ],
          [
            73.817415,
            15.4868283
          ],
          [
            73.81709,
            15.4869467
          ],
          [
            73.8170817,
            15.486955
          ],
          [
            73.8173017,
            15.4869733
          ],
          [
            73.8173017,
            15.4869133
          ],
          [
            73.8173583,
            15.486895
          ],
          [
            73.8175533,
            15.4864283
          ],
          [
            73.8173667,
            15.4864567
          ],
          [
            73.8171467,
            15.4866167
          ],
          [
            73.8171717,
            15.4866917
          ],
          [
            73.817195,
            15.4867283
          ],
          [
            73.817285,
            15.4868517
          ]
        ]
      },
      "properties": {
        "Vehicle_No": "GA07G2502 - Mid Size (Water Tender)",
        "Vehicle_Name": "5035",
        "Branch": "Fire Force Headquarters",
        "created": "24-12-2025 05:30:27",
        "lastUpdated": "24-12-2025 06:08:58"
      }
    }
  ]
}