{
  "type": "FeatureCollection",
  "metadata": {
    "date": "20260124",
    "source": "Directorate of Fire Emergency Services, Govt. of Goa",
    "description": "Daily GPS tracks of fire trucks",
    "lastUpdated": "2026-01-24T02:37:13.821Z",
    "count": 51
  },
  "features": [
    {
      "type": "Feature",
      "geometry": {
        "type": "LineString",
        "coordinates": [
          [
            73.8170567,
            15.4866133
          ]
        ]
      },
      "properties": {
        "Vehicle_No": "GA 07 G 0680-PIL(QUICK RESPONSE VEHICLE)",
        "Vehicle_Name": "4G",
        "Branch": "Fire Station Pilerne",
        "created": "24-01-2026 05:30:46+05:30",
        "lastUpdated": "24-01-2026 05:30:46+05:30"
      }
    },
    {
      "type": "Feature",
      "geometry": {
        "type": "LineString",
        "coordinates": [
          [
            73.914078,
            15.500328
          ],
          [
            73.91407,
            15.500332
          ]
        ]
      },
      "properties": {
        "Vehicle_No": "GA07G2506 - OLG Mid Size (Water Tender)",
        "Vehicle_Name": "TS101",
        "Branch": "Fire Station Old Goa",
        "created": "24-01-2026 05:29:11+05:30",
        "lastUpdated": "24-01-2026 05:31:08+05:30"
      }
    },
    {
      "type": "Feature",
      "geometry": {
        "type": "LineString",
        "coordinates": [
          [
            73.82933,
            15.522995
          ],
          [
            73.82946,
            15.522955
          ],
          [
            73.829552,
            15.522817
          ],
          [
            73.829567,
            15.522875
          ]
        ]
      },
      "properties": {
        "Vehicle_No": "GA 07 G 5115-POR(MINI WATER TENDER)",
        "Vehicle_Name": "TS101",
        "Branch": "Fire Station Porvorim",
        "created": "24-01-2026 05:30:11+05:30",
        "lastUpdated": "24-01-2026 07:55:23+05:30"
      }
    },
    {
      "type": "Feature",
      "geometry": {
        "type": "LineString",
        "coordinates": [
          [
            73.970627,
            15.269447
          ]
        ]
      },
      "properties": {
        "Vehicle_No": "GA 07 G 0350-MRG(WATER TENDER)",
        "Vehicle_Name": "TS101",
        "Branch": "Fire Station Margao",
        "created": "24-01-2026 05:30:36+05:30",
        "lastUpdated": "24-01-2026 05:30:36+05:30"
      }
    },
    {
      "type": "Feature",
      "geometry": {
        "type": "LineString",
        "coordinates": [
          [
            73.808678,
            15.589998
          ]
        ]
      },
      "properties": {
        "Vehicle_No": "GA 07 G 2900-MAP(MINI RESCUE TENDER)",
        "Vehicle_Name": "TS101",
        "Branch": "Fire Station Mapusa",
        "created": "24-01-2026 05:30:11+05:30",
        "lastUpdated": "24-01-2026 05:30:11+05:30"
      }
    },
    {
      "type": "Feature",
      "geometry": {
        "type": "LineString",
        "coordinates": [
          [
            73.817307,
            15.487287
          ],
          [
            73.817268,
            15.487207
          ],
          [
            73.817329,
            15.487208
          ],
          [
            73.817261,
            15.487138
          ],
          [
            73.817375,
            15.48712
          ],
          [
            73.817307,
            15.486692
          ],
          [
            73.817314,
            15.486363
          ],
          [
            73.817345,
            15.48637
          ],
          [
            73.81736,
            15.486413
          ],
          [
            73.817093,
            15.486462
          ],
          [
            73.81768,
            15.486627
          ],
          [
            73.817139,
            15.487332
          ],
          [
            73.817215,
            15.487243
          ],
          [
            73.8172,
            15.487222
          ]
        ]
      },
      "properties": {
        "Vehicle_No": "GA 07 G 7600-FFHQ(WATER BOUSER)",
        "Vehicle_Name": "TS101",
        "Branch": "Fire Force Headquarters",
        "created": "24-01-2026 05:27:58+05:30",
        "lastUpdated": "24-01-2026 07:29:03+05:30"
      }
    },
    {
      "type": "Feature",
      "geometry": {
        "type": "LineString",
        "coordinates": [
          [
            73.817314,
            15.487428
          ],
          [
            73.817299,
            15.48736
          ],
          [
            73.817261,
            15.487443
          ],
          [
            73.817261,
            15.487418
          ],
          [
            73.817245,
            15.487432
          ],
          [
            73.817146,
            15.487442
          ],
          [
            73.816284,
            15.491337
          ],
          [
            73.819206,
            15.497125
          ],
          [
            73.825272,
            15.50111
          ],
          [
            73.828903,
            15.501198
          ],
          [
            73.837784,
            15.499257
          ],
          [
            73.83342,
            15.499762
          ],
          [
            73.828979,
            15.501027
          ],
          [
            73.826523,
            15.501203
          ],
          [
            73.819389,
            15.497868
          ],
          [
            73.815605,
            15.490595
          ],
          [
            73.817253,
            15.487227
          ],
          [
            73.817207,
            15.487295
          ]
        ]
      },
      "properties": {
        "Vehicle_No": "GA 07 G 2002-FFHQ(TURN TABLE LADDER)",
        "Vehicle_Name": "TS101",
        "Branch": "Fire Force Headquarters",
        "created": "24-01-2026 05:29:17+05:30",
        "lastUpdated": "24-01-2026 07:38:25+05:30"
      }
    },
    {
      "type": "Feature",
      "geometry": {
        "type": "LineString",
        "coordinates": [
          [
            73.817116,
            15.486717
          ],
          [
            73.817085,
            15.486827
          ],
          [
            73.817184,
            15.48668
          ],
          [
            73.817322,
            15.486365
          ],
          [
            73.817299,
            15.486355
          ],
          [
            73.8172,
            15.486872
          ],
          [
            73.817055,
            15.486887
          ]
        ]
      },
      "properties": {
        "Vehicle_No": "GA 07 G 7101-FFHQ(WATER TENDER)",
        "Vehicle_Name": "TS101",
        "Branch": "Fire Force Headquarters",
        "created": "24-01-2026 05:29:25+05:30",
        "lastUpdated": "24-01-2026 07:08:19+05:30"
      }
    },
    {
      "type": "Feature",
      "geometry": {
        "type": "LineString",
        "coordinates": [
          [
            73.817085,
            15.487182
          ],
          [
            73.808723,
            15.481345
          ],
          [
            73.81131,
            15.48576
          ],
          [
            73.814796,
            15.489308
          ],
          [
            73.816284,
            15.488033
          ],
          [
            73.817497,
            15.48674
          ],
          [
            73.81707,
            15.486527
          ],
          [
            73.817047,
            15.486503
          ],
          [
            73.817017,
            15.486522
          ],
          [
            73.817017,
            15.486528
          ],
          [
            73.817192,
            15.48639
          ],
          [
            73.817245,
            15.486375
          ],
          [
            73.816963,
            15.486455
          ],
          [
            73.817039,
            15.487007
          ],
          [
            73.817101,
            15.487037
          ]
        ]
      },
      "properties": {
        "Vehicle_No": "GA 07 G 7677-FFHQ(EMERGENCY RESCUE)",
        "Vehicle_Name": "TS101",
        "Branch": "Fire Force Headquarters",
        "created": "23-01-2026 23:58:02+05:30",
        "lastUpdated": "24-01-2026 07:31:58+05:30"
      }
    },
    {
      "type": "Feature",
      "geometry": {
        "type": "LineString",
        "coordinates": [
          [
            73.817291,
            15.48734
          ],
          [
            73.81723,
            15.487242
          ],
          [
            73.817223,
            15.487223
          ],
          [
            73.817223,
            15.487213
          ],
          [
            73.81723,
            15.487213
          ],
          [
            73.817238,
            15.487203
          ],
          [
            73.817245,
            15.487205
          ],
          [
            73.817245,
            15.4872
          ],
          [
            73.817238,
            15.4872
          ],
          [
            73.817238,
            15.487202
          ],
          [
            73.817238,
            15.487205
          ],
          [
            73.81723,
            15.487192
          ]
        ]
      },
      "properties": {
        "Vehicle_No": "GA 07 G 1121-PNJ(EMERGENCY RESCUE)",
        "Vehicle_Name": "TS101",
        "Branch": "Fire Station Panaji",
        "created": "24-01-2026 05:29:17+05:30",
        "lastUpdated": "24-01-2026 08:02:33+05:30"
      }
    },
    {
      "type": "Feature",
      "geometry": {
        "type": "LineString",
        "coordinates": [
          [
            73.817284,
            15.486812
          ],
          [
            73.817047,
            15.486955
          ],
          [
            73.817245,
            15.486882
          ],
          [
            73.817039,
            15.486967
          ],
          [
            73.816971,
            15.486938
          ],
          [
            73.817146,
            15.486393
          ],
          [
            73.817154,
            15.48639
          ],
          [
            73.817154,
            15.486392
          ],
          [
            73.817146,
            15.486357
          ],
          [
            73.817711,
            15.486825
          ],
          [
            73.811577,
            15.486245
          ],
          [
            73.809311,
            15.48643
          ],
          [
            73.809227,
            15.486385
          ]
        ]
      },
      "properties": {
        "Vehicle_No": "GA 07 G 1571-FFHQ(QUICK RESPONSE)",
        "Vehicle_Name": "TS101",
        "Branch": "Fire Force Headquarters",
        "created": "24-01-2026 05:29:23+05:30",
        "lastUpdated": "24-01-2026 08:07:09+05:30"
      }
    },
    {
      "type": "Feature",
      "geometry": {
        "type": "LineString",
        "coordinates": [
          [
            73.808739,
            15.58999
          ],
          [
            73.808731,
            15.589838
          ]
        ]
      },
      "properties": {
        "Vehicle_No": "GA 07 G 8101-MAP(WATER TENDER)",
        "Vehicle_Name": "TS101",
        "Branch": "Fire Station Mapusa",
        "created": "24-01-2026 05:27:54+05:30",
        "lastUpdated": "24-01-2026 05:31:59+05:30"
      }
    },
    {
      "type": "Feature",
      "geometry": {
        "type": "LineString",
        "coordinates": [
          [
            73.970035,
            15.2693416
          ],
          [
            73.9701983,
            15.269145
          ],
          [
            73.9700933,
            15.269355
          ],
          [
            73.9702966,
            15.269385
          ],
          [
            73.9700283,
            15.26941
          ],
          [
            73.9702066,
            15.2694716
          ],
          [
            73.9702066,
            15.2694016
          ],
          [
            73.9701416,
            15.2691649
          ],
          [
            73.9701816,
            15.26932
          ],
          [
            73.97015,
            15.2693233
          ],
          [
            73.9701083,
            15.2693283
          ],
          [
            73.9701016,
            15.269405
          ],
          [
            73.9700766,
            15.2694166
          ],
          [
            73.9701416,
            15.26935
          ],
          [
            73.970345,
            15.2696866
          ],
          [
            73.9702466,
            15.2693483
          ],
          [
            73.9703616,
            15.2693333
          ],
          [
            73.97028,
            15.269175
          ],
          [
            73.9703133,
            15.269325
          ],
          [
            73.9702066,
            15.2694066
          ],
          [
            73.969995,
            15.2694616
          ],
          [
            73.9703366,
            15.2693299
          ],
          [
            73.9702883,
            15.2690733
          ],
          [
            73.97024,
            15.269275
          ],
          [
            73.9701666,
            15.2694516
          ],
          [
            73.9698816,
            15.2694633
          ],
          [
            73.969995,
            15.2693316
          ],
          [
            73.9702633,
            15.2693783
          ],
          [
            73.9702633,
            15.2693983
          ],
          [
            73.9699633,
            15.2694533
          ],
          [
            73.9700283,
            15.2694433
          ],
          [
            73.9700683,
            15.26943
          ],
          [
            73.9702466,
            15.2693966
          ],
          [
            73.97024,
            15.2693316
          ],
          [
            73.9702883,
            15.2691633
          ],
          [
            73.9701733,
            15.2692399
          ],
          [
            73.9702316,
            15.2693216
          ],
          [
            73.9701733,
            15.2693466
          ],
          [
            73.970085,
            15.2693883
          ],
          [
            73.969905,
            15.269595
          ],
          [
            73.9700516,
            15.2693916
          ],
          [
            73.970255,
            15.26927
          ],
          [
            73.9698166,
            15.2694566
          ],
          [
            73.9699133,
            15.2694066
          ],
          [
            73.96984,
            15.2694433
          ],
          [
            73.97002,
            15.2693783
          ],
          [
            73.970125,
            15.26943
          ],
          [
            73.9699633,
            15.2694349
          ],
          [
            73.970085,
            15.2694066
          ],
          [
            73.9701583,
            15.26941
          ],
          [
            73.9701583,
            15.2694016
          ],
          [
            73.9700283,
            15.2692916
          ],
          [
            73.970085,
            15.2691383
          ],
          [
            73.9700683,
            15.2692816
          ],
          [
            73.97006,
            15.2692849
          ],
          [
            73.9699866,
            15.2692549
          ],
          [
            73.9700766,
            15.26931
          ],
          [
            73.9701166,
            15.2692666
          ],
          [
            73.9698083,
            15.2695316
          ],
          [
            73.96997,
            15.269475
          ],
          [
            73.9699633,
            15.2693733
          ],
          [
            73.970035,
            15.2693516
          ],
          [
            73.9702066,
            15.26934
          ],
          [
            73.97006,
            15.269295
          ],
          [
            73.9700766,
            15.2693433
          ],
          [
            73.9699383,
            15.2693883
          ],
          [
            73.9699866,
            15.2693733
          ],
          [
            73.9700116,
            15.26947
          ],
          [
            73.9701083,
            15.2694133
          ],
          [
            73.97019,
            15.2691949
          ],
          [
            73.9701016,
            15.2694533
          ],
          [
            73.9699866,
            15.2695033
          ],
          [
            73.9700116,
            15.269535
          ],
          [
            73.970125,
            15.2693883
          ],
          [
            73.9700683,
            15.2693933
          ],
          [
            73.9700933,
            15.2694383
          ],
          [
            73.97002,
            15.2692566
          ],
          [
            73.970085,
            15.2693116
          ],
          [
            73.970035,
            15.269365
          ],
          [
            73.9699383,
            15.2694199
          ],
          [
            73.9700283,
            15.2694383
          ],
          [
            73.97006,
            15.26943
          ],
          [
            73.9700116,
            15.2693833
          ],
          [
            73.970125,
            15.269665
          ],
          [
            73.9700933,
            15.2694633
          ],
          [
            73.970085,
            15.2694066
          ],
          [
            73.969905,
            15.2691383
          ],
          [
            73.9700683,
            15.2693516
          ],
          [
            73.97006,
            15.2693516
          ],
          [
            73.9700283,
            15.2694266
          ],
          [
            73.9700433,
            15.2692266
          ],
          [
            73.9700033,
            15.2693183
          ],
          [
            73.9700766,
            15.2693366
          ],
          [
            73.9700516,
            15.2693933
          ],
          [
            73.9702066,
            15.2693683
          ],
          [
            73.9699466,
            15.2692266
          ],
          [
            73.9699633,
            15.2692216
          ],
          [
            73.9701666,
            15.2696283
          ],
          [
            73.9700283,
            15.269425
          ],
          [
            73.9701333,
            15.2694766
          ],
          [
            73.9699866,
            15.2694583
          ],
          [
            73.9701816,
            15.2694683
          ],
          [
            73.9697916,
            15.2694666
          ],
          [
            73.97015,
            15.2696316
          ],
          [
            73.9701733,
            15.2695983
          ],
          [
            73.9698316,
            15.26946
          ],
          [
            73.9701016,
            15.269555
          ],
          [
            73.9700933,
            15.2695416
          ],
          [
            73.9699216,
            15.269365
          ],
          [
            73.9698816,
            15.2692833
          ],
          [
            73.9699633,
            15.2693983
          ],
          [
            73.97015,
            15.2695033
          ],
          [
            73.969955,
            15.2692483
          ],
          [
            73.9700766,
            15.2694583
          ],
          [
            73.9701016,
            15.2694483
          ],
          [
            73.9701083,
            15.2694883
          ],
          [
            73.9700683,
            15.2694383
          ],
          [
            73.9701166,
            15.2694633
          ],
          [
            73.9701583,
            15.2694133
          ],
          [
            73.9704016,
            15.2698616
          ],
          [
            73.970255,
            15.2692883
          ]
        ]
      },
      "properties": {
        "Vehicle_No": "GA 07 G 2317-MRG(EMERGENCY RESCUE TENDER)",
        "Vehicle_Name": "5035",
        "Branch": "Fire Station Margao",
        "created": "24-01-2026 05:30:51+05:30",
        "lastUpdated": "24-01-2026 08:06:37+05:30"
      }
    },
    {
      "type": "Feature",
      "geometry": {
        "type": "LineString",
        "coordinates": [
          [
            73.817,
            15.48655
          ]
        ]
      },
      "properties": {
        "Vehicle_No": "GA 07 G 1570-VAS(QUICK RESPONSE FIRE TENDER)",
        "Vehicle_Name": "5035",
        "Branch": "Fire Station Vasco",
        "created": "24-01-2026 05:30:38+05:30",
        "lastUpdated": "24-01-2026 05:30:38+05:30"
      }
    },
    {
      "type": "Feature",
      "geometry": {
        "type": "LineString",
        "coordinates": [
          [
            73.8512049,
            15.38895
          ]
        ]
      },
      "properties": {
        "Vehicle_No": "GA 07 G 4101-VAS(MS WATER TENDER)",
        "Vehicle_Name": "5035",
        "Branch": "Fire Station Vasco",
        "created": "24-01-2026 05:30:12+05:30",
        "lastUpdated": "24-01-2026 05:30:12+05:30"
      }
    },
    {
      "type": "Feature",
      "geometry": {
        "type": "LineString",
        "coordinates": [
          [
            73.8510583,
            15.3890283
          ],
          [
            73.8511967,
            15.3889767
          ],
          [
            73.851155,
            15.3891017
          ],
          [
            73.8510983,
            15.3890633
          ],
          [
            73.8511467,
            15.3890383
          ]
        ]
      },
      "properties": {
        "Vehicle_No": "GA 07 G 0819-VAS(WATER/FOAM TENDER)",
        "Vehicle_Name": "4G",
        "Branch": "Fire Station Vasco",
        "created": "24-01-2026 05:30:30+05:30",
        "lastUpdated": "24-01-2026 07:11:05+05:30"
      }
    },
    {
      "type": "Feature",
      "geometry": {
        "type": "LineString",
        "coordinates": [
          [
            73.9698483,
            15.269905
          ],
          [
            73.970435,
            15.26944
          ]
        ]
      },
      "properties": {
        "Vehicle_No": "GA 07 G 7100-MRG(WATER BOUSER)",
        "Vehicle_Name": "5035",
        "Branch": "Fire Station Margao",
        "created": "24-01-2026 05:30:55+05:30",
        "lastUpdated": "24-01-2026 07:00:59+05:30"
      }
    },
    {
      "type": "Feature",
      "geometry": {
        "type": "LineString",
        "coordinates": [
          [
            73.9706949,
            15.269445
          ]
        ]
      },
      "properties": {
        "Vehicle_No": "GA 07 G 1568-MRG(QUICK RESPONSE )",
        "Vehicle_Name": "5035",
        "Branch": "Fire Station Margao",
        "created": "24-01-2026 05:30:17+05:30",
        "lastUpdated": "24-01-2026 05:30:17+05:30"
      }
    },
    {
      "type": "Feature",
      "geometry": {
        "type": "LineString",
        "coordinates": [
          [
            73.969995,
            15.2694216
          ]
        ]
      },
      "properties": {
        "Vehicle_No": "GA 07 G 6101-MRG(WATER TENDER)",
        "Vehicle_Name": "5035",
        "Branch": "Fire Station Margao",
        "created": "24-01-2026 05:30:48+05:30",
        "lastUpdated": "24-01-2026 05:30:48+05:30"
      }
    },
    {
      "type": "Feature",
      "geometry": {
        "type": "LineString",
        "coordinates": [
          [
            73.969905,
            15.2695333
          ]
        ]
      },
      "properties": {
        "Vehicle_No": "GA 07 G 1001-MRG(AERIAL LADDER PLATFORM)",
        "Vehicle_Name": "5035",
        "Branch": "Fire Station Margao",
        "created": "23-01-2026 11:19:51+05:30",
        "lastUpdated": "23-01-2026 11:19:51+05:30"
      }
    },
    {
      "type": "Feature",
      "geometry": {
        "type": "LineString",
        "coordinates": [
          [
            74.002835,
            15.4027406
          ]
        ]
      },
      "properties": {
        "Vehicle_No": "GA 07 G 0820-BIC(WATER TEDNER)",
        "Vehicle_Name": "5026",
        "Branch": "Fire Station Bicholim",
        "created": "24-01-2026 05:29:36+05:30",
        "lastUpdated": "24-01-2026 05:29:36+05:30"
      }
    },
    {
      "type": "Feature",
      "geometry": {
        "type": "LineString",
        "coordinates": [
          [
            73.9140383,
            15.5002966
          ]
        ]
      },
      "properties": {
        "Vehicle_No": "GA 07 G 5101-OLG(MS WATER TENDER)",
        "Vehicle_Name": "5035",
        "Branch": "Fire Station Old Goa",
        "created": "24-01-2026 05:30:48+05:30",
        "lastUpdated": "24-01-2026 05:30:48+05:30"
      }
    },
    {
      "type": "Feature",
      "geometry": {
        "type": "LineString",
        "coordinates": [
          [
            73.9462316,
            15.5889866
          ],
          [
            73.9467116,
            15.5894483
          ],
          [
            73.9467033,
            15.5893433
          ],
          [
            73.9467116,
            15.5891666
          ],
          [
            73.9467933,
            15.58923
          ],
          [
            73.9469233,
            15.5892533
          ],
          [
            73.9470783,
            15.589295
          ],
          [
            73.9467533,
            15.5896483
          ],
          [
            73.947005,
            15.5892849
          ],
          [
            73.946965,
            15.5892783
          ],
          [
            73.9469316,
            15.5893283
          ],
          [
            73.9469483,
            15.589325
          ],
          [
            73.9468666,
            15.58925
          ],
          [
            73.9464033,
            15.5885666
          ],
          [
            73.9466233,
            15.5887516
          ],
          [
            73.9466549,
            15.5889
          ],
          [
            73.9467933,
            15.5891383
          ],
          [
            73.9467366,
            15.589055
          ],
          [
            73.9465416,
            15.5888983
          ],
          [
            73.9467449,
            15.5891016
          ],
          [
            73.9467616,
            15.5890416
          ],
          [
            73.9467366,
            15.58917
          ],
          [
            73.9466066,
            15.5894066
          ],
          [
            73.9465816,
            15.58938
          ],
          [
            73.9465983,
            15.5893916
          ],
          [
            73.9464683,
            15.589235
          ],
          [
            73.9464116,
            15.5891716
          ],
          [
            73.9463616,
            15.589075
          ],
          [
            73.9465083,
            15.5893983
          ],
          [
            73.9466383,
            15.58954
          ],
          [
            73.9465733,
            15.589465
          ],
          [
            73.9463699,
            15.589115
          ],
          [
            73.9464433,
            15.589115
          ],
          [
            73.9465499,
            15.5889233
          ],
          [
            73.9461433,
            15.5889566
          ],
          [
            73.94615,
            15.58887
          ],
          [
            73.9461666,
            15.58875
          ],
          [
            73.946525,
            15.5892416
          ],
          [
            73.9466549,
            15.5892416
          ],
          [
            73.9460766,
            15.5891066
          ],
          [
            73.9467933,
            15.5889916
          ]
        ]
      },
      "properties": {
        "Vehicle_No": "GA 07 G 3101-BIC(MS WATER TENDER)",
        "Vehicle_Name": "5035",
        "Branch": "Fire Station Bicholim",
        "created": "24-01-2026 05:30:56+05:30",
        "lastUpdated": "24-01-2026 07:53:58+05:30"
      }
    },
    {
      "type": "Feature",
      "geometry": {
        "type": "LineString",
        "coordinates": [
          [
            73.946615,
            15.589125
          ],
          [
            73.94235,
            15.5863566
          ],
          [
            73.9408616,
            15.5837933
          ],
          [
            73.9389966,
            15.5742266
          ],
          [
            73.9365316,
            15.5713833
          ],
          [
            73.9293866,
            15.5686116
          ],
          [
            73.9252116,
            15.5563716
          ]
        ]
      },
      "properties": {
        "Vehicle_No": "GA 07 G 1941-BIC(QUICK RESPONSE)",
        "Vehicle_Name": "5035",
        "Branch": "Fire Station Bicholim",
        "created": "24-01-2026 05:30:30+05:30",
        "lastUpdated": "24-01-2026 08:03:07+05:30"
      }
    },
    {
      "type": "Feature",
      "geometry": {
        "type": "LineString",
        "coordinates": [
          [
            73.85127,
            15.3887449
          ]
        ]
      },
      "properties": {
        "Vehicle_No": "GA 07 G 2319-VAS (EMERGENCY RESCUE TENDER)",
        "Vehicle_Name": "5035",
        "Branch": "Fire Station Vasco",
        "created": "24-01-2026 05:30:02+05:30",
        "lastUpdated": "24-01-2026 05:30:02+05:30"
      }
    },
    {
      "type": "Feature",
      "geometry": {
        "type": "LineString",
        "coordinates": [
          [
            74.1387199,
            15.5310833
          ]
        ]
      },
      "properties": {
        "Vehicle_No": "GA 07 G 3737-VAP(WATER TENDER)",
        "Vehicle_Name": "5035",
        "Branch": "Fire Station Valpoi",
        "created": "24-01-2026 05:30:41+05:30",
        "lastUpdated": "24-01-2026 05:30:41+05:30"
      }
    },
    {
      "type": "Feature",
      "geometry": {
        "type": "LineString",
        "coordinates": [
          [
            74.0030999,
            15.4027666
          ]
        ]
      },
      "properties": {
        "Vehicle_No": "GA 07 G 2318-PND(EMERGENCY RESCUE TENDER)",
        "Vehicle_Name": "5035",
        "Branch": "Fire Station Ponda",
        "created": "24-01-2026 05:29:41+05:30",
        "lastUpdated": "24-01-2026 05:29:41+05:30"
      }
    },
    {
      "type": "Feature",
      "geometry": {
        "type": "LineString",
        "coordinates": [
          [
            74.0027583,
            15.4027133
          ]
        ]
      },
      "properties": {
        "Vehicle_No": "GA 07 G 2004-PND(QUICK RESPONSE)",
        "Vehicle_Name": "5035",
        "Branch": "Fire Station Ponda",
        "created": "24-01-2026 05:30:46+05:30",
        "lastUpdated": "24-01-2026 05:30:46+05:30"
      }
    },
    {
      "type": "Feature",
      "geometry": {
        "type": "LineString",
        "coordinates": [
          [
            74.003215,
            15.4024366
          ]
        ]
      },
      "properties": {
        "Vehicle_No": "GA 07 G 9101-PND(WATER TENDER)",
        "Vehicle_Name": "5035",
        "Branch": "Fire Station Ponda",
        "created": "24-01-2026 05:30:57+05:30",
        "lastUpdated": "24-01-2026 05:30:57+05:30"
      }
    },
    {
      "type": "Feature",
      "geometry": {
        "type": "LineString",
        "coordinates": [
          [
            74.0029216,
            15.40271
          ]
        ]
      },
      "properties": {
        "Vehicle_No": "GA 07 G 9797-PND(WATER BOUSER)",
        "Vehicle_Name": "5035",
        "Branch": "Fire Station Ponda",
        "created": "24-01-2026 05:29:55+05:30",
        "lastUpdated": "24-01-2026 05:29:55+05:30"
      }
    },
    {
      "type": "Feature",
      "geometry": {
        "type": "LineString",
        "coordinates": [
          [
            74.0440183,
            15.02362
          ]
        ]
      },
      "properties": {
        "Vehicle_No": "GA 07 G 6363-CAN(WATER TENDER)",
        "Vehicle_Name": "5035",
        "Branch": "Fire Station Canacona",
        "created": "23-01-2026 21:24:23+05:30",
        "lastUpdated": "23-01-2026 21:24:23+05:30"
      }
    },
    {
      "type": "Feature",
      "geometry": {
        "type": "LineString",
        "coordinates": [
          [
            74.0440916,
            15.0237033
          ]
        ]
      },
      "properties": {
        "Vehicle_No": "GA 07 G 1567-CAN(QUICK RESPONSE FT)",
        "Vehicle_Name": "5035",
        "Branch": "Fire Station Canacona",
        "created": "23-01-2026 10:07:23+05:30",
        "lastUpdated": "23-01-2026 10:07:23+05:30"
      }
    },
    {
      "type": "Feature",
      "geometry": {
        "type": "LineString",
        "coordinates": [
          [
            73.9355716,
            15.36967
          ]
        ]
      },
      "properties": {
        "Vehicle_No": "GA 07 G 1569-VRN(QUICK RESPONSE)",
        "Vehicle_Name": "5035",
        "Branch": "Fire Station Verna",
        "created": "24-01-2026 05:30:31+05:30",
        "lastUpdated": "24-01-2026 05:30:31+05:30"
      }
    },
    {
      "type": "Feature",
      "geometry": {
        "type": "LineString",
        "coordinates": [
          [
            73.9355466,
            15.3697666
          ]
        ]
      },
      "properties": {
        "Vehicle_No": "GA 07 G 9909-VRN(ADVANCE MULTI-PURPOSE)",
        "Vehicle_Name": "5035",
        "Branch": "Fire Station Verna",
        "created": "24-01-2026 05:30:52+05:30",
        "lastUpdated": "24-01-2026 05:30:52+05:30"
      }
    },
    {
      "type": "Feature",
      "geometry": {
        "type": "LineString",
        "coordinates": [
          [
            74.1387783,
            15.5311133
          ]
        ]
      },
      "properties": {
        "Vehicle_No": "GA 07 G 1942-VAP(QUICK RESPONSE)",
        "Vehicle_Name": "5035",
        "Branch": "Fire Station Valpoi",
        "created": "24-01-2026 05:30:42+05:30",
        "lastUpdated": "24-01-2026 05:30:42+05:30"
      }
    },
    {
      "type": "Feature",
      "geometry": {
        "type": "LineString",
        "coordinates": [
          [
            74.103695,
            15.2604083
          ],
          [
            74.1037766,
            15.2600683
          ]
        ]
      },
      "properties": {
        "Vehicle_No": "GA 07 G 2003-CUR(QUICK RESPONSE)",
        "Vehicle_Name": "5035",
        "Branch": "Fire Station Curchorem",
        "created": "24-01-2026 05:30:32+05:30",
        "lastUpdated": "24-01-2026 05:46:43+05:30"
      }
    },
    {
      "type": "Feature",
      "geometry": {
        "type": "LineString",
        "coordinates": [
          [
            74.1038416,
            15.2604016
          ]
        ]
      },
      "properties": {
        "Vehicle_No": "GA 07 G 7447-CUR(EMERGENCY RESCUE)",
        "Vehicle_Name": "5035",
        "Branch": "Fire Station Curchorem",
        "created": "24-01-2026 05:29:35+05:30",
        "lastUpdated": "24-01-2026 05:29:35+05:30"
      }
    },
    {
      "type": "Feature",
      "geometry": {
        "type": "LineString",
        "coordinates": [
          [
            74.103695,
            15.26042
          ]
        ]
      },
      "properties": {
        "Vehicle_No": "GA 07 G 7557-CUR(WATER TENDER)",
        "Vehicle_Name": "5035",
        "Branch": "Fire Station Curchorem",
        "created": "24-01-2026 05:30:38+05:30",
        "lastUpdated": "24-01-2026 05:30:38+05:30"
      }
    },
    {
      "type": "Feature",
      "geometry": {
        "type": "LineString",
        "coordinates": [
          [
            74.1037266,
            15.2603033
          ]
        ]
      },
      "properties": {
        "Vehicle_No": "GA 07 G 7667-CUR(WATER BOUSER)",
        "Vehicle_Name": "5035",
        "Branch": "Fire Station Curchorem",
        "created": "24-01-2026 05:30:09+05:30",
        "lastUpdated": "24-01-2026 05:30:09+05:30"
      }
    },
    {
      "type": "Feature",
      "geometry": {
        "type": "LineString",
        "coordinates": [
          [
            73.972615,
            15.4631367
          ],
          [
            73.9715583,
            15.46263
          ],
          [
            73.9716067,
            15.4632067
          ],
          [
            73.9716317,
            15.46289
          ],
          [
            73.97133,
            15.4632933
          ],
          [
            73.9713133,
            15.4633283
          ],
          [
            73.9726967,
            15.4600733
          ],
          [
            73.9726067,
            15.459985
          ],
          [
            73.9725017,
            15.4630317
          ],
          [
            73.9722333,
            15.46305
          ],
          [
            73.9726967,
            15.4634967
          ],
          [
            73.9726067,
            15.46305
          ],
          [
            73.9725833,
            15.4631083
          ],
          [
            73.9724617,
            15.463225
          ],
          [
            73.9732417,
            15.4634717
          ],
          [
            73.972575,
            15.46331
          ],
          [
            73.9725833,
            15.4633217
          ]
        ]
      },
      "properties": {
        "Vehicle_No": "GA 07 G 4989-KUN(WATER TENDER)",
        "Vehicle_Name": "G-100",
        "Branch": "Fire Station Kundaim",
        "created": "24-01-2026 05:29:47+05:30",
        "lastUpdated": "24-01-2026 08:06:55+05:30"
      }
    },
    {
      "type": "Feature",
      "geometry": {
        "type": "LineString",
        "coordinates": [
          [
            73.7939972,
            15.5329033
          ]
        ]
      },
      "properties": {
        "Vehicle_No": "GA 07 G 2242-PIL(WATER TENDER)",
        "Vehicle_Name": "5026",
        "Branch": "Fire Station Pilerne",
        "created": "24-01-2026 05:28:22+05:30",
        "lastUpdated": "24-01-2026 05:28:22+05:30"
      }
    },
    {
      "type": "Feature",
      "geometry": {
        "type": "LineString",
        "coordinates": [
          [
            73.8087883,
            15.5898433
          ]
        ]
      },
      "properties": {
        "Vehicle_No": "GA 07 G 0681-MAP(QUICK RESPONSE)",
        "Vehicle_Name": "AT 5036A-4G",
        "Branch": "Fire Station Mapusa",
        "created": "24-01-2026 05:30:50+05:30",
        "lastUpdated": "24-01-2026 05:30:50+05:30"
      }
    },
    {
      "type": "Feature",
      "geometry": {
        "type": "LineString",
        "coordinates": [
          [
            73.7974933,
            15.716455
          ],
          [
            73.7976483,
            15.716325
          ],
          [
            73.7976267,
            15.7163683
          ],
          [
            73.7976478,
            15.7163789
          ],
          [
            73.7976389,
            15.7163867
          ],
          [
            73.7976261,
            15.7163917
          ],
          [
            73.7975756,
            15.7163817
          ]
        ]
      },
      "properties": {
        "Vehicle_No": "GA 07 G 2101-PER(MS WATER TENDER)",
        "Vehicle_Name": "AT5032-4G",
        "Branch": "Fire Station Pernem",
        "created": "24-01-2026 05:29:02+05:30",
        "lastUpdated": "24-01-2026 07:05:46+05:30"
      }
    },
    {
      "type": "Feature",
      "geometry": {
        "type": "LineString",
        "coordinates": [
          [
            73.7974989,
            15.7165572
          ],
          [
            73.7975583,
            15.716585
          ],
          [
            73.7975494,
            15.7165839
          ],
          [
            73.7975478,
            15.7165822
          ],
          [
            73.7975456,
            15.7165822
          ]
        ]
      },
      "properties": {
        "Vehicle_No": "GA 07 G 4600-PER(MINI RESCUE TENDER)",
        "Vehicle_Name": "AT 5032-4G",
        "Branch": "Fire Station Pernem",
        "created": "24-01-2026 05:30:24+05:30",
        "lastUpdated": "24-01-2026 07:06:39+05:30"
      }
    },
    {
      "type": "Feature",
      "geometry": {
        "type": "LineString",
        "coordinates": [
          [
            73.8180967,
            15.4875867
          ],
          [
            73.8173989,
            15.4876844
          ],
          [
            73.8174561,
            15.4876039
          ],
          [
            73.817305,
            15.4874394
          ],
          [
            73.8173356,
            15.4874717
          ],
          [
            73.8170339,
            15.4871156
          ],
          [
            73.8170944,
            15.4871678
          ],
          [
            73.8171533,
            15.4872006
          ],
          [
            73.8172311,
            15.4868883
          ],
          [
            73.8173922,
            15.4870611
          ],
          [
            73.8178911,
            15.48733
          ]
        ]
      },
      "properties": {
        "Vehicle_No": "GA 07 G 7272-PNJ(WATER TENDER)",
        "Vehicle_Name": "AT-5032-4G",
        "Branch": "Fire Station Panaji",
        "created": "24-01-2026 05:30:15+05:30",
        "lastUpdated": "24-01-2026 08:02:05+05:30"
      }
    },
    {
      "type": "Feature",
      "geometry": {
        "type": "LineString",
        "coordinates": [
          [
            74.0209556,
            15.1862756
          ]
        ]
      },
      "properties": {
        "Vehicle_No": "GA07G2384- Cuncolim",
        "Vehicle_Name": "AT 5032-4G",
        "Branch": "Fire Station Cuncolim",
        "created": "24-01-2026 05:28:07+05:30",
        "lastUpdated": "24-01-2026 05:28:07+05:30"
      }
    },
    {
      "type": "Feature",
      "geometry": {
        "type": "LineString",
        "coordinates": [
          [
            73.7976733,
            15.7163817
          ]
        ]
      },
      "properties": {
        "Vehicle_No": "GA07G2507 - PER Mid Size (Water Tender)",
        "Vehicle_Name": "5035",
        "Branch": "Fire Station Pernem",
        "created": "24-01-2026 05:30:42+05:30",
        "lastUpdated": "24-01-2026 05:30:42+05:30"
      }
    },
    {
      "type": "Feature",
      "geometry": {
        "type": "LineString",
        "coordinates": [
          [
            74.138575,
            15.5309633
          ]
        ]
      },
      "properties": {
        "Vehicle_No": "GA07G2505 - VAP Mid Size (Water Tender)",
        "Vehicle_Name": "5035",
        "Branch": "Fire Station Valpoi",
        "created": "24-01-2026 05:30:21+05:30",
        "lastUpdated": "24-01-2026 05:30:21+05:30"
      }
    },
    {
      "type": "Feature",
      "geometry": {
        "type": "LineString",
        "coordinates": [
          [
            73.9466317,
            15.5893283
          ]
        ]
      },
      "properties": {
        "Vehicle_No": "GA07G2504 - BIC Mid Size (Water Tender)",
        "Vehicle_Name": "5035",
        "Branch": "Fire Station Bicholim",
        "created": "24-01-2026 05:30:50+05:30",
        "lastUpdated": "24-01-2026 05:30:50+05:30"
      }
    },
    {
      "type": "Feature",
      "geometry": {
        "type": "LineString",
        "coordinates": [
          [
            73.8087083,
            15.5900533
          ]
        ]
      },
      "properties": {
        "Vehicle_No": "GA07G2503- MAP Mid Size (Water Tender)",
        "Vehicle_Name": "5035",
        "Branch": "Fire Station Mapusa",
        "created": "24-01-2026 05:30:44+05:30",
        "lastUpdated": "24-01-2026 05:30:44+05:30"
      }
    },
    {
      "type": "Feature",
      "geometry": {
        "type": "LineString",
        "coordinates": [
          [
            73.8173983,
            15.4869967
          ]
        ]
      },
      "properties": {
        "Vehicle_No": "GA07G2502 - FFHQ Mid Size (Water Tender)",
        "Vehicle_Name": "5035",
        "Branch": "Fire Force Headquarters",
        "created": "24-01-2026 05:30:25+05:30",
        "lastUpdated": "24-01-2026 05:30:25+05:30"
      }
    }
  ]
}