{
  "type": "FeatureCollection",
  "metadata": {
    "date": "20260202",
    "source": "Directorate of Fire Emergency Services, Govt. of Goa",
    "description": "Daily GPS tracks of fire trucks",
    "lastUpdated": "2026-02-02T05:11:54.419Z",
    "count": 51
  },
  "features": [
    {
      "type": "Feature",
      "geometry": {
        "type": "LineString",
        "coordinates": [
          [
            73.8295167,
            15.5230767
          ]
        ]
      },
      "properties": {
        "Vehicle_No": "GA 07 G 0680-PIL(QUICK RESPONSE VEHICLE)",
        "Vehicle_Name": "4G",
        "Branch": "Fire Station Pilerne",
        "created": "02-02-2026 05:30:40+05:30",
        "lastUpdated": "02-02-2026 05:30:40+05:30"
      }
    },
    {
      "type": "Feature",
      "geometry": {
        "type": "LineString",
        "coordinates": [
          [
            73.914169,
            15.50028
          ],
          [
            73.914047,
            15.50026
          ],
          [
            73.914062,
            15.500323
          ],
          [
            73.914062,
            15.500342
          ]
        ]
      },
      "properties": {
        "Vehicle_No": "GA07G2506 - OLG Mid Size (Water Tender)",
        "Vehicle_Name": "TS101",
        "Branch": "Fire Station Old Goa",
        "created": "02-02-2026 05:29:47+05:30",
        "lastUpdated": "02-02-2026 10:32:59+05:30"
      }
    },
    {
      "type": "Feature",
      "geometry": {
        "type": "LineString",
        "coordinates": [
          [
            73.829369,
            15.523057
          ],
          [
            73.829376,
            15.522905
          ],
          [
            73.829193,
            15.523347
          ]
        ]
      },
      "properties": {
        "Vehicle_No": "GA 07 G 5115-POR(MINI WATER TENDER)",
        "Vehicle_Name": "TS101",
        "Branch": "Fire Station Porvorim",
        "created": "02-02-2026 05:29:26+05:30",
        "lastUpdated": "02-02-2026 07:43:16+05:30"
      }
    },
    {
      "type": "Feature",
      "geometry": {
        "type": "LineString",
        "coordinates": [
          [
            73.970573,
            15.269357
          ]
        ]
      },
      "properties": {
        "Vehicle_No": "GA 07 G 0350-MRG(WATER TENDER)",
        "Vehicle_Name": "TS101",
        "Branch": "Fire Station Margao",
        "created": "02-02-2026 05:30:22+05:30",
        "lastUpdated": "02-02-2026 05:30:22+05:30"
      }
    },
    {
      "type": "Feature",
      "geometry": {
        "type": "LineString",
        "coordinates": [
          [
            73.808907,
            15.589842
          ],
          [
            73.808517,
            15.58989
          ]
        ]
      },
      "properties": {
        "Vehicle_No": "GA 07 G 2900-MAP(MINI RESCUE TENDER)",
        "Vehicle_Name": "TS101",
        "Branch": "Fire Station Mapusa",
        "created": "02-02-2026 05:29:54+05:30",
        "lastUpdated": "02-02-2026 05:31:50+05:30"
      }
    },
    {
      "type": "Feature",
      "geometry": {
        "type": "LineString",
        "coordinates": [
          [
            73.817276,
            15.487407
          ],
          [
            73.817184,
            15.487157
          ],
          [
            73.817184,
            15.487165
          ],
          [
            73.817184,
            15.48716
          ],
          [
            73.817184,
            15.487178
          ],
          [
            73.817192,
            15.487192
          ],
          [
            73.817162,
            15.487093
          ],
          [
            73.817207,
            15.487225
          ],
          [
            73.817307,
            15.487367
          ],
          [
            73.817299,
            15.48736
          ],
          [
            73.817322,
            15.487343
          ],
          [
            73.817284,
            15.487347
          ],
          [
            73.817268,
            15.487325
          ],
          [
            73.817268,
            15.487297
          ],
          [
            73.817276,
            15.487357
          ],
          [
            73.817566,
            15.492737
          ],
          [
            73.819717,
            15.4985
          ],
          [
            73.820442,
            15.499242
          ],
          [
            73.836113,
            15.49946
          ],
          [
            73.834991,
            15.499498
          ],
          [
            73.82682,
            15.501195
          ],
          [
            73.821793,
            15.500368
          ],
          [
            73.819641,
            15.498318
          ],
          [
            73.818207,
            15.493697
          ],
          [
            73.817673,
            15.486653
          ],
          [
            73.817146,
            15.48719
          ],
          [
            73.817146,
            15.487198
          ]
        ]
      },
      "properties": {
        "Vehicle_No": "GA 07 G 7600-FFHQ(WATER BOUSER)",
        "Vehicle_Name": "TS101",
        "Branch": "Fire Force Headquarters",
        "created": "02-02-2026 05:28:09+05:30",
        "lastUpdated": "02-02-2026 07:10:05+05:30"
      }
    },
    {
      "type": "Feature",
      "geometry": {
        "type": "LineString",
        "coordinates": [
          [
            73.817345,
            15.487368
          ],
          [
            73.817238,
            15.487307
          ],
          [
            73.816147,
            15.491175
          ],
          [
            73.819496,
            15.498065
          ],
          [
            73.82473,
            15.501013
          ],
          [
            73.834778,
            15.499635
          ],
          [
            73.832298,
            15.499983
          ],
          [
            73.820877,
            15.499738
          ],
          [
            73.818535,
            15.494603
          ],
          [
            73.816589,
            15.491588
          ],
          [
            73.817673,
            15.486597
          ],
          [
            73.817337,
            15.486335
          ],
          [
            73.817101,
            15.486652
          ],
          [
            73.817123,
            15.487267
          ]
        ]
      },
      "properties": {
        "Vehicle_No": "GA 07 G 2002-FFHQ(TURN TABLE LADDER)",
        "Vehicle_Name": "TS101",
        "Branch": "Fire Force Headquarters",
        "created": "02-02-2026 05:30:27+05:30",
        "lastUpdated": "02-02-2026 07:35:08+05:30"
      }
    },
    {
      "type": "Feature",
      "geometry": {
        "type": "LineString",
        "coordinates": [
          [
            73.817055,
            15.486858
          ],
          [
            73.817078,
            15.48681
          ],
          [
            73.817039,
            15.486883
          ],
          [
            73.817116,
            15.486938
          ],
          [
            73.817024,
            15.486782
          ],
          [
            73.817139,
            15.48723
          ],
          [
            73.8172,
            15.487257
          ],
          [
            73.817177,
            15.487265
          ],
          [
            73.817131,
            15.487262
          ],
          [
            73.817169,
            15.487288
          ],
          [
            73.817162,
            15.487297
          ],
          [
            73.817123,
            15.487245
          ],
          [
            73.817146,
            15.487247
          ],
          [
            73.817131,
            15.487265
          ],
          [
            73.817101,
            15.487272
          ],
          [
            73.817047,
            15.487372
          ],
          [
            73.814934,
            15.489135
          ],
          [
            73.809349,
            15.483658
          ],
          [
            73.817436,
            15.487118
          ],
          [
            73.817001,
            15.486545
          ],
          [
            73.817238,
            15.486422
          ],
          [
            73.817238,
            15.486415
          ],
          [
            73.817055,
            15.486665
          ],
          [
            73.817085,
            15.48693
          ],
          [
            73.816933,
            15.486887
          ],
          [
            73.816933,
            15.48688
          ]
        ]
      },
      "properties": {
        "Vehicle_No": "GA 07 G 7101-FFHQ(WATER TENDER)",
        "Vehicle_Name": "TS101",
        "Branch": "Fire Force Headquarters",
        "created": "02-02-2026 05:29:33+05:30",
        "lastUpdated": "02-02-2026 07:32:16+05:30"
      }
    },
    {
      "type": "Feature",
      "geometry": {
        "type": "LineString",
        "coordinates": [
          [
            73.817261,
            15.486953
          ]
        ]
      },
      "properties": {
        "Vehicle_No": "GA 07 G 7677-FFHQ(EMERGENCY RESCUE)",
        "Vehicle_Name": "TS101",
        "Branch": "Fire Force Headquarters",
        "created": "24-01-2026 15:04:10+05:30",
        "lastUpdated": "24-01-2026 15:04:10+05:30"
      }
    },
    {
      "type": "Feature",
      "geometry": {
        "type": "LineString",
        "coordinates": [
          [
            73.81707,
            15.487015
          ],
          [
            73.817291,
            15.487235
          ],
          [
            73.81723,
            15.487157
          ],
          [
            73.817268,
            15.487277
          ],
          [
            73.817268,
            15.487273
          ],
          [
            73.817245,
            15.487267
          ],
          [
            73.817276,
            15.487307
          ],
          [
            73.81723,
            15.487318
          ]
        ]
      },
      "properties": {
        "Vehicle_No": "GA 07 G 1121-PNJ(EMERGENCY RESCUE)",
        "Vehicle_Name": "TS101",
        "Branch": "Fire Station Panaji",
        "created": "02-02-2026 05:29:28+05:30",
        "lastUpdated": "02-02-2026 07:27:23+05:30"
      }
    },
    {
      "type": "Feature",
      "geometry": {
        "type": "LineString",
        "coordinates": [
          [
            73.817474,
            15.486662
          ],
          [
            73.817398,
            15.486615
          ],
          [
            73.817207,
            15.486617
          ],
          [
            73.8172,
            15.486782
          ],
          [
            73.817245,
            15.486445
          ],
          [
            73.817245,
            15.486442
          ],
          [
            73.817146,
            15.486455
          ],
          [
            73.817497,
            15.486738
          ],
          [
            73.817505,
            15.486487
          ]
        ]
      },
      "properties": {
        "Vehicle_No": "GA 07 G 1571-FFHQ(QUICK RESPONSE)",
        "Vehicle_Name": "TS101",
        "Branch": "Fire Force Headquarters",
        "created": "02-02-2026 05:29:23+05:30",
        "lastUpdated": "02-02-2026 07:25:39+05:30"
      }
    },
    {
      "type": "Feature",
      "geometry": {
        "type": "LineString",
        "coordinates": [
          [
            73.808868,
            15.589883
          ],
          [
            73.80867,
            15.589848
          ],
          [
            73.808762,
            15.589982
          ],
          [
            73.808685,
            15.589968
          ],
          [
            73.808632,
            15.589968
          ],
          [
            73.808685,
            15.58996
          ],
          [
            73.808746,
            15.589972
          ],
          [
            73.808716,
            15.589977
          ],
          [
            73.808693,
            15.589927
          ],
          [
            73.808762,
            15.589948
          ],
          [
            73.808784,
            15.589953
          ],
          [
            73.8088,
            15.589923
          ],
          [
            73.808701,
            15.589857
          ],
          [
            73.808746,
            15.589847
          ],
          [
            73.808708,
            15.589883
          ],
          [
            73.80867,
            15.589888
          ],
          [
            73.808685,
            15.589862
          ],
          [
            73.808739,
            15.589838
          ]
        ]
      },
      "properties": {
        "Vehicle_No": "GA 07 G 8101-MAP(WATER TENDER)",
        "Vehicle_Name": "TS101",
        "Branch": "Fire Station Mapusa",
        "created": "02-02-2026 05:27:10+05:30",
        "lastUpdated": "02-02-2026 08:00:21+05:30"
      }
    },
    {
      "type": "Feature",
      "geometry": {
        "type": "LineString",
        "coordinates": [
          [
            73.9701733,
            15.2695133
          ],
          [
            73.970035,
            15.26947
          ],
          [
            73.9701333,
            15.269425
          ],
          [
            73.9698966,
            15.26945
          ],
          [
            73.9700766,
            15.2694233
          ],
          [
            73.9707516,
            15.2690266
          ],
          [
            73.9702066,
            15.2693916
          ],
          [
            73.9702316,
            15.2693483
          ],
          [
            73.9700933,
            15.2693583
          ],
          [
            73.96993,
            15.2693666
          ],
          [
            73.9699633,
            15.269415
          ],
          [
            73.96989,
            15.2694533
          ],
          [
            73.970125,
            15.26936
          ],
          [
            73.9701733,
            15.269365
          ],
          [
            73.9699783,
            15.26943
          ],
          [
            73.9701083,
            15.2693733
          ],
          [
            73.9701666,
            15.2691866
          ],
          [
            73.9700516,
            15.2693133
          ],
          [
            73.96993,
            15.2694816
          ],
          [
            73.9699383,
            15.2693783
          ],
          [
            73.970125,
            15.2693933
          ],
          [
            73.9699216,
            15.2693216
          ],
          [
            73.9698733,
            15.2693749
          ],
          [
            73.9699633,
            15.2693783
          ],
          [
            73.970125,
            15.269425
          ],
          [
            73.97002,
            15.2693766
          ],
          [
            73.969995,
            15.269485
          ],
          [
            73.9700766,
            15.2691466
          ],
          [
            73.970035,
            15.269355
          ],
          [
            73.9700766,
            15.2693666
          ],
          [
            73.97006,
            15.2693966
          ],
          [
            73.97006,
            15.26935
          ],
          [
            73.9701333,
            15.2694666
          ],
          [
            73.970125,
            15.2693133
          ],
          [
            73.9700433,
            15.2693666
          ],
          [
            73.9701416,
            15.26947
          ],
          [
            73.9702316,
            15.269445
          ],
          [
            73.9702466,
            15.26919
          ],
          [
            73.9700933,
            15.269405
          ],
          [
            73.9700683,
            15.26946
          ],
          [
            73.9701733,
            15.2693183
          ],
          [
            73.9701816,
            15.2694316
          ],
          [
            73.9701016,
            15.2693883
          ],
          [
            73.9700433,
            15.2694566
          ],
          [
            73.97015,
            15.2694583
          ],
          [
            73.9702233,
            15.26941
          ],
          [
            73.9702233,
            15.2694616
          ],
          [
            73.9699783,
            15.269425
          ],
          [
            73.970215,
            15.2694516
          ],
          [
            73.9701583,
            15.26946
          ],
          [
            73.9704999,
            15.269295
          ],
          [
            73.9701583,
            15.2693433
          ],
          [
            73.970125,
            15.26937
          ],
          [
            73.97006,
            15.2694266
          ],
          [
            73.9701983,
            15.26947
          ],
          [
            73.9703533,
            15.2694416
          ],
          [
            73.9701333,
            15.2694483
          ],
          [
            73.9701016,
            15.2692566
          ],
          [
            73.9701583,
            15.2694383
          ],
          [
            73.9701816,
            15.2694333
          ],
          [
            73.9701083,
            15.2694533
          ],
          [
            73.970085,
            15.2694066
          ],
          [
            73.9699866,
            15.2694383
          ],
          [
            73.9700683,
            15.2695316
          ],
          [
            73.970085,
            15.269475
          ],
          [
            73.97015,
            15.2693833
          ],
          [
            73.9701733,
            15.269445
          ],
          [
            73.9699783,
            15.2693483
          ],
          [
            73.96989,
            15.2695333
          ],
          [
            73.9697516,
            15.2687283
          ],
          [
            73.96993,
            15.2692283
          ],
          [
            73.97019,
            15.2694516
          ],
          [
            73.9702233,
            15.2695066
          ],
          [
            73.969955,
            15.2693933
          ],
          [
            73.97019,
            15.2694883
          ],
          [
            73.9703199,
            15.2694633
          ],
          [
            73.9697583,
            15.2693583
          ],
          [
            73.9698966,
            15.2692816
          ],
          [
            73.97028,
            15.2694066
          ],
          [
            73.9701733,
            15.2694333
          ],
          [
            73.96989,
            15.2689033
          ],
          [
            73.9701333,
            15.2693316
          ],
          [
            73.9701166,
            15.26961
          ],
          [
            73.9701666,
            15.269485
          ],
          [
            73.9700116,
            15.2693583
          ],
          [
            73.9698083,
            15.2694349
          ],
          [
            73.970035,
            15.2694566
          ],
          [
            73.9701583,
            15.269505
          ],
          [
            73.970035,
            15.2694216
          ],
          [
            73.9699466,
            15.2696149
          ],
          [
            73.9703199,
            15.26981
          ],
          [
            73.9698483,
            15.269315
          ],
          [
            73.9698566,
            15.2693483
          ],
          [
            73.9699133,
            15.2694016
          ],
          [
            73.96997,
            15.2694816
          ],
          [
            73.9698566,
            15.2691616
          ],
          [
            73.9700433,
            15.2692399
          ],
          [
            73.9700433,
            15.26941
          ],
          [
            73.9698733,
            15.2694416
          ],
          [
            73.9701666,
            15.2694866
          ],
          [
            73.9700766,
            15.2694666
          ],
          [
            73.9698083,
            15.2693383
          ],
          [
            73.970215,
            15.2697266
          ],
          [
            73.9702316,
            15.2694533
          ],
          [
            73.96989,
            15.2693616
          ],
          [
            73.9698,
            15.2692549
          ],
          [
            73.9696783,
            15.2691116
          ],
          [
            73.9697183,
            15.26936
          ],
          [
            73.969735,
            15.2693666
          ],
          [
            73.9699216,
            15.2694266
          ],
          [
            73.9699466,
            15.2693666
          ],
          [
            73.969905,
            15.26935
          ],
          [
            73.9697583,
            15.269325
          ],
          [
            73.9699133,
            15.2693833
          ],
          [
            73.9699633,
            15.2694016
          ],
          [
            73.9700516,
            15.2694116
          ],
          [
            73.970125,
            15.26931
          ],
          [
            73.9700766,
            15.2694933
          ],
          [
            73.97019,
            15.2695116
          ],
          [
            73.970085,
            15.2694333
          ],
          [
            73.9705483,
            15.2698916
          ],
          [
            73.970385,
            15.2696866
          ],
          [
            73.97006,
            15.2693916
          ],
          [
            73.9700433,
            15.2694883
          ],
          [
            73.9702066,
            15.269385
          ],
          [
            73.9700766,
            15.2694766
          ],
          [
            73.970125,
            15.2693966
          ],
          [
            73.9700433,
            15.26945
          ],
          [
            73.9696699,
            15.2695216
          ],
          [
            73.969955,
            15.2694933
          ],
          [
            73.9701416,
            15.26934
          ],
          [
            73.9699633,
            15.2694799
          ],
          [
            73.9700933,
            15.269485
          ],
          [
            73.9701016,
            15.2694799
          ],
          [
            73.97015,
            15.2694166
          ],
          [
            73.9700033,
            15.26945
          ],
          [
            73.9702066,
            15.2694216
          ],
          [
            73.9700033,
            15.2693983
          ],
          [
            73.970215,
            15.2694199
          ],
          [
            73.9701666,
            15.2694266
          ],
          [
            73.9702066,
            15.2693766
          ],
          [
            73.970035,
            15.2694533
          ],
          [
            73.9700433,
            15.269355
          ],
          [
            73.970125,
            15.2693766
          ],
          [
            73.9702883,
            15.269445
          ],
          [
            73.970085,
            15.269445
          ],
          [
            73.9700116,
            15.2694533
          ],
          [
            73.9701416,
            15.2694433
          ],
          [
            73.9701166,
            15.2694033
          ],
          [
            73.97015,
            15.2693883
          ],
          [
            73.9701333,
            15.2693666
          ],
          [
            73.97015,
            15.2693516
          ],
          [
            73.9701083,
            15.2694066
          ],
          [
            73.9701666,
            15.269315
          ],
          [
            73.9701816,
            15.26935
          ],
          [
            73.9701333,
            15.2692766
          ],
          [
            73.9701016,
            15.2694199
          ],
          [
            73.9699633,
            15.269365
          ],
          [
            73.9700433,
            15.2693066
          ],
          [
            73.9700283,
            15.2694016
          ],
          [
            73.9704999,
            15.269355
          ],
          [
            73.9702633,
            15.2694433
          ],
          [
            73.9701733,
            15.2694166
          ],
          [
            73.9701016,
            15.269475
          ],
          [
            73.9701016,
            15.269425
          ],
          [
            73.9700933,
            15.2694416
          ],
          [
            73.9701333,
            15.26945
          ],
          [
            73.97006,
            15.2694816
          ],
          [
            73.970035,
            15.2694216
          ],
          [
            73.9700683,
            15.26946
          ],
          [
            73.97015,
            15.2692966
          ],
          [
            73.9701666,
            15.2692666
          ],
          [
            73.9700116,
            15.2694933
          ],
          [
            73.97006,
            15.2694816
          ],
          [
            73.9700683,
            15.2695133
          ],
          [
            73.9701083,
            15.2695266
          ],
          [
            73.9701416,
            15.2694883
          ],
          [
            73.9702466,
            15.2694383
          ],
          [
            73.9701333,
            15.2694316
          ],
          [
            73.9700933,
            15.26947
          ],
          [
            73.9700766,
            15.2693616
          ],
          [
            73.9701416,
            15.2696083
          ],
          [
            73.97028,
            15.2693733
          ],
          [
            73.9702466,
            15.2694483
          ],
          [
            73.9701983,
            15.2692549
          ],
          [
            73.970125,
            15.269275
          ],
          [
            73.9703199,
            15.269325
          ],
          [
            73.9701816,
            15.2695333
          ],
          [
            73.9701416,
            15.2694583
          ],
          [
            73.9700433,
            15.2693749
          ],
          [
            73.9702466,
            15.2692583
          ],
          [
            73.9702716,
            15.26935
          ],
          [
            73.970085,
            15.2695166
          ],
          [
            73.9701733,
            15.2694216
          ],
          [
            73.9701083,
            15.26941
          ],
          [
            73.9701666,
            15.26943
          ],
          [
            73.9701083,
            15.26934
          ],
          [
            73.97015,
            15.269415
          ],
          [
            73.97019,
            15.2692966
          ],
          [
            73.9701016,
            15.2694333
          ],
          [
            73.9700516,
            15.2694216
          ],
          [
            73.9701333,
            15.2693866
          ],
          [
            73.970085,
            15.2694866
          ],
          [
            73.9696783,
            15.2696833
          ],
          [
            73.970035,
            15.2693883
          ],
          [
            73.9700116,
            15.2693316
          ],
          [
            73.9701666,
            15.2694333
          ],
          [
            73.9700033,
            15.2693033
          ]
        ]
      },
      "properties": {
        "Vehicle_No": "GA 07 G 2317-MRG(EMERGENCY RESCUE TENDER)",
        "Vehicle_Name": "5035",
        "Branch": "Fire Station Margao",
        "created": "02-02-2026 05:30:53+05:30",
        "lastUpdated": "02-02-2026 10:41:45+05:30"
      }
    },
    {
      "type": "Feature",
      "geometry": {
        "type": "LineString",
        "coordinates": [
          [
            73.8513516,
            15.3887716
          ],
          [
            73.8513666,
            15.3887616
          ],
          [
            73.8513516,
            15.3888
          ],
          [
            73.851335,
            15.3887916
          ]
        ]
      },
      "properties": {
        "Vehicle_No": "GA 07 G 1570-VAS(QUICK RESPONSE FIRE TENDER)",
        "Vehicle_Name": "5035",
        "Branch": "Fire Station Vasco",
        "created": "02-02-2026 05:30:21+05:30",
        "lastUpdated": "02-02-2026 10:29:55+05:30"
      }
    },
    {
      "type": "Feature",
      "geometry": {
        "type": "LineString",
        "coordinates": [
          [
            73.8511066,
            15.3889716
          ]
        ]
      },
      "properties": {
        "Vehicle_No": "GA 07 G 4101-VAS(MS WATER TENDER)",
        "Vehicle_Name": "5035",
        "Branch": "Fire Station Vasco",
        "created": "02-02-2026 05:30:14+05:30",
        "lastUpdated": "02-02-2026 05:30:14+05:30"
      }
    },
    {
      "type": "Feature",
      "geometry": {
        "type": "LineString",
        "coordinates": [
          [
            73.8513667,
            15.388725
          ],
          [
            73.8513583,
            15.38866
          ],
          [
            73.8509283,
            15.3890417
          ],
          [
            73.851285,
            15.388775
          ],
          [
            73.85131,
            15.38876
          ]
        ]
      },
      "properties": {
        "Vehicle_No": "GA 07 G 0819-VAS(WATER/FOAM TENDER)",
        "Vehicle_Name": "4G",
        "Branch": "Fire Station Vasco",
        "created": "02-02-2026 05:30:51+05:30",
        "lastUpdated": "02-02-2026 08:56:28+05:30"
      }
    },
    {
      "type": "Feature",
      "geometry": {
        "type": "LineString",
        "coordinates": [
          [
            73.97024,
            15.2694316
          ],
          [
            73.9700516,
            15.2695183
          ]
        ]
      },
      "properties": {
        "Vehicle_No": "GA 07 G 7100-MRG(WATER BOUSER)",
        "Vehicle_Name": "5035",
        "Branch": "Fire Station Margao",
        "created": "02-02-2026 05:30:01+05:30",
        "lastUpdated": "02-02-2026 05:32:03+05:30"
      }
    },
    {
      "type": "Feature",
      "geometry": {
        "type": "LineString",
        "coordinates": [
          [
            73.9703933,
            15.2692833
          ]
        ]
      },
      "properties": {
        "Vehicle_No": "GA 07 G 1568-MRG(QUICK RESPONSE )",
        "Vehicle_Name": "5035",
        "Branch": "Fire Station Margao",
        "created": "02-02-2026 05:30:50+05:30",
        "lastUpdated": "02-02-2026 05:30:50+05:30"
      }
    },
    {
      "type": "Feature",
      "geometry": {
        "type": "LineString",
        "coordinates": [
          [
            73.96997,
            15.2693783
          ],
          [
            73.969735,
            15.269475
          ],
          [
            73.9698483,
            15.2694233
          ]
        ]
      },
      "properties": {
        "Vehicle_No": "GA 07 G 6101-MRG(WATER TENDER)",
        "Vehicle_Name": "5035",
        "Branch": "Fire Station Margao",
        "created": "02-02-2026 05:30:40+05:30",
        "lastUpdated": "02-02-2026 08:21:47+05:30"
      }
    },
    {
      "type": "Feature",
      "geometry": {
        "type": "LineString",
        "coordinates": [
          [
            73.969905,
            15.2695333
          ]
        ]
      },
      "properties": {
        "Vehicle_No": "GA 07 G 1001-MRG(AERIAL LADDER PLATFORM)",
        "Vehicle_Name": "5035",
        "Branch": "Fire Station Margao",
        "created": "23-01-2026 11:19:51+05:30",
        "lastUpdated": "23-01-2026 11:19:51+05:30"
      }
    },
    {
      "type": "Feature",
      "geometry": {
        "type": "LineString",
        "coordinates": [
          [
            74.0029317,
            15.4026794
          ]
        ]
      },
      "properties": {
        "Vehicle_No": "GA 07 G 0820-BIC(WATER TEDNER)",
        "Vehicle_Name": "5026",
        "Branch": "Fire Station Bicholim",
        "created": "02-02-2026 05:30:21+05:30",
        "lastUpdated": "02-02-2026 05:30:21+05:30"
      }
    },
    {
      "type": "Feature",
      "geometry": {
        "type": "LineString",
        "coordinates": [
          [
            73.914095,
            15.5002866
          ],
          [
            73.9117183,
            15.4948666
          ],
          [
            73.9108966,
            15.4939466
          ],
          [
            73.9108799,
            15.4939083
          ],
          [
            73.9126716,
            15.4969549
          ],
          [
            73.913175,
            15.4965216
          ],
          [
            73.9131833,
            15.49645
          ],
          [
            73.9131666,
            15.49644
          ],
          [
            73.913175,
            15.4964383
          ],
          [
            73.913175,
            15.4964333
          ],
          [
            73.9131916,
            15.4964216
          ],
          [
            73.913175,
            15.4964166
          ],
          [
            73.9131833,
            15.4964216
          ],
          [
            73.913175,
            15.4964166
          ],
          [
            73.913175,
            15.4964133
          ],
          [
            73.913175,
            15.4964166
          ],
          [
            73.9131833,
            15.496415
          ],
          [
            73.9131916,
            15.4964133
          ],
          [
            73.9131833,
            15.49639
          ],
          [
            73.9131833,
            15.4963833
          ],
          [
            73.91316,
            15.4964533
          ],
          [
            73.9131666,
            15.4964433
          ],
          [
            73.9128816,
            15.4953549
          ],
          [
            73.912695,
            15.4968649
          ],
          [
            73.9135016,
            15.4995633
          ],
          [
            73.914185,
            15.500195
          ],
          [
            73.914095,
            15.50027
          ]
        ]
      },
      "properties": {
        "Vehicle_No": "GA 07 G 5101-OLG(MS WATER TENDER)",
        "Vehicle_Name": "5035",
        "Branch": "Fire Station Old Goa",
        "created": "02-02-2026 05:30:39+05:30",
        "lastUpdated": "02-02-2026 08:19:07+05:30"
      }
    },
    {
      "type": "Feature",
      "geometry": {
        "type": "LineString",
        "coordinates": [
          [
            73.9466966,
            15.5889633
          ],
          [
            73.9464266,
            15.588825
          ],
          [
            73.946395,
            15.5886066
          ],
          [
            73.946485,
            15.588965
          ],
          [
            73.9467033,
            15.5890366
          ],
          [
            73.9462733,
            15.588515
          ],
          [
            73.94633,
            15.5888583
          ],
          [
            73.9462233,
            15.5888466
          ],
          [
            73.9466383,
            15.5891866
          ],
          [
            73.9467116,
            15.5892666
          ],
          [
            73.9467449,
            15.5893816
          ],
          [
            73.94681,
            15.5895216
          ],
          [
            73.94681,
            15.58954
          ],
          [
            73.9467533,
            15.5894066
          ],
          [
            73.9468833,
            15.5892533
          ],
          [
            73.9469316,
            15.5894849
          ],
          [
            73.9466066,
            15.58937
          ],
          [
            73.9474033,
            15.5898933
          ],
          [
            73.9472816,
            15.5898083
          ],
          [
            73.9469733,
            15.5895166
          ],
          [
            73.94698,
            15.5895183
          ],
          [
            73.94668,
            15.5889783
          ],
          [
            73.9461183,
            15.5892849
          ],
          [
            73.94703,
            15.5882533
          ],
          [
            73.9473633,
            15.58811
          ],
          [
            73.9467366,
            15.5883383
          ],
          [
            73.9463783,
            15.5891483
          ],
          [
            73.9465166,
            15.5893266
          ],
          [
            73.9468349,
            15.5890883
          ],
          [
            73.9469966,
            15.58936
          ],
          [
            73.9465166,
            15.5892366
          ],
          [
            73.9467116,
            15.589125
          ],
          [
            73.9459316,
            15.5883966
          ],
          [
            73.9459383,
            15.588365
          ],
          [
            73.9462233,
            15.588885
          ],
          [
            73.9459966,
            15.5884683
          ],
          [
            73.9461583,
            15.5886616
          ],
          [
            73.946135,
            15.5889466
          ],
          [
            73.946305,
            15.5888016
          ],
          [
            73.94624,
            15.5886716
          ],
          [
            73.9465416,
            15.5890033
          ],
          [
            73.9462316,
            15.5893633
          ],
          [
            73.946615,
            15.5890933
          ],
          [
            73.9465166,
            15.588985
          ],
          [
            73.9465983,
            15.58908
          ],
          [
            73.9465499,
            15.5890316
          ],
          [
            73.9466633,
            15.5891833
          ],
          [
            73.9467283,
            15.5892883
          ],
          [
            73.9466316,
            15.5891499
          ],
          [
            73.9465166,
            15.5890733
          ],
          [
            73.9472566,
            15.58958
          ],
          [
            73.9470616,
            15.5899166
          ],
          [
            73.9466549,
            15.589415
          ],
          [
            73.9457933,
            15.5884183
          ],
          [
            73.9462083,
            15.5889666
          ],
          [
            73.9466549,
            15.588785
          ],
          [
            73.946485,
            15.5890516
          ],
          [
            73.9464033,
            15.589255
          ],
          [
            73.946305,
            15.589165
          ],
          [
            73.9461833,
            15.5891499
          ],
          [
            73.9463866,
            15.5892033
          ],
          [
            73.946435,
            15.5892033
          ],
          [
            73.9467366,
            15.5891933
          ],
          [
            73.9466883,
            15.589215
          ],
          [
            73.9465333,
            15.5892216
          ],
          [
            73.9465166,
            15.5892216
          ],
          [
            73.9462733,
            15.589245
          ],
          [
            73.9463466,
            15.5893066
          ],
          [
            73.9463133,
            15.5892716
          ],
          [
            73.9462083,
            15.5892983
          ],
          [
            73.946395,
            15.5893683
          ],
          [
            73.945915,
            15.58947
          ],
          [
            73.9463216,
            15.5892116
          ],
          [
            73.9468666,
            15.588815
          ],
          [
            73.9466066,
            15.5891049
          ],
          [
            73.9464766,
            15.5890866
          ],
          [
            73.9464033,
            15.5892066
          ],
          [
            73.9462966,
            15.5890599
          ],
          [
            73.946265,
            15.58904
          ],
          [
            73.9460283,
            15.5890766
          ]
        ]
      },
      "properties": {
        "Vehicle_No": "GA 07 G 3101-BIC(MS WATER TENDER)",
        "Vehicle_Name": "5035",
        "Branch": "Fire Station Bicholim",
        "created": "02-02-2026 05:30:41+05:30",
        "lastUpdated": "02-02-2026 10:34:45+05:30"
      }
    },
    {
      "type": "Feature",
      "geometry": {
        "type": "LineString",
        "coordinates": [
          [
            73.9466966,
            15.5894366
          ]
        ]
      },
      "properties": {
        "Vehicle_No": "GA 07 G 1941-BIC(QUICK RESPONSE)",
        "Vehicle_Name": "5035",
        "Branch": "Fire Station Bicholim",
        "created": "02-02-2026 05:30:37+05:30",
        "lastUpdated": "02-02-2026 05:30:37+05:30"
      }
    },
    {
      "type": "Feature",
      "geometry": {
        "type": "LineString",
        "coordinates": [
          [
            73.8513266,
            15.388875
          ]
        ]
      },
      "properties": {
        "Vehicle_No": "GA 07 G 2319-VAS (EMERGENCY RESCUE TENDER)",
        "Vehicle_Name": "5035",
        "Branch": "Fire Station Vasco",
        "created": "02-02-2026 05:29:50+05:30",
        "lastUpdated": "02-02-2026 05:29:50+05:30"
      }
    },
    {
      "type": "Feature",
      "geometry": {
        "type": "LineString",
        "coordinates": [
          [
            74.1385816,
            15.5309333
          ]
        ]
      },
      "properties": {
        "Vehicle_No": "GA 07 G 3737-VAP(WATER TENDER)",
        "Vehicle_Name": "5035",
        "Branch": "Fire Station Valpoi",
        "created": "02-02-2026 05:30:29+05:30",
        "lastUpdated": "02-02-2026 05:30:29+05:30"
      }
    },
    {
      "type": "Feature",
      "geometry": {
        "type": "LineString",
        "coordinates": [
          [
            74.0028966,
            15.4027766
          ]
        ]
      },
      "properties": {
        "Vehicle_No": "GA 07 G 2318-PND(EMERGENCY RESCUE TENDER)",
        "Vehicle_Name": "5035",
        "Branch": "Fire Station Ponda",
        "created": "02-02-2026 05:30:50+05:30",
        "lastUpdated": "02-02-2026 05:30:50+05:30"
      }
    },
    {
      "type": "Feature",
      "geometry": {
        "type": "LineString",
        "coordinates": [
          [
            74.00284,
            15.40267
          ]
        ]
      },
      "properties": {
        "Vehicle_No": "GA 07 G 2004-PND(QUICK RESPONSE)",
        "Vehicle_Name": "5035",
        "Branch": "Fire Station Ponda",
        "created": "02-02-2026 05:30:42+05:30",
        "lastUpdated": "02-02-2026 05:30:42+05:30"
      }
    },
    {
      "type": "Feature",
      "geometry": {
        "type": "LineString",
        "coordinates": [
          [
            74.0027016,
            15.4026816
          ]
        ]
      },
      "properties": {
        "Vehicle_No": "GA 07 G 9101-PND(WATER TENDER)",
        "Vehicle_Name": "5035",
        "Branch": "Fire Station Ponda",
        "created": "02-02-2026 05:30:33+05:30",
        "lastUpdated": "02-02-2026 05:30:33+05:30"
      }
    },
    {
      "type": "Feature",
      "geometry": {
        "type": "LineString",
        "coordinates": [
          [
            74.003125,
            15.4024083
          ]
        ]
      },
      "properties": {
        "Vehicle_No": "GA 07 G 9797-PND(WATER BOUSER)",
        "Vehicle_Name": "5035",
        "Branch": "Fire Station Ponda",
        "created": "02-02-2026 05:30:28+05:30",
        "lastUpdated": "02-02-2026 05:30:28+05:30"
      }
    },
    {
      "type": "Feature",
      "geometry": {
        "type": "LineString",
        "coordinates": [
          [
            74.0440016,
            15.02363
          ]
        ]
      },
      "properties": {
        "Vehicle_No": "GA 07 G 6363-CAN(WATER TENDER)",
        "Vehicle_Name": "5035",
        "Branch": "Fire Station Canacona",
        "created": "01-02-2026 15:40:16+05:30",
        "lastUpdated": "01-02-2026 15:40:16+05:30"
      }
    },
    {
      "type": "Feature",
      "geometry": {
        "type": "LineString",
        "coordinates": [
          [
            74.0441083,
            15.0236483
          ]
        ]
      },
      "properties": {
        "Vehicle_No": "GA 07 G 1567-CAN(QUICK RESPONSE FT)",
        "Vehicle_Name": "5035",
        "Branch": "Fire Station Canacona",
        "created": "01-02-2026 22:14:27+05:30",
        "lastUpdated": "01-02-2026 22:14:27+05:30"
      }
    },
    {
      "type": "Feature",
      "geometry": {
        "type": "LineString",
        "coordinates": [
          [
            73.93566,
            15.369745
          ],
          [
            73.9356683,
            15.369735
          ],
          [
            73.9356033,
            15.3714883
          ],
          [
            73.9354733,
            15.3696383
          ],
          [
            73.9355466,
            15.3696433
          ],
          [
            73.9358566,
            15.3677066
          ],
          [
            73.935905,
            15.3673183
          ],
          [
            73.93593,
            15.36734
          ]
        ]
      },
      "properties": {
        "Vehicle_No": "GA 07 G 1569-VRN(QUICK RESPONSE)",
        "Vehicle_Name": "5035",
        "Branch": "Fire Station Verna",
        "created": "02-02-2026 05:30:49+05:30",
        "lastUpdated": "02-02-2026 10:37:32+05:30"
      }
    },
    {
      "type": "Feature",
      "geometry": {
        "type": "LineString",
        "coordinates": [
          [
            73.9361333,
            15.3693783
          ],
          [
            73.9356933,
            15.3702783
          ],
          [
            73.93479,
            15.3699416
          ],
          [
            73.931575,
            15.3711066
          ],
          [
            73.9262133,
            15.3644783
          ],
          [
            73.9287683,
            15.3509983
          ],
          [
            73.92793,
            15.3400533
          ],
          [
            73.9276199,
            15.3335199
          ],
          [
            73.93116,
            15.3266583
          ],
          [
            73.9409266,
            15.3178833
          ],
          [
            73.9416183,
            15.315985
          ],
          [
            73.9354,
            15.3243716
          ],
          [
            73.9325766,
            15.32048
          ],
          [
            73.9334383,
            15.3173683
          ],
          [
            73.9338216,
            15.3134133
          ],
          [
            73.9338216,
            15.3132733
          ],
          [
            73.9346599,
            15.31322
          ],
          [
            73.9359449,
            15.313345
          ],
          [
            73.9371416,
            15.31195
          ],
          [
            73.9372966,
            15.311505
          ],
          [
            73.9372066,
            15.3114833
          ],
          [
            73.9371983,
            15.3114766
          ],
          [
            73.9372066,
            15.3114583
          ],
          [
            73.9372233,
            15.311535
          ],
          [
            73.9372066,
            15.3115533
          ],
          [
            73.93728,
            15.311595
          ],
          [
            73.9388833,
            15.3112333
          ],
          [
            73.9430983,
            15.3071533
          ],
          [
            73.94187,
            15.31405
          ],
          [
            73.9390866,
            15.3207483
          ],
          [
            73.9349683,
            15.324685
          ],
          [
            73.9328133,
            15.3256533
          ],
          [
            73.9279533,
            15.3408183
          ],
          [
            73.927735,
            15.35285
          ],
          [
            73.9260016,
            15.3623916
          ],
          [
            73.927555,
            15.3660733
          ],
          [
            73.9275316,
            15.36911
          ],
          [
            73.932015,
            15.369055
          ],
          [
            73.9355883,
            15.3699283
          ]
        ]
      },
      "properties": {
        "Vehicle_No": "GA 07 G 9909-VRN(ADVANCE MULTI-PURPOSE)",
        "Vehicle_Name": "5035",
        "Branch": "Fire Station Verna",
        "created": "02-02-2026 05:30:12+05:30",
        "lastUpdated": "02-02-2026 10:12:46+05:30"
      }
    },
    {
      "type": "Feature",
      "geometry": {
        "type": "LineString",
        "coordinates": [
          [
            74.1387933,
            15.5311233
          ],
          [
            74.1337816,
            15.5296433
          ],
          [
            74.1287183,
            15.5259566
          ],
          [
            74.1289549,
            15.5176466
          ],
          [
            74.1266766,
            15.51096
          ],
          [
            74.127205,
            15.5085733
          ],
          [
            74.1357666,
            15.5029166
          ],
          [
            74.14008,
            15.5026016
          ],
          [
            74.1425783,
            15.4931016
          ],
          [
            74.14012,
            15.4863883
          ],
          [
            74.06604,
            15.44797
          ],
          [
            74.0634199,
            15.4408166
          ],
          [
            74.06005,
            15.4365883
          ],
          [
            74.055225,
            15.42585
          ],
          [
            74.04987,
            15.4225733
          ],
          [
            74.0436199,
            15.4237866
          ],
          [
            74.0311366,
            15.4134516
          ],
          [
            74.0152183,
            15.4084866
          ],
          [
            74.008415,
            15.4068016
          ],
          [
            74.0045166,
            15.4048733
          ],
          [
            74.0044766,
            15.404925
          ],
          [
            74.00267,
            15.4029
          ],
          [
            74.00267,
            15.402895
          ],
          [
            74.0026616,
            15.4028766
          ],
          [
            74.00437,
            15.4054466
          ],
          [
            74.0095783,
            15.40767
          ],
          [
            74.010515,
            15.4081333
          ],
          [
            74.0192133,
            15.4087416
          ],
          [
            74.026685,
            15.4120283
          ],
          [
            74.0337233,
            15.41413
          ],
          [
            74.0476316,
            15.4242683
          ],
          [
            74.0556483,
            15.4265149
          ],
          [
            74.060075,
            15.4360433
          ],
          [
            74.06399,
            15.4422566
          ],
          [
            74.0683349,
            15.450885
          ],
          [
            74.0704433,
            15.45292
          ]
        ]
      },
      "properties": {
        "Vehicle_No": "GA 07 G 1942-VAP(QUICK RESPONSE)",
        "Vehicle_Name": "5035",
        "Branch": "Fire Station Valpoi",
        "created": "02-02-2026 05:30:35+05:30",
        "lastUpdated": "02-02-2026 10:22:51+05:30"
      }
    },
    {
      "type": "Feature",
      "geometry": {
        "type": "LineString",
        "coordinates": [
          [
            74.1037516,
            15.2605366
          ],
          [
            74.1037766,
            15.2602233
          ],
          [
            74.10363,
            15.2603233
          ]
        ]
      },
      "properties": {
        "Vehicle_No": "GA 07 G 2003-CUR(QUICK RESPONSE)",
        "Vehicle_Name": "5035",
        "Branch": "Fire Station Curchorem",
        "created": "02-02-2026 05:29:44+05:30",
        "lastUpdated": "02-02-2026 10:27:46+05:30"
      }
    },
    {
      "type": "Feature",
      "geometry": {
        "type": "LineString",
        "coordinates": [
          [
            74.1037916,
            15.260395
          ],
          [
            74.1018066,
            15.26171
          ],
          [
            74.0996016,
            15.2638116
          ],
          [
            74.099975,
            15.2655066
          ],
          [
            74.09917,
            15.265975
          ],
          [
            74.0979983,
            15.2663833
          ],
          [
            74.09795,
            15.266415
          ],
          [
            74.0986083,
            15.2662133
          ],
          [
            74.0986816,
            15.266195
          ],
          [
            74.09895,
            15.266065
          ],
          [
            74.097925,
            15.2665033
          ],
          [
            74.0973233,
            15.2672316
          ],
          [
            74.097315,
            15.26724
          ],
          [
            74.098445,
            15.2662883
          ],
          [
            74.0990716,
            15.2660549
          ],
          [
            74.09996,
            15.2650016
          ],
          [
            74.1003166,
            15.26331
          ],
          [
            74.1036866,
            15.2604266
          ],
          [
            74.1037266,
            15.260455
          ]
        ]
      },
      "properties": {
        "Vehicle_No": "GA 07 G 7447-CUR(EMERGENCY RESCUE)",
        "Vehicle_Name": "5035",
        "Branch": "Fire Station Curchorem",
        "created": "02-02-2026 05:30:34+05:30",
        "lastUpdated": "02-02-2026 10:20:13+05:30"
      }
    },
    {
      "type": "Feature",
      "geometry": {
        "type": "LineString",
        "coordinates": [
          [
            74.1034583,
            15.2603916
          ],
          [
            74.1034916,
            15.2603416
          ],
          [
            74.1034666,
            15.2603416
          ],
          [
            74.1034583,
            15.2603616
          ],
          [
            74.1034416,
            15.2604433
          ],
          [
            74.1034416,
            15.26045
          ],
          [
            74.10345,
            15.260435
          ],
          [
            74.1035799,
            15.2603133
          ],
          [
            74.1034749,
            15.260545
          ],
          [
            74.1034666,
            15.260535
          ],
          [
            74.1034583,
            15.2605366
          ],
          [
            74.1034666,
            15.2605366
          ],
          [
            74.1034583,
            15.26053
          ],
          [
            74.1035966,
            15.2604683
          ],
          [
            74.1035483,
            15.2604183
          ]
        ]
      },
      "properties": {
        "Vehicle_No": "GA 07 G 7557-CUR(WATER TENDER)",
        "Vehicle_Name": "5035",
        "Branch": "Fire Station Curchorem",
        "created": "02-02-2026 05:30:02+05:30",
        "lastUpdated": "02-02-2026 08:51:22+05:30"
      }
    },
    {
      "type": "Feature",
      "geometry": {
        "type": "LineString",
        "coordinates": [
          [
            74.103735,
            15.26036
          ]
        ]
      },
      "properties": {
        "Vehicle_No": "GA 07 G 7667-CUR(WATER BOUSER)",
        "Vehicle_Name": "5035",
        "Branch": "Fire Station Curchorem",
        "created": "02-02-2026 05:30:42+05:30",
        "lastUpdated": "02-02-2026 05:30:42+05:30"
      }
    },
    {
      "type": "Feature",
      "geometry": {
        "type": "LineString",
        "coordinates": [
          [
            73.97159,
            15.463195
          ],
          [
            73.97229,
            15.46313
          ],
          [
            73.9713467,
            15.4636767
          ],
          [
            73.9711433,
            15.46357
          ],
          [
            73.9726,
            15.4630233
          ],
          [
            73.97268,
            15.4629683
          ],
          [
            73.9718183,
            15.4621783
          ],
          [
            73.9726967,
            15.46296
          ],
          [
            73.9726883,
            15.4628933
          ],
          [
            73.9723233,
            15.4629983
          ],
          [
            73.9726233,
            15.4630383
          ],
          [
            73.9724033,
            15.4630733
          ],
          [
            73.9734867,
            15.460915
          ],
          [
            73.9748783,
            15.45617
          ],
          [
            73.97229,
            15.46287
          ],
          [
            73.972485,
            15.462995
          ],
          [
            73.9724683,
            15.4630817
          ],
          [
            73.9722983,
            15.4629917
          ],
          [
            73.9728033,
            15.4632933
          ],
          [
            73.9728767,
            15.4632667
          ],
          [
            73.972795,
            15.4636167
          ],
          [
            73.9728517,
            15.4638583
          ],
          [
            73.972575,
            15.4630567
          ],
          [
            73.9725833,
            15.46306
          ],
          [
            73.9728267,
            15.4633683
          ],
          [
            73.9727783,
            15.463055
          ],
          [
            73.9727217,
            15.4628017
          ],
          [
            73.9727217,
            15.4628317
          ],
          [
            73.972535,
            15.462785
          ],
          [
            73.97233,
            15.4631767
          ],
          [
            73.97225,
            15.46266
          ],
          [
            73.9724533,
            15.4626967
          ],
          [
            73.9727217,
            15.4634017
          ],
          [
            73.97255,
            15.4634217
          ],
          [
            73.97251,
            15.4628533
          ],
          [
            73.972535,
            15.4629
          ]
        ]
      },
      "properties": {
        "Vehicle_No": "GA 07 G 4989-KUN(WATER TENDER)",
        "Vehicle_Name": "G-100",
        "Branch": "Fire Station Kundaim",
        "created": "02-02-2026 05:30:39+05:30",
        "lastUpdated": "02-02-2026 10:26:31+05:30"
      }
    },
    {
      "type": "Feature",
      "geometry": {
        "type": "LineString",
        "coordinates": [
          [
            73.7941617,
            15.5330211
          ],
          [
            73.7940511,
            15.5329789
          ],
          [
            73.7939889,
            15.5332833
          ],
          [
            73.7941289,
            15.5332367
          ],
          [
            73.7940394,
            15.53299
          ],
          [
            73.7939961,
            15.5329956
          ]
        ]
      },
      "properties": {
        "Vehicle_No": "GA 07 G 2242-PIL(WATER TENDER)",
        "Vehicle_Name": "5026",
        "Branch": "Fire Station Pilerne",
        "created": "02-02-2026 05:29:22+05:30",
        "lastUpdated": "02-02-2026 09:12:35+05:30"
      }
    },
    {
      "type": "Feature",
      "geometry": {
        "type": "LineString",
        "coordinates": [
          [
            73.8086667,
            15.5898417
          ]
        ]
      },
      "properties": {
        "Vehicle_No": "GA 07 G 0681-MAP(QUICK RESPONSE)",
        "Vehicle_Name": "AT 5036A-4G",
        "Branch": "Fire Station Mapusa",
        "created": "02-02-2026 05:30:51+05:30",
        "lastUpdated": "02-02-2026 05:30:51+05:30"
      }
    },
    {
      "type": "Feature",
      "geometry": {
        "type": "LineString",
        "coordinates": [
          [
            73.7973678,
            15.7164689
          ]
        ]
      },
      "properties": {
        "Vehicle_No": "GA 07 G 2101-PER(MS WATER TENDER)",
        "Vehicle_Name": "AT5032-4G",
        "Branch": "Fire Station Pernem",
        "created": "02-02-2026 05:28:18+05:30",
        "lastUpdated": "02-02-2026 05:28:18+05:30"
      }
    },
    {
      "type": "Feature",
      "geometry": {
        "type": "LineString",
        "coordinates": [
          [
            73.7975078,
            15.7165333
          ],
          [
            73.7975217,
            15.7165172
          ],
          [
            73.7975217,
            15.7165144
          ],
          [
            73.7975222,
            15.7165228
          ],
          [
            73.7987933,
            15.7105367
          ],
          [
            73.8025478,
            15.7030944
          ],
          [
            73.7966733,
            15.69321
          ],
          [
            73.7906594,
            15.6917756
          ],
          [
            73.7861906,
            15.6938567
          ],
          [
            73.7791444,
            15.7003128
          ],
          [
            73.7724089,
            15.6983544
          ],
          [
            73.7695767,
            15.6969917
          ],
          [
            73.7693772,
            15.6969006
          ],
          [
            73.769375,
            15.6968933
          ],
          [
            73.7693744,
            15.6968917
          ],
          [
            73.7693733,
            15.6968883
          ],
          [
            73.7693717,
            15.6968867
          ],
          [
            73.76937,
            15.6968833
          ],
          [
            73.7693678,
            15.6968833
          ],
          [
            73.7693628,
            15.6968817
          ],
          [
            73.7693606,
            15.6968822
          ],
          [
            73.7693561,
            15.6968822
          ],
          [
            73.7692517,
            15.6968733
          ],
          [
            73.7691778,
            15.6968722
          ],
          [
            73.76932,
            15.6969117
          ],
          [
            73.7723517,
            15.6982928
          ],
          [
            73.7745744,
            15.6998183
          ],
          [
            73.78423,
            15.697055
          ],
          [
            73.7888161,
            15.6922411
          ],
          [
            73.7942433,
            15.6901917
          ],
          [
            73.7976739,
            15.6945456
          ],
          [
            73.8012306,
            15.6986828
          ],
          [
            73.80243,
            15.7038139
          ],
          [
            73.7983033,
            15.7132978
          ],
          [
            73.7976111,
            15.7164811
          ],
          [
            73.7975728,
            15.7164911
          ],
          [
            73.7975711,
            15.7164911
          ],
          [
            73.7975567,
            15.7164833
          ],
          [
            73.7975356,
            15.7164739
          ]
        ]
      },
      "properties": {
        "Vehicle_No": "GA 07 G 4600-PER(MINI RESCUE TENDER)",
        "Vehicle_Name": "AT 5032-4G",
        "Branch": "Fire Station Pernem",
        "created": "02-02-2026 05:30:22+05:30",
        "lastUpdated": "02-02-2026 08:02:17+05:30"
      }
    },
    {
      "type": "Feature",
      "geometry": {
        "type": "LineString",
        "coordinates": [
          [
            73.8171922,
            15.48698
          ]
        ]
      },
      "properties": {
        "Vehicle_No": "GA 07 G 7272-PNJ(WATER TENDER)",
        "Vehicle_Name": "AT-5032-4G",
        "Branch": "Fire Station Panaji",
        "created": "02-02-2026 05:27:55+05:30",
        "lastUpdated": "02-02-2026 05:27:55+05:30"
      }
    },
    {
      "type": "Feature",
      "geometry": {
        "type": "LineString",
        "coordinates": [
          [
            74.0210267,
            15.186285
          ],
          [
            74.0210011,
            15.1862272
          ],
          [
            74.0210122,
            15.1862278
          ]
        ]
      },
      "properties": {
        "Vehicle_No": "GA07G2384-CAN(WATER TENDER)",
        "Vehicle_Name": "AT 5032-4G",
        "Branch": "Fire Station Cuncolim",
        "created": "02-02-2026 05:29:09+05:30",
        "lastUpdated": "02-02-2026 10:26:21+05:30"
      }
    },
    {
      "type": "Feature",
      "geometry": {
        "type": "LineString",
        "coordinates": [
          [
            73.797795,
            15.7163817
          ]
        ]
      },
      "properties": {
        "Vehicle_No": "GA07G2507 - PER Mid Size (Water Tender)",
        "Vehicle_Name": "5035",
        "Branch": "Fire Station Pernem",
        "created": "02-02-2026 05:30:31+05:30",
        "lastUpdated": "02-02-2026 05:30:31+05:30"
      }
    },
    {
      "type": "Feature",
      "geometry": {
        "type": "LineString",
        "coordinates": [
          [
            74.0027833,
            15.4026267
          ],
          [
            74.0054767,
            15.4049033
          ],
          [
            74.0096517,
            15.4077133
          ],
          [
            74.009765,
            15.4077983
          ],
          [
            74.0097567,
            15.40781
          ],
          [
            74.0224283,
            15.4093383
          ],
          [
            74.0280033,
            15.4127617
          ],
          [
            74.0376133,
            15.4175183
          ],
          [
            74.0457033,
            15.42439
          ],
          [
            74.0547533,
            15.424695
          ],
          [
            74.0590817,
            15.432205
          ],
          [
            74.06329,
            15.440355
          ],
          [
            74.0666333,
            15.4485933
          ],
          [
            74.071265,
            15.45467
          ],
          [
            74.1430983,
            15.4973483
          ]
        ]
      },
      "properties": {
        "Vehicle_No": "GA07G2505 - VAP Mid Size (Water Tender)",
        "Vehicle_Name": "5035",
        "Branch": "Fire Station Valpoi",
        "created": "02-02-2026 05:29:55+05:30",
        "lastUpdated": "02-02-2026 10:41:51+05:30"
      }
    },
    {
      "type": "Feature",
      "geometry": {
        "type": "LineString",
        "coordinates": [
          [
            73.9462883,
            15.5890517
          ]
        ]
      },
      "properties": {
        "Vehicle_No": "GA07G2504 - BIC Mid Size (Water Tender)",
        "Vehicle_Name": "5035",
        "Branch": "Fire Station Bicholim",
        "created": "02-02-2026 05:30:53+05:30",
        "lastUpdated": "02-02-2026 05:30:53+05:30"
      }
    },
    {
      "type": "Feature",
      "geometry": {
        "type": "LineString",
        "coordinates": [
          [
            73.8087083,
            15.5899733
          ],
          [
            73.8088383,
            15.590275
          ],
          [
            73.80883,
            15.590265
          ],
          [
            73.8088467,
            15.5902483
          ],
          [
            73.8088133,
            15.59021
          ],
          [
            73.8088533,
            15.5899967
          ],
          [
            73.8088383,
            15.5899917
          ],
          [
            73.8086267,
            15.5899333
          ]
        ]
      },
      "properties": {
        "Vehicle_No": "GA07G2503- MAP Mid Size (Water Tender)",
        "Vehicle_Name": "5035",
        "Branch": "Fire Station Mapusa",
        "created": "02-02-2026 05:30:18+05:30",
        "lastUpdated": "02-02-2026 08:02:39+05:30"
      }
    },
    {
      "type": "Feature",
      "geometry": {
        "type": "LineString",
        "coordinates": [
          [
            73.81713,
            15.4873833
          ],
          [
            73.8168783,
            15.4860933
          ],
          [
            73.8172033,
            15.4861467
          ],
          [
            73.8173017,
            15.4863533
          ],
          [
            73.8167233,
            15.4872867
          ]
        ]
      },
      "properties": {
        "Vehicle_No": "GA07G2502 - FFHQ Mid Size (Water Tender)",
        "Vehicle_Name": "5035",
        "Branch": "Fire Force Headquarters",
        "created": "02-02-2026 05:29:58+05:30",
        "lastUpdated": "02-02-2026 10:11:03+05:30"
      }
    }
  ]
}