{
  "type": "FeatureCollection",
  "metadata": {
    "date": "20251201",
    "source": "Directorate of Fire Emergency Services, Govt. of Goa",
    "description": "Daily GPS tracks of fire trucks",
    "lastUpdated": "2025-12-01T07:46:00.164Z",
    "count": 52
  },
  "features": [
    {
      "type": "Feature",
      "geometry": {
        "type": "LineString",
        "coordinates": [
          [
            73.76534,
            15.6293867
          ],
          [
            73.7654217,
            15.6294467
          ],
          [
            73.7653967,
            15.6294333
          ],
          [
            73.765405,
            15.62944
          ]
        ]
      },
      "properties": {
        "Vehicle_No": "GA 07 G 0680-PIL(QUICK RESPONSE VEHICLE)",
        "Vehicle_Name": "4G",
        "Branch": "Fire Station Pilerne",
        "created": "01-12-2025 07:49:52",
        "lastUpdated": "01-12-2025 12:31:00"
      }
    },
    {
      "type": "Feature",
      "geometry": {
        "type": "LineString",
        "coordinates": [
          [
            74.00293,
            15.402753
          ],
          [
            74.002838,
            15.402695
          ]
        ]
      },
      "properties": {
        "Vehicle_No": "GA07G2506 - Mid Size (Water Tender)",
        "Vehicle_Name": "TS101",
        "Branch": "Fire Station Old Goa",
        "created": "01-12-2025 07:49:41",
        "lastUpdated": "01-12-2025 10:54:17"
      }
    },
    {
      "type": "Feature",
      "geometry": {
        "type": "LineString",
        "coordinates": [
          [
            73.829384,
            15.522938
          ],
          [
            73.829437,
            15.52295
          ],
          [
            73.829376,
            15.523148
          ]
        ]
      },
      "properties": {
        "Vehicle_No": "GA 07 G 5115-POR(MINI WATER TENDER)",
        "Vehicle_Name": "TS101",
        "Branch": "Fire Station Porvorim",
        "created": "01-12-2025 07:50:02",
        "lastUpdated": "01-12-2025 10:55:45"
      }
    },
    {
      "type": "Feature",
      "geometry": {
        "type": "LineString",
        "coordinates": [
          [
            73.970573,
            15.269415
          ]
        ]
      },
      "properties": {
        "Vehicle_No": "GA 07 G 0350-MRG(WATER TENDER)",
        "Vehicle_Name": "TS101",
        "Branch": "Fire Station Margao",
        "created": "01-12-2025 07:48:36",
        "lastUpdated": "01-12-2025 07:48:36"
      }
    },
    {
      "type": "Feature",
      "geometry": {
        "type": "LineString",
        "coordinates": [
          [
            73.808731,
            15.589848
          ],
          [
            73.808868,
            15.589857
          ],
          [
            73.808937,
            15.590057
          ],
          [
            73.808914,
            15.589828
          ]
        ]
      },
      "properties": {
        "Vehicle_No": "GA 07 G 2900-MAP(MINI RESCUE TENDER)",
        "Vehicle_Name": "TS101",
        "Branch": "Fire Station Mapusa",
        "created": "01-12-2025 07:48:26",
        "lastUpdated": "01-12-2025 11:16:25"
      }
    },
    {
      "type": "Feature",
      "geometry": {
        "type": "LineString",
        "coordinates": [
          [
            73.81736,
            15.48702
          ]
        ]
      },
      "properties": {
        "Vehicle_No": "GA 07 G 7600-FFHQ(WATER BOUSER)",
        "Vehicle_Name": "TS101",
        "Branch": "Fire Force Headquarters",
        "created": "15-11-2025 18:44:08",
        "lastUpdated": "15-11-2025 18:44:08"
      }
    },
    {
      "type": "Feature",
      "geometry": {
        "type": "LineString",
        "coordinates": [
          [
            73.817322,
            15.487362
          ],
          [
            73.840034,
            15.494062
          ],
          [
            74.046204,
            15.578342
          ],
          [
            74.049706,
            15.599823
          ],
          [
            74.04631,
            15.594652
          ],
          [
            73.961563,
            15.513822
          ],
          [
            73.9077,
            15.491882
          ]
        ]
      },
      "properties": {
        "Vehicle_No": "GA 07 G 2002-FFHQ(TURN TABLE LADDER)",
        "Vehicle_Name": "TS101",
        "Branch": "Fire Force Headquarters",
        "created": "01-12-2025 07:48:48",
        "lastUpdated": "01-12-2025 13:15:57"
      }
    },
    {
      "type": "Feature",
      "geometry": {
        "type": "LineString",
        "coordinates": [
          [
            73.816986,
            15.486903
          ],
          [
            73.817139,
            15.487133
          ],
          [
            73.817276,
            15.487025
          ],
          [
            73.817055,
            15.487177
          ]
        ]
      },
      "properties": {
        "Vehicle_No": "GA 07 G 7101-FFHQ(WATER TENDER)",
        "Vehicle_Name": "TS101",
        "Branch": "Fire Force Headquarters",
        "created": "01-12-2025 07:49:36",
        "lastUpdated": "01-12-2025 13:15:58"
      }
    },
    {
      "type": "Feature",
      "geometry": {
        "type": "LineString",
        "coordinates": [
          [
            73.817101,
            15.487068
          ],
          [
            73.816994,
            15.48716
          ],
          [
            73.817154,
            15.487078
          ],
          [
            73.817215,
            15.487018
          ],
          [
            73.817093,
            15.487155
          ],
          [
            73.817337,
            15.486943
          ]
        ]
      },
      "properties": {
        "Vehicle_No": "GA 07 G 7677-FFHQ(EMERGENCY RESCUE)",
        "Vehicle_Name": "TS101",
        "Branch": "Fire Force Headquarters",
        "created": "01-12-2025 07:46:52",
        "lastUpdated": "01-12-2025 12:11:58"
      }
    },
    {
      "type": "Feature",
      "geometry": {
        "type": "LineString",
        "coordinates": [
          [
            73.817268,
            15.487245
          ],
          [
            73.817192,
            15.48714
          ]
        ]
      },
      "properties": {
        "Vehicle_No": "GA 07 G 1121-PNJ(EMERGENCY RESCUE)",
        "Vehicle_Name": "TS101",
        "Branch": "Fire Station Panaji",
        "created": "01-12-2025 07:47:23",
        "lastUpdated": "01-12-2025 11:17:37"
      }
    },
    {
      "type": "Feature",
      "geometry": {
        "type": "LineString",
        "coordinates": [
          [
            73.817574,
            15.486433
          ],
          [
            73.803902,
            15.46642
          ],
          [
            73.803482,
            15.464085
          ],
          [
            73.80349,
            15.464053
          ],
          [
            73.807167,
            15.468147
          ],
          [
            73.818108,
            15.493515
          ],
          [
            73.817398,
            15.486663
          ]
        ]
      },
      "properties": {
        "Vehicle_No": "GA 07 G 1571-FFHQ(QUICK RESPONSE)",
        "Vehicle_Name": "TS101",
        "Branch": "Fire Force Headquarters",
        "created": "01-12-2025 07:49:10",
        "lastUpdated": "01-12-2025 12:57:24"
      }
    },
    {
      "type": "Feature",
      "geometry": {
        "type": "LineString",
        "coordinates": [
          [
            73.8088,
            15.590235
          ],
          [
            73.80867,
            15.589943
          ],
          [
            73.808609,
            15.589958
          ]
        ]
      },
      "properties": {
        "Vehicle_No": "GA 07 G 8101-MAP(WATER TENDER)",
        "Vehicle_Name": "TS101",
        "Branch": "Fire Station Mapusa",
        "created": "01-12-2025 07:49:50",
        "lastUpdated": "01-12-2025 11:17:47"
      }
    },
    {
      "type": "Feature",
      "geometry": {
        "type": "LineString",
        "coordinates": [
          [
            73.9701333,
            15.2693916
          ],
          [
            73.9703199,
            15.2695633
          ],
          [
            73.9701083,
            15.2694566
          ],
          [
            73.9701583,
            15.2695483
          ],
          [
            73.9674066,
            15.255145
          ],
          [
            73.97312,
            15.2436966
          ],
          [
            73.9707433,
            15.247965
          ],
          [
            73.9702316,
            15.2694633
          ],
          [
            73.9702716,
            15.2695266
          ],
          [
            73.9701733,
            15.2692816
          ]
        ]
      },
      "properties": {
        "Vehicle_No": "GA 07 G 2317-MRG(EMERGENCY RESCUE TENDER)",
        "Vehicle_Name": "5035",
        "Branch": "Fire Station Margao",
        "created": "01-12-2025 07:49:57",
        "lastUpdated": "01-12-2025 13:14:58"
      }
    },
    {
      "type": "Feature",
      "geometry": {
        "type": "LineString",
        "coordinates": [
          [
            73.8513183,
            15.3887983
          ]
        ]
      },
      "properties": {
        "Vehicle_No": "GA 07 G 1570-VAS(QUICK RESPONSE FIRE TENDER)",
        "Vehicle_Name": "5035",
        "Branch": "Fire Station Vasco",
        "created": "01-12-2025 07:50:03",
        "lastUpdated": "01-12-2025 07:50:03"
      }
    },
    {
      "type": "Feature",
      "geometry": {
        "type": "LineString",
        "coordinates": [
          [
            73.85197,
            15.3895899
          ]
        ]
      },
      "properties": {
        "Vehicle_No": "GA 07 G 4101-VAS(MS WATER TENDER)",
        "Vehicle_Name": "5035",
        "Branch": "Fire Station Vasco",
        "created": "01-12-2025 07:49:56",
        "lastUpdated": "01-12-2025 07:49:56"
      }
    },
    {
      "type": "Feature",
      "geometry": {
        "type": "LineString",
        "coordinates": [
          [
            73.85131,
            15.3889017
          ],
          [
            73.8512617,
            15.38881
          ],
          [
            73.8511883,
            15.3888717
          ]
        ]
      },
      "properties": {
        "Vehicle_No": "GA 07 G 0819-VAS(WATER/FOAM TENDER)",
        "Vehicle_Name": "4G",
        "Branch": "Fire Station Vasco",
        "created": "01-12-2025 07:49:45",
        "lastUpdated": "01-12-2025 11:18:20"
      }
    },
    {
      "type": "Feature",
      "geometry": {
        "type": "LineString",
        "coordinates": [
          [
            73.9701083,
            15.2694583
          ],
          [
            73.969385,
            15.2695
          ],
          [
            73.9697583,
            15.2694566
          ],
          [
            73.9701016,
            15.2694666
          ]
        ]
      },
      "properties": {
        "Vehicle_No": "GA 07 G 7100-MRG(WATER BOUSER)",
        "Vehicle_Name": "5035",
        "Branch": "Fire Station Margao",
        "created": "01-12-2025 07:49:15",
        "lastUpdated": "01-12-2025 13:01:00"
      }
    },
    {
      "type": "Feature",
      "geometry": {
        "type": "LineString",
        "coordinates": [
          [
            73.9704583,
            15.26943
          ],
          [
            73.8256516,
            15.5015333
          ],
          [
            73.8256516,
            15.5015416
          ],
          [
            73.817065,
            15.48688
          ],
          [
            73.8255783,
            15.5015366
          ]
        ]
      },
      "properties": {
        "Vehicle_No": "GA 07 G 1568-MRG(QUICK RESPONSE )",
        "Vehicle_Name": "5035",
        "Branch": "Fire Station Margao",
        "created": "01-12-2025 07:49:08",
        "lastUpdated": "01-12-2025 13:01:12"
      }
    },
    {
      "type": "Feature",
      "geometry": {
        "type": "LineString",
        "coordinates": [
          [
            73.9700933,
            15.2692766
          ]
        ]
      },
      "properties": {
        "Vehicle_No": "GA 07 G 6101-MRG(WATER TENDER)",
        "Vehicle_Name": "5035",
        "Branch": "Fire Station Margao",
        "created": "01-12-2025 07:49:57",
        "lastUpdated": "01-12-2025 07:49:57"
      }
    },
    {
      "type": "Feature",
      "geometry": {
        "type": "LineString",
        "coordinates": [
          [
            73.9702466,
            15.2692166
          ],
          [
            73.9700116,
            15.2693833
          ]
        ]
      },
      "properties": {
        "Vehicle_No": "GA 07 G 1001-MRG(AERIAL LADDER PLATFORM)",
        "Vehicle_Name": "5035",
        "Branch": "Fire Station Margao",
        "created": "01-12-2025 07:49:38",
        "lastUpdated": "01-12-2025 11:27:20"
      }
    },
    {
      "type": "Feature",
      "geometry": {
        "type": "LineString",
        "coordinates": [
          [
            74.0028372,
            15.4028856
          ],
          [
            74.0026983,
            15.4031506
          ],
          [
            74.0028811,
            15.4028522
          ]
        ]
      },
      "properties": {
        "Vehicle_No": "GA 07 G 0820-BIC(WATER TEDNER)",
        "Vehicle_Name": "5026",
        "Branch": "Fire Station Bicholim",
        "created": "01-12-2025 07:47:37",
        "lastUpdated": "01-12-2025 10:21:45"
      }
    },
    {
      "type": "Feature",
      "geometry": {
        "type": "LineString",
        "coordinates": [
          [
            73.91403,
            15.5003433
          ]
        ]
      },
      "properties": {
        "Vehicle_No": "GA 07 G 5101-OLG(MS WATER TENDER)",
        "Vehicle_Name": "5035",
        "Branch": "Fire Station Old Goa",
        "created": "01-12-2025 07:50:05",
        "lastUpdated": "01-12-2025 07:50:05"
      }
    },
    {
      "type": "Feature",
      "geometry": {
        "type": "LineString",
        "coordinates": [
          [
            73.9465083,
            15.5895449
          ],
          [
            73.9469733,
            15.5891783
          ],
          [
            73.9266683,
            15.5661016
          ],
          [
            73.869645,
            15.5154116
          ],
          [
            73.9407233,
            15.5827266
          ],
          [
            73.9466549,
            15.5894116
          ],
          [
            73.9468016,
            15.5895666
          ],
          [
            73.9461583,
            15.588585
          ],
          [
            73.9464116,
            15.5896033
          ]
        ]
      },
      "properties": {
        "Vehicle_No": "GA 07 G 3101-BIC(MS WATER TENDER)",
        "Vehicle_Name": "5035",
        "Branch": "Fire Station Bicholim",
        "created": "01-12-2025 07:50:01",
        "lastUpdated": "01-12-2025 13:15:53"
      }
    },
    {
      "type": "Feature",
      "geometry": {
        "type": "LineString",
        "coordinates": [
          [
            73.9467033,
            15.5894483
          ],
          [
            73.8705816,
            15.51356
          ],
          [
            73.8868166,
            15.5378933
          ],
          [
            73.8871416,
            15.5371183
          ],
          [
            73.8705233,
            15.5136033
          ],
          [
            73.8854566,
            15.5309716
          ]
        ]
      },
      "properties": {
        "Vehicle_No": "GA 07 G 1941-BIC(QUICK RESPONSE)",
        "Vehicle_Name": "5035",
        "Branch": "Fire Station Bicholim",
        "created": "01-12-2025 07:49:57",
        "lastUpdated": "01-12-2025 13:15:54"
      }
    },
    {
      "type": "Feature",
      "geometry": {
        "type": "LineString",
        "coordinates": [
          [
            73.851245,
            15.3888516
          ]
        ]
      },
      "properties": {
        "Vehicle_No": "GA 07 G 2319-VAS (EMERGENCY RESCUE TENDER)",
        "Vehicle_Name": "5035",
        "Branch": "Fire Station Vasco",
        "created": "01-12-2025 07:49:47",
        "lastUpdated": "01-12-2025 07:49:47"
      }
    },
    {
      "type": "Feature",
      "geometry": {
        "type": "LineString",
        "coordinates": [
          [
            74.1386716,
            15.5309733
          ],
          [
            74.138705,
            15.5310083
          ],
          [
            74.1386466,
            15.5309733
          ]
        ]
      },
      "properties": {
        "Vehicle_No": "GA 07 G 3737-VAP(WATER TENDER)",
        "Vehicle_Name": "5035",
        "Branch": "Fire Station Valpoi",
        "created": "01-12-2025 07:49:15",
        "lastUpdated": "01-12-2025 10:55:41"
      }
    },
    {
      "type": "Feature",
      "geometry": {
        "type": "LineString",
        "coordinates": [
          [
            74.0028483,
            15.402725
          ]
        ]
      },
      "properties": {
        "Vehicle_No": "GA 07 G 2318-PND(EMERGENCY RESCUE TENDER)",
        "Vehicle_Name": "5035",
        "Branch": "Fire Station Ponda",
        "created": "01-12-2025 07:49:35",
        "lastUpdated": "01-12-2025 07:49:35"
      }
    },
    {
      "type": "Feature",
      "geometry": {
        "type": "LineString",
        "coordinates": [
          [
            73.91023,
            15.5018783
          ]
        ]
      },
      "properties": {
        "Vehicle_No": "GA 07 G 2004-PND(QUICK RESPONSE)",
        "Vehicle_Name": "5035",
        "Branch": "Fire Station Ponda",
        "created": "01-12-2025 07:49:34",
        "lastUpdated": "01-12-2025 07:49:34"
      }
    },
    {
      "type": "Feature",
      "geometry": {
        "type": "LineString",
        "coordinates": [
          [
            74.0035316,
            15.4025166
          ]
        ]
      },
      "properties": {
        "Vehicle_No": "GA 07 G 9101-PND(WATER TENDER)",
        "Vehicle_Name": "5035",
        "Branch": "Fire Station Ponda",
        "created": "01-12-2025 07:50:01",
        "lastUpdated": "01-12-2025 07:50:01"
      }
    },
    {
      "type": "Feature",
      "geometry": {
        "type": "LineString",
        "coordinates": [
          [
            73.910425,
            15.5014283
          ]
        ]
      },
      "properties": {
        "Vehicle_No": "GA 07 G 9797-PND(WATER BOUSER)",
        "Vehicle_Name": "5035",
        "Branch": "Fire Station Ponda",
        "created": "01-12-2025 07:49:45",
        "lastUpdated": "01-12-2025 07:49:45"
      }
    },
    {
      "type": "Feature",
      "geometry": {
        "type": "LineString",
        "coordinates": [
          [
            74.0440433,
            15.023675
          ],
          [
            74.0470466,
            15.06274
          ],
          [
            74.0481283,
            15.06872
          ],
          [
            74.0440516,
            15.0236783
          ]
        ]
      },
      "properties": {
        "Vehicle_No": "GA 07 G 6363-CAN(WATER TENDER)",
        "Vehicle_Name": "5035",
        "Branch": "Fire Station Canacona",
        "created": "30-11-2025 12:58:45",
        "lastUpdated": "01-12-2025 11:18:28"
      }
    },
    {
      "type": "Feature",
      "geometry": {
        "type": "LineString",
        "coordinates": [
          [
            74.1065266,
            14.9927449
          ],
          [
            74.10712,
            14.9943666
          ],
          [
            74.10708,
            14.9944216
          ]
        ]
      },
      "properties": {
        "Vehicle_No": "GA 07 G 1567-CAN(QUICK RESPONSE FT)",
        "Vehicle_Name": "5035",
        "Branch": "Fire Station Canacona",
        "created": "01-12-2025 07:50:02",
        "lastUpdated": "01-12-2025 11:28:32"
      }
    },
    {
      "type": "Feature",
      "geometry": {
        "type": "LineString",
        "coordinates": [
          [
            74.10656,
            14.9927449
          ]
        ]
      },
      "properties": {
        "Vehicle_No": "GA 07 G 1569-VRN(QUICK RESPONSE)",
        "Vehicle_Name": "5035",
        "Branch": "Fire Station Verna",
        "created": "01-12-2025 07:48:59",
        "lastUpdated": "01-12-2025 07:48:59"
      }
    },
    {
      "type": "Feature",
      "geometry": {
        "type": "LineString",
        "coordinates": [
          [
            73.93558,
            15.369785
          ],
          [
            73.9357016,
            15.3695966
          ],
          [
            73.9394933,
            15.3687099
          ],
          [
            73.935515,
            15.3696933
          ]
        ]
      },
      "properties": {
        "Vehicle_No": "GA 07 G 9909-VRN(ADVANCE MULTI-PURPOSE)",
        "Vehicle_Name": "5035",
        "Branch": "Fire Station Verna",
        "created": "01-12-2025 07:50:01",
        "lastUpdated": "01-12-2025 13:01:22"
      }
    },
    {
      "type": "Feature",
      "geometry": {
        "type": "LineString",
        "coordinates": [
          [
            73.9135816,
            15.504405
          ]
        ]
      },
      "properties": {
        "Vehicle_No": "GA 07 G 1942-VAP(QUICK RESPONSE)",
        "Vehicle_Name": "5035",
        "Branch": "Fire Station Valpoi",
        "created": "01-12-2025 07:49:35",
        "lastUpdated": "01-12-2025 07:49:35"
      }
    },
    {
      "type": "Feature",
      "geometry": {
        "type": "LineString",
        "coordinates": [
          [
            74.0493333,
            15.257505
          ],
          [
            73.9705483,
            15.269425
          ]
        ]
      },
      "properties": {
        "Vehicle_No": "GA 07 G 2003-CUR(QUICK RESPONSE)",
        "Vehicle_Name": "5035",
        "Branch": "Fire Station Curchorem",
        "created": "01-12-2025 07:50:03",
        "lastUpdated": "01-12-2025 09:29:58"
      }
    },
    {
      "type": "Feature",
      "geometry": {
        "type": "LineString",
        "coordinates": [
          [
            74.103695,
            15.26049
          ]
        ]
      },
      "properties": {
        "Vehicle_No": "GA 07 G 7447-CUR(EMERGENCY RESCUE)",
        "Vehicle_Name": "5035",
        "Branch": "Fire Station Curchorem",
        "created": "01-12-2025 07:49:55",
        "lastUpdated": "01-12-2025 07:49:55"
      }
    },
    {
      "type": "Feature",
      "geometry": {
        "type": "LineString",
        "coordinates": [
          [
            74.1036533,
            15.26041
          ]
        ]
      },
      "properties": {
        "Vehicle_No": "GA 07 G 7557-CUR(WATER TENDER)",
        "Vehicle_Name": "5035",
        "Branch": "Fire Station Curchorem",
        "created": "01-12-2025 07:49:36",
        "lastUpdated": "01-12-2025 07:49:36"
      }
    },
    {
      "type": "Feature",
      "geometry": {
        "type": "LineString",
        "coordinates": [
          [
            74.1038416,
            15.2603416
          ]
        ]
      },
      "properties": {
        "Vehicle_No": "GA 07 G 7667-CUR(WATER BOUSER)",
        "Vehicle_Name": "5035",
        "Branch": "Fire Station Curchorem",
        "created": "01-12-2025 07:49:53",
        "lastUpdated": "01-12-2025 07:49:53"
      }
    },
    {
      "type": "Feature",
      "geometry": {
        "type": "LineString",
        "coordinates": [
          [
            73.972355,
            15.4629233
          ],
          [
            73.9722567,
            15.4632817
          ],
          [
            73.9725183,
            15.4628933
          ],
          [
            73.9723717,
            15.4631567
          ],
          [
            73.9726967,
            15.463165
          ],
          [
            73.9727783,
            15.46316
          ],
          [
            73.9725667,
            15.4630617
          ],
          [
            73.9728517,
            15.463015
          ],
          [
            73.972705,
            15.4630167
          ]
        ]
      },
      "properties": {
        "Vehicle_No": "GA 07 G 4989-KUN(WATER TENDER)",
        "Vehicle_Name": "G-100",
        "Branch": "Fire Station Kundaim",
        "created": "01-12-2025 07:49:43",
        "lastUpdated": "01-12-2025 13:15:37"
      }
    },
    {
      "type": "Feature",
      "geometry": {
        "type": "LineString",
        "coordinates": [
          [
            73.7938739,
            15.5329967
          ],
          [
            73.7940822,
            15.5329161
          ]
        ]
      },
      "properties": {
        "Vehicle_No": "GA 07 G 2242-PIL(WATER TENDER)",
        "Vehicle_Name": "5026",
        "Branch": "Fire Station Pilerne",
        "created": "01-12-2025 07:49:08",
        "lastUpdated": "01-12-2025 11:18:48"
      }
    },
    {
      "type": "Feature",
      "geometry": {
        "type": "LineString",
        "coordinates": [
          [
            73.808765,
            15.5898083
          ],
          [
            73.8250567,
            15.5307133
          ],
          [
            73.82566,
            15.5058817
          ],
          [
            73.8091317,
            15.5891117
          ],
          [
            73.8087883,
            15.58978
          ]
        ]
      },
      "properties": {
        "Vehicle_No": "GA 07 G 0681-MAP(QUICK RESPONSE)",
        "Vehicle_Name": "AT 5036A-4G",
        "Branch": "Fire Station Mapusa",
        "created": "01-12-2025 07:50:00",
        "lastUpdated": "01-12-2025 13:15:55"
      }
    },
    {
      "type": "Feature",
      "geometry": {
        "type": "LineString",
        "coordinates": [
          [
            73.7974239,
            15.7164939
          ]
        ]
      },
      "properties": {
        "Vehicle_No": "GA 07 G 0307-PER(QUICK RESPONSE)",
        "Vehicle_Name": "AT5032-4G",
        "Branch": "Fire Station Pernem",
        "created": "23-10-2025 15:19:09",
        "lastUpdated": "23-10-2025 15:19:09"
      }
    },
    {
      "type": "Feature",
      "geometry": {
        "type": "LineString",
        "coordinates": [
          [
            73.7975117,
            15.7164556
          ],
          [
            73.797685,
            15.716465
          ],
          [
            73.7975806,
            15.7163833
          ],
          [
            73.7975161,
            15.716505
          ],
          [
            73.797535,
            15.7164278
          ],
          [
            73.7990461,
            15.6966044
          ],
          [
            73.7975289,
            15.7164722
          ]
        ]
      },
      "properties": {
        "Vehicle_No": "GA 07 G 2101-PER(MS WATER TENDER)",
        "Vehicle_Name": "AT5032-4G",
        "Branch": "Fire Station Pernem",
        "created": "01-12-2025 07:47:46",
        "lastUpdated": "01-12-2025 12:28:43"
      }
    },
    {
      "type": "Feature",
      "geometry": {
        "type": "LineString",
        "coordinates": [
          [
            73.7975189,
            15.7165322
          ],
          [
            73.7974939,
            15.7165167
          ],
          [
            73.7990194,
            15.708975
          ],
          [
            73.7975483,
            15.7165011
          ],
          [
            73.7976017,
            15.71652
          ],
          [
            73.7975167,
            15.7165144
          ],
          [
            73.7975461,
            15.7165211
          ],
          [
            73.7975339,
            15.7164356
          ]
        ]
      },
      "properties": {
        "Vehicle_No": "GA 07 G 4600-PER(MINI RESCUE TENDER)",
        "Vehicle_Name": "AT 5032-4G",
        "Branch": "Fire Station Pernem",
        "created": "01-12-2025 07:47:31",
        "lastUpdated": "01-12-2025 12:30:12"
      }
    },
    {
      "type": "Feature",
      "geometry": {
        "type": "LineString",
        "coordinates": [
          [
            73.8170911,
            15.4871383
          ],
          [
            73.8162167,
            15.4862894
          ]
        ]
      },
      "properties": {
        "Vehicle_No": "GA 07 G 7272-PNJ(WATER TENDER)",
        "Vehicle_Name": "AT-5032-4G",
        "Branch": "Fire Station Panaji",
        "created": "01-12-2025 07:48:26",
        "lastUpdated": "01-12-2025 11:16:03"
      }
    },
    {
      "type": "Feature",
      "geometry": {
        "type": "LineString",
        "coordinates": [
          [
            74.0209717,
            15.1862144
          ],
          [
            74.0210417,
            15.1863128
          ]
        ]
      },
      "properties": {
        "Vehicle_No": "GA07G2384- Cuncolim",
        "Vehicle_Name": "AT 5032-4G",
        "Branch": "Fire Station Cuncolim",
        "created": "01-12-2025 07:48:13",
        "lastUpdated": "01-12-2025 10:22:02"
      }
    },
    {
      "type": "Feature",
      "geometry": {
        "type": "LineString",
        "coordinates": [
          [
            73.8170733,
            15.4866083
          ]
        ]
      },
      "properties": {
        "Vehicle_No": "GA07G2507",
        "Vehicle_Name": "5035",
        "Branch": "Fire Force Headquarters",
        "created": "01-12-2025 07:49:41",
        "lastUpdated": "01-12-2025 07:49:41"
      }
    },
    {
      "type": "Feature",
      "geometry": {
        "type": "LineString",
        "coordinates": [
          [
            74.1064933,
            14.9928683
          ]
        ]
      },
      "properties": {
        "Vehicle_No": "GA07G2505 - Mid Size (Water Tender)",
        "Vehicle_Name": "5035",
        "Branch": "Fire Station Valpoi",
        "created": "01-12-2025 07:49:18",
        "lastUpdated": "01-12-2025 07:49:18"
      }
    },
    {
      "type": "Feature",
      "geometry": {
        "type": "LineString",
        "coordinates": [
          [
            73.9464117,
            15.5891033
          ]
        ]
      },
      "properties": {
        "Vehicle_No": "GA07G2504 - Mid Size (Water Tender)",
        "Vehicle_Name": "5035",
        "Branch": "Fire Station Bicholim",
        "created": "01-12-2025 07:49:55",
        "lastUpdated": "01-12-2025 07:49:55"
      }
    },
    {
      "type": "Feature",
      "geometry": {
        "type": "LineString",
        "coordinates": [
          [
            73.808765,
            15.589915
          ]
        ]
      },
      "properties": {
        "Vehicle_No": "GA07G2503-Mid Size (Water Tender)",
        "Vehicle_Name": "5035",
        "Branch": "Fire Station Mapusa",
        "created": "01-12-2025 07:49:09",
        "lastUpdated": "01-12-2025 07:49:09"
      }
    },
    {
      "type": "Feature",
      "geometry": {
        "type": "LineString",
        "coordinates": [
          [
            73.8169917,
            15.4869167
          ],
          [
            73.818025,
            15.5485767
          ],
          [
            73.8044767,
            15.5740417
          ],
          [
            73.8224283,
            15.5389167
          ],
          [
            73.82574,
            15.5289483
          ],
          [
            73.8375167,
            15.4995817
          ],
          [
            73.8172033,
            15.4873133
          ]
        ]
      },
      "properties": {
        "Vehicle_No": "GA07G2502 - Mid Size (Water Tender)",
        "Vehicle_Name": "5035",
        "Branch": "Fire Force Headquarters",
        "created": "01-12-2025 07:49:37",
        "lastUpdated": "01-12-2025 12:13:37"
      }
    }
  ]
}