{
  "type": "FeatureCollection",
  "metadata": {
    "date": "20251221",
    "source": "Directorate of Fire Emergency Services, Govt. of Goa",
    "description": "Daily GPS tracks of fire trucks",
    "lastUpdated": "2025-12-21T01:44:27.716Z",
    "count": 52
  },
  "features": [
    {
      "type": "Feature",
      "geometry": {
        "type": "LineString",
        "coordinates": [
          [
            73.8170983,
            15.4865217
          ]
        ]
      },
      "properties": {
        "Vehicle_No": "GA 07 G 0680-PIL(QUICK RESPONSE VEHICLE)",
        "Vehicle_Name": "4G",
        "Branch": "Fire Station Pilerne",
        "created": "21-12-2025 05:30:22",
        "lastUpdated": "21-12-2025 05:30:22"
      }
    },
    {
      "type": "Feature",
      "geometry": {
        "type": "LineString",
        "coordinates": [
          [
            73.914154,
            15.500305
          ],
          [
            73.914101,
            15.500298
          ]
        ]
      },
      "properties": {
        "Vehicle_No": "GA07G2506 - Mid Size (Water Tender)",
        "Vehicle_Name": "TS101",
        "Branch": "Fire Station Old Goa",
        "created": "21-12-2025 05:29:58",
        "lastUpdated": "21-12-2025 05:31:58"
      }
    },
    {
      "type": "Feature",
      "geometry": {
        "type": "LineString",
        "coordinates": [
          [
            73.829391,
            15.522995
          ],
          [
            73.829414,
            15.523017
          ]
        ]
      },
      "properties": {
        "Vehicle_No": "GA 07 G 5115-POR(MINI WATER TENDER)",
        "Vehicle_Name": "TS101",
        "Branch": "Fire Station Porvorim",
        "created": "21-12-2025 05:29:25",
        "lastUpdated": "21-12-2025 05:31:25"
      }
    },
    {
      "type": "Feature",
      "geometry": {
        "type": "LineString",
        "coordinates": [
          [
            73.970589,
            15.269425
          ],
          [
            73.970558,
            15.269445
          ]
        ]
      },
      "properties": {
        "Vehicle_No": "GA 07 G 0350-MRG(WATER TENDER)",
        "Vehicle_Name": "TS101",
        "Branch": "Fire Station Margao",
        "created": "21-12-2025 05:28:52",
        "lastUpdated": "21-12-2025 05:30:49"
      }
    },
    {
      "type": "Feature",
      "geometry": {
        "type": "LineString",
        "coordinates": [
          [
            73.808914,
            15.589935
          ],
          [
            73.808846,
            15.590008
          ]
        ]
      },
      "properties": {
        "Vehicle_No": "GA 07 G 2900-MAP(MINI RESCUE TENDER)",
        "Vehicle_Name": "TS101",
        "Branch": "Fire Station Mapusa",
        "created": "21-12-2025 05:28:46",
        "lastUpdated": "21-12-2025 05:30:46"
      }
    },
    {
      "type": "Feature",
      "geometry": {
        "type": "LineString",
        "coordinates": [
          [
            73.817055,
            15.487123
          ],
          [
            73.81707,
            15.487112
          ],
          [
            73.8172,
            15.486985
          ],
          [
            73.817139,
            15.486992
          ],
          [
            73.816856,
            15.48723
          ],
          [
            73.816986,
            15.48706
          ],
          [
            73.81691,
            15.487077
          ],
          [
            73.817017,
            15.48702
          ],
          [
            73.817146,
            15.48633
          ],
          [
            73.817345,
            15.486342
          ],
          [
            73.817307,
            15.486322
          ]
        ]
      },
      "properties": {
        "Vehicle_No": "GA 07 G 7600-FFHQ(WATER BOUSER)",
        "Vehicle_Name": "TS101",
        "Branch": "Fire Force Headquarters",
        "created": "21-12-2025 05:29:41",
        "lastUpdated": "21-12-2025 07:14:24"
      }
    },
    {
      "type": "Feature",
      "geometry": {
        "type": "LineString",
        "coordinates": [
          [
            73.817261,
            15.48737
          ],
          [
            73.817291,
            15.487345
          ]
        ]
      },
      "properties": {
        "Vehicle_No": "GA 07 G 2002-FFHQ(TURN TABLE LADDER)",
        "Vehicle_Name": "TS101",
        "Branch": "Fire Force Headquarters",
        "created": "21-12-2025 05:28:27",
        "lastUpdated": "21-12-2025 05:30:28"
      }
    },
    {
      "type": "Feature",
      "geometry": {
        "type": "LineString",
        "coordinates": [
          [
            73.817108,
            15.486902
          ],
          [
            73.817177,
            15.486807
          ],
          [
            73.817055,
            15.486373
          ],
          [
            73.817322,
            15.486352
          ],
          [
            73.81736,
            15.486353
          ],
          [
            73.817345,
            15.486365
          ],
          [
            73.817337,
            15.48635
          ],
          [
            73.81707,
            15.48649
          ],
          [
            73.816994,
            15.486903
          ],
          [
            73.816948,
            15.486862
          ]
        ]
      },
      "properties": {
        "Vehicle_No": "GA 07 G 7101-FFHQ(WATER TENDER)",
        "Vehicle_Name": "TS101",
        "Branch": "Fire Force Headquarters",
        "created": "21-12-2025 05:27:34",
        "lastUpdated": "21-12-2025 07:09:53"
      }
    },
    {
      "type": "Feature",
      "geometry": {
        "type": "LineString",
        "coordinates": [
          [
            73.817284,
            15.487317
          ],
          [
            73.817368,
            15.487348
          ]
        ]
      },
      "properties": {
        "Vehicle_No": "GA 07 G 7677-FFHQ(EMERGENCY RESCUE)",
        "Vehicle_Name": "TS101",
        "Branch": "Fire Force Headquarters",
        "created": "21-12-2025 05:29:18",
        "lastUpdated": "21-12-2025 05:31:16"
      }
    },
    {
      "type": "Feature",
      "geometry": {
        "type": "LineString",
        "coordinates": [
          [
            73.817169,
            15.487135
          ],
          [
            73.817329,
            15.487282
          ]
        ]
      },
      "properties": {
        "Vehicle_No": "GA 07 G 1121-PNJ(EMERGENCY RESCUE)",
        "Vehicle_Name": "TS101",
        "Branch": "Fire Station Panaji",
        "created": "21-12-2025 05:28:42",
        "lastUpdated": "21-12-2025 05:30:42"
      }
    },
    {
      "type": "Feature",
      "geometry": {
        "type": "LineString",
        "coordinates": [
          [
            73.81752,
            15.486718
          ],
          [
            73.817551,
            15.486538
          ]
        ]
      },
      "properties": {
        "Vehicle_No": "GA 07 G 1571-FFHQ(QUICK RESPONSE)",
        "Vehicle_Name": "TS101",
        "Branch": "Fire Force Headquarters",
        "created": "21-12-2025 05:29:45",
        "lastUpdated": "21-12-2025 05:33:51"
      }
    },
    {
      "type": "Feature",
      "geometry": {
        "type": "LineString",
        "coordinates": [
          [
            73.808647,
            15.589892
          ]
        ]
      },
      "properties": {
        "Vehicle_No": "GA 07 G 8101-MAP(WATER TENDER)",
        "Vehicle_Name": "TS101",
        "Branch": "Fire Station Mapusa",
        "created": "21-12-2025 05:30:15",
        "lastUpdated": "21-12-2025 05:30:15"
      }
    },
    {
      "type": "Feature",
      "geometry": {
        "type": "LineString",
        "coordinates": [
          [
            73.970035,
            15.2692816
          ],
          [
            73.9702066,
            15.2693933
          ],
          [
            73.9700283,
            15.2694266
          ],
          [
            73.97002,
            15.269425
          ],
          [
            73.9700283,
            15.2694133
          ],
          [
            73.9700766,
            15.2693833
          ],
          [
            73.9701666,
            15.2692466
          ],
          [
            73.97015,
            15.2693016
          ],
          [
            73.970035,
            15.2693983
          ],
          [
            73.9700116,
            15.269425
          ],
          [
            73.9700933,
            15.26937
          ],
          [
            73.9702233,
            15.2692399
          ],
          [
            73.970085,
            15.26937
          ],
          [
            73.9702883,
            15.2694033
          ],
          [
            73.9701333,
            15.2695083
          ],
          [
            73.96997,
            15.2692683
          ],
          [
            73.9701333,
            15.2693766
          ],
          [
            73.970085,
            15.2693516
          ],
          [
            73.97015,
            15.2693283
          ],
          [
            73.9701166,
            15.2691683
          ],
          [
            73.9700933,
            15.26936
          ],
          [
            73.9700683,
            15.2693299
          ],
          [
            73.9701016,
            15.2693916
          ],
          [
            73.97006,
            15.2693516
          ],
          [
            73.9700933,
            15.26936
          ],
          [
            73.97028,
            15.2696366
          ],
          [
            73.970035,
            15.2694199
          ],
          [
            73.9699783,
            15.2694166
          ],
          [
            73.9700516,
            15.2692866
          ],
          [
            73.970035,
            15.2693783
          ],
          [
            73.970035,
            15.2693666
          ],
          [
            73.9700766,
            15.2693666
          ],
          [
            73.9701166,
            15.2693416
          ],
          [
            73.9701333,
            15.2693983
          ],
          [
            73.969995,
            15.2694166
          ],
          [
            73.9702316,
            15.2693583
          ],
          [
            73.9700516,
            15.269505
          ],
          [
            73.9700283,
            15.2694016
          ],
          [
            73.9700933,
            15.269305
          ],
          [
            73.9700683,
            15.2694066
          ],
          [
            73.97002,
            15.2694016
          ],
          [
            73.9700683,
            15.2693616
          ],
          [
            73.9699466,
            15.2694116
          ],
          [
            73.9700933,
            15.269385
          ],
          [
            73.9700033,
            15.269355
          ],
          [
            73.9700433,
            15.2693066
          ],
          [
            73.9702316,
            15.2694716
          ],
          [
            73.9701166,
            15.269425
          ],
          [
            73.9701166,
            15.26936
          ],
          [
            73.9701816,
            15.2693683
          ],
          [
            73.9700433,
            15.2693316
          ],
          [
            73.9700683,
            15.2694799
          ],
          [
            73.9700516,
            15.2692883
          ],
          [
            73.97015,
            15.2693783
          ],
          [
            73.970085,
            15.2694333
          ],
          [
            73.9701083,
            15.2693683
          ],
          [
            73.9702066,
            15.2693683
          ],
          [
            73.9701666,
            15.2694233
          ],
          [
            73.97019,
            15.2693216
          ],
          [
            73.9701733,
            15.2693833
          ],
          [
            73.9700283,
            15.2694433
          ],
          [
            73.9701983,
            15.2693366
          ],
          [
            73.9701583,
            15.2693933
          ],
          [
            73.9701666,
            15.269405
          ],
          [
            73.97006,
            15.2694533
          ],
          [
            73.9699216,
            15.2692
          ],
          [
            73.9701583,
            15.2693583
          ],
          [
            73.9702066,
            15.2694383
          ],
          [
            73.970255,
            15.2693433
          ],
          [
            73.9700516,
            15.2693966
          ],
          [
            73.97024,
            15.2689583
          ],
          [
            73.97002,
            15.2693933
          ],
          [
            73.970125,
            15.2694683
          ],
          [
            73.9701166,
            15.2694216
          ],
          [
            73.9700766,
            15.269445
          ],
          [
            73.9700766,
            15.2694533
          ],
          [
            73.9701666,
            15.2694766
          ],
          [
            73.9701416,
            15.2694933
          ],
          [
            73.970085,
            15.2694633
          ],
          [
            73.9701666,
            15.2693866
          ],
          [
            73.9699783,
            15.2693833
          ],
          [
            73.9700766,
            15.2694683
          ],
          [
            73.9701733,
            15.2693983
          ],
          [
            73.9701666,
            15.269405
          ],
          [
            73.9700933,
            15.26946
          ]
        ]
      },
      "properties": {
        "Vehicle_No": "GA 07 G 2317-MRG(EMERGENCY RESCUE TENDER)",
        "Vehicle_Name": "5035",
        "Branch": "Fire Station Margao",
        "created": "21-12-2025 05:30:23",
        "lastUpdated": "21-12-2025 07:14:24"
      }
    },
    {
      "type": "Feature",
      "geometry": {
        "type": "LineString",
        "coordinates": [
          [
            73.8513666,
            15.3887416
          ],
          [
            73.8513266,
            15.3887783
          ],
          [
            73.85131,
            15.3888083
          ]
        ]
      },
      "properties": {
        "Vehicle_No": "GA 07 G 1570-VAS(QUICK RESPONSE FIRE TENDER)",
        "Vehicle_Name": "5035",
        "Branch": "Fire Station Vasco",
        "created": "21-12-2025 05:29:48",
        "lastUpdated": "21-12-2025 06:24:36"
      }
    },
    {
      "type": "Feature",
      "geometry": {
        "type": "LineString",
        "coordinates": [
          [
            73.8512616,
            15.388845
          ]
        ]
      },
      "properties": {
        "Vehicle_No": "GA 07 G 4101-VAS(MS WATER TENDER)",
        "Vehicle_Name": "5035",
        "Branch": "Fire Station Vasco",
        "created": "21-12-2025 05:30:21",
        "lastUpdated": "21-12-2025 05:30:21"
      }
    },
    {
      "type": "Feature",
      "geometry": {
        "type": "LineString",
        "coordinates": [
          [
            73.8512783,
            15.3888733
          ]
        ]
      },
      "properties": {
        "Vehicle_No": "GA 07 G 0819-VAS(WATER/FOAM TENDER)",
        "Vehicle_Name": "4G",
        "Branch": "Fire Station Vasco",
        "created": "21-12-2025 05:30:02",
        "lastUpdated": "21-12-2025 05:30:02"
      }
    },
    {
      "type": "Feature",
      "geometry": {
        "type": "LineString",
        "coordinates": [
          [
            73.9701583,
            15.2694983
          ]
        ]
      },
      "properties": {
        "Vehicle_No": "GA 07 G 7100-MRG(WATER BOUSER)",
        "Vehicle_Name": "5035",
        "Branch": "Fire Station Margao",
        "created": "21-12-2025 05:30:26",
        "lastUpdated": "21-12-2025 05:30:26"
      }
    },
    {
      "type": "Feature",
      "geometry": {
        "type": "LineString",
        "coordinates": [
          [
            73.9706049,
            15.26938
          ]
        ]
      },
      "properties": {
        "Vehicle_No": "GA 07 G 1568-MRG(QUICK RESPONSE )",
        "Vehicle_Name": "5035",
        "Branch": "Fire Station Margao",
        "created": "21-12-2025 05:29:47",
        "lastUpdated": "21-12-2025 05:29:47"
      }
    },
    {
      "type": "Feature",
      "geometry": {
        "type": "LineString",
        "coordinates": [
          [
            73.9702633,
            15.2693683
          ]
        ]
      },
      "properties": {
        "Vehicle_No": "GA 07 G 6101-MRG(WATER TENDER)",
        "Vehicle_Name": "5035",
        "Branch": "Fire Station Margao",
        "created": "21-12-2025 05:29:36",
        "lastUpdated": "21-12-2025 05:29:36"
      }
    },
    {
      "type": "Feature",
      "geometry": {
        "type": "LineString",
        "coordinates": [
          [
            73.9701083,
            15.269395
          ]
        ]
      },
      "properties": {
        "Vehicle_No": "GA 07 G 1001-MRG(AERIAL LADDER PLATFORM)",
        "Vehicle_Name": "5035",
        "Branch": "Fire Station Margao",
        "created": "21-12-2025 05:30:21",
        "lastUpdated": "21-12-2025 05:30:21"
      }
    },
    {
      "type": "Feature",
      "geometry": {
        "type": "LineString",
        "coordinates": [
          [
            74.0028,
            15.4027639
          ]
        ]
      },
      "properties": {
        "Vehicle_No": "GA 07 G 0820-BIC(WATER TEDNER)",
        "Vehicle_Name": "5026",
        "Branch": "Fire Station Bicholim",
        "created": "21-12-2025 05:27:41",
        "lastUpdated": "21-12-2025 05:27:41"
      }
    },
    {
      "type": "Feature",
      "geometry": {
        "type": "LineString",
        "coordinates": [
          [
            73.9140383,
            15.500285
          ]
        ]
      },
      "properties": {
        "Vehicle_No": "GA 07 G 5101-OLG(MS WATER TENDER)",
        "Vehicle_Name": "5035",
        "Branch": "Fire Station Old Goa",
        "created": "21-12-2025 05:30:21",
        "lastUpdated": "21-12-2025 05:30:21"
      }
    },
    {
      "type": "Feature",
      "geometry": {
        "type": "LineString",
        "coordinates": [
          [
            73.94642,
            15.589305
          ],
          [
            73.9463133,
            15.5891333
          ],
          [
            73.9462733,
            15.5890766
          ],
          [
            73.9462483,
            15.5890149
          ],
          [
            73.9464766,
            15.5888516
          ],
          [
            73.94668,
            15.5887816
          ],
          [
            73.9466966,
            15.58877
          ],
          [
            73.9467116,
            15.5887916
          ],
          [
            73.9467766,
            15.5888383
          ],
          [
            73.9467449,
            15.5888766
          ],
          [
            73.9466233,
            15.58876
          ],
          [
            73.946485,
            15.588425
          ],
          [
            73.946435,
            15.5886816
          ],
          [
            73.94633,
            15.5888383
          ],
          [
            73.9463699,
            15.5888583
          ],
          [
            73.9463616,
            15.5888799
          ],
          [
            73.9465816,
            15.5890733
          ],
          [
            73.9465733,
            15.5891316
          ],
          [
            73.946525,
            15.5893983
          ],
          [
            73.9465499,
            15.5892816
          ],
          [
            73.946395,
            15.5891983
          ],
          [
            73.9462966,
            15.5889033
          ],
          [
            73.9463133,
            15.5888716
          ],
          [
            73.9463616,
            15.589005
          ],
          [
            73.9463216,
            15.5889133
          ],
          [
            73.9465083,
            15.588985
          ],
          [
            73.9465083,
            15.58896
          ],
          [
            73.9462816,
            15.5888799
          ],
          [
            73.946305,
            15.5887566
          ],
          [
            73.94642,
            15.5887883
          ],
          [
            73.9464683,
            15.5888
          ],
          [
            73.9467033,
            15.5890016
          ],
          [
            73.9467033,
            15.5890183
          ],
          [
            73.9465733,
            15.5890483
          ],
          [
            73.9463866,
            15.58894
          ],
          [
            73.946305,
            15.5888616
          ],
          [
            73.9463699,
            15.588895
          ]
        ]
      },
      "properties": {
        "Vehicle_No": "GA 07 G 3101-BIC(MS WATER TENDER)",
        "Vehicle_Name": "5035",
        "Branch": "Fire Station Bicholim",
        "created": "21-12-2025 05:30:25",
        "lastUpdated": "21-12-2025 06:58:24"
      }
    },
    {
      "type": "Feature",
      "geometry": {
        "type": "LineString",
        "coordinates": [
          [
            73.9665933,
            15.5824466
          ]
        ]
      },
      "properties": {
        "Vehicle_No": "GA 07 G 1941-BIC(QUICK RESPONSE)",
        "Vehicle_Name": "5035",
        "Branch": "Fire Station Bicholim",
        "created": "21-12-2025 05:29:43",
        "lastUpdated": "21-12-2025 05:29:43"
      }
    },
    {
      "type": "Feature",
      "geometry": {
        "type": "LineString",
        "coordinates": [
          [
            73.8524983,
            15.3901916
          ]
        ]
      },
      "properties": {
        "Vehicle_No": "GA 07 G 2319-VAS (EMERGENCY RESCUE TENDER)",
        "Vehicle_Name": "5035",
        "Branch": "Fire Station Vasco",
        "created": "21-12-2025 05:29:54",
        "lastUpdated": "21-12-2025 05:29:54"
      }
    },
    {
      "type": "Feature",
      "geometry": {
        "type": "LineString",
        "coordinates": [
          [
            74.1387199,
            15.5310116
          ]
        ]
      },
      "properties": {
        "Vehicle_No": "GA 07 G 3737-VAP(WATER TENDER)",
        "Vehicle_Name": "5035",
        "Branch": "Fire Station Valpoi",
        "created": "21-12-2025 05:30:13",
        "lastUpdated": "21-12-2025 05:30:13"
      }
    },
    {
      "type": "Feature",
      "geometry": {
        "type": "LineString",
        "coordinates": [
          [
            74.0028083,
            15.4028416
          ]
        ]
      },
      "properties": {
        "Vehicle_No": "GA 07 G 2318-PND(EMERGENCY RESCUE TENDER)",
        "Vehicle_Name": "5035",
        "Branch": "Fire Station Ponda",
        "created": "21-12-2025 05:30:14",
        "lastUpdated": "21-12-2025 05:30:14"
      }
    },
    {
      "type": "Feature",
      "geometry": {
        "type": "LineString",
        "coordinates": [
          [
            74.0768633,
            15.4151616
          ]
        ]
      },
      "properties": {
        "Vehicle_No": "GA 07 G 2004-PND(QUICK RESPONSE)",
        "Vehicle_Name": "5035",
        "Branch": "Fire Station Ponda",
        "created": "19-12-2025 08:22:15",
        "lastUpdated": "19-12-2025 08:22:15"
      }
    },
    {
      "type": "Feature",
      "geometry": {
        "type": "LineString",
        "coordinates": [
          [
            74.0031166,
            15.40295
          ],
          [
            74.0030916,
            15.402515
          ]
        ]
      },
      "properties": {
        "Vehicle_No": "GA 07 G 9101-PND(WATER TENDER)",
        "Vehicle_Name": "5035",
        "Branch": "Fire Station Ponda",
        "created": "21-12-2025 05:30:13",
        "lastUpdated": "21-12-2025 06:43:54"
      }
    },
    {
      "type": "Feature",
      "geometry": {
        "type": "LineString",
        "coordinates": [
          [
            73.978035,
            15.4142249
          ]
        ]
      },
      "properties": {
        "Vehicle_No": "GA 07 G 9797-PND(WATER BOUSER)",
        "Vehicle_Name": "5035",
        "Branch": "Fire Station Ponda",
        "created": "21-12-2025 05:29:59",
        "lastUpdated": "21-12-2025 05:29:59"
      }
    },
    {
      "type": "Feature",
      "geometry": {
        "type": "LineString",
        "coordinates": [
          [
            74.04406,
            15.02367
          ]
        ]
      },
      "properties": {
        "Vehicle_No": "GA 07 G 6363-CAN(WATER TENDER)",
        "Vehicle_Name": "5035",
        "Branch": "Fire Station Canacona",
        "created": "21-12-2025 05:30:06",
        "lastUpdated": "21-12-2025 05:30:06"
      }
    },
    {
      "type": "Feature",
      "geometry": {
        "type": "LineString",
        "coordinates": [
          [
            74.04025,
            15.017995
          ]
        ]
      },
      "properties": {
        "Vehicle_No": "GA 07 G 1567-CAN(QUICK RESPONSE FT)",
        "Vehicle_Name": "5035",
        "Branch": "Fire Station Canacona",
        "created": "21-12-2025 00:22:12",
        "lastUpdated": "21-12-2025 00:22:12"
      }
    },
    {
      "type": "Feature",
      "geometry": {
        "type": "LineString",
        "coordinates": [
          [
            73.9356933,
            15.3697116
          ]
        ]
      },
      "properties": {
        "Vehicle_No": "GA 07 G 1569-VRN(QUICK RESPONSE)",
        "Vehicle_Name": "5035",
        "Branch": "Fire Station Verna",
        "created": "21-12-2025 05:29:18",
        "lastUpdated": "21-12-2025 05:29:18"
      }
    },
    {
      "type": "Feature",
      "geometry": {
        "type": "LineString",
        "coordinates": [
          [
            73.9292,
            15.3691683
          ],
          [
            73.9343416,
            15.3672866
          ],
          [
            73.9356766,
            15.3694116
          ],
          [
            73.9355383,
            15.3697
          ],
          [
            73.9355716,
            15.3699633
          ],
          [
            73.935515,
            15.3697616
          ],
          [
            73.93553,
            15.3697666
          ],
          [
            73.93553,
            15.3696833
          ],
          [
            73.9354983,
            15.3696833
          ],
          [
            73.93518,
            15.3695999
          ],
          [
            73.9352216,
            15.3695633
          ],
          [
            73.9355216,
            15.36972
          ],
          [
            73.935465,
            15.3696183
          ],
          [
            73.9354566,
            15.3695833
          ],
          [
            73.9356533,
            15.3697183
          ],
          [
            73.9355383,
            15.3695583
          ]
        ]
      },
      "properties": {
        "Vehicle_No": "GA 07 G 9909-VRN(ADVANCE MULTI-PURPOSE)",
        "Vehicle_Name": "5035",
        "Branch": "Fire Station Verna",
        "created": "21-12-2025 05:30:07",
        "lastUpdated": "21-12-2025 06:24:15"
      }
    },
    {
      "type": "Feature",
      "geometry": {
        "type": "LineString",
        "coordinates": [
          [
            74.14139,
            15.5327416
          ],
          [
            74.1393966,
            15.5319499
          ],
          [
            74.138785,
            15.531025
          ],
          [
            74.138785,
            15.5310116
          ]
        ]
      },
      "properties": {
        "Vehicle_No": "GA 07 G 1942-VAP(QUICK RESPONSE)",
        "Vehicle_Name": "5035",
        "Branch": "Fire Station Valpoi",
        "created": "21-12-2025 05:30:08",
        "lastUpdated": "21-12-2025 07:13:58"
      }
    },
    {
      "type": "Feature",
      "geometry": {
        "type": "LineString",
        "coordinates": [
          [
            74.1036699,
            15.260535
          ],
          [
            74.1036616,
            15.2605366
          ]
        ]
      },
      "properties": {
        "Vehicle_No": "GA 07 G 2003-CUR(QUICK RESPONSE)",
        "Vehicle_Name": "5035",
        "Branch": "Fire Station Curchorem",
        "created": "21-12-2025 05:29:40",
        "lastUpdated": "21-12-2025 05:31:11"
      }
    },
    {
      "type": "Feature",
      "geometry": {
        "type": "LineString",
        "coordinates": [
          [
            74.1037033,
            15.26048
          ]
        ]
      },
      "properties": {
        "Vehicle_No": "GA 07 G 7447-CUR(EMERGENCY RESCUE)",
        "Vehicle_Name": "5035",
        "Branch": "Fire Station Curchorem",
        "created": "21-12-2025 05:30:07",
        "lastUpdated": "21-12-2025 05:30:07"
      }
    },
    {
      "type": "Feature",
      "geometry": {
        "type": "LineString",
        "coordinates": [
          [
            74.1037183,
            15.26039
          ]
        ]
      },
      "properties": {
        "Vehicle_No": "GA 07 G 7557-CUR(WATER TENDER)",
        "Vehicle_Name": "5035",
        "Branch": "Fire Station Curchorem",
        "created": "21-12-2025 05:30:03",
        "lastUpdated": "21-12-2025 05:30:03"
      }
    },
    {
      "type": "Feature",
      "geometry": {
        "type": "LineString",
        "coordinates": [
          [
            74.1037433,
            15.260325
          ]
        ]
      },
      "properties": {
        "Vehicle_No": "GA 07 G 7667-CUR(WATER BOUSER)",
        "Vehicle_Name": "5035",
        "Branch": "Fire Station Curchorem",
        "created": "21-12-2025 05:29:54",
        "lastUpdated": "21-12-2025 05:29:54"
      }
    },
    {
      "type": "Feature",
      "geometry": {
        "type": "LineString",
        "coordinates": [
          [
            73.9726,
            15.46309
          ],
          [
            73.9728267,
            15.463405
          ],
          [
            73.97238,
            15.4631483
          ],
          [
            73.9724033,
            15.4631517
          ],
          [
            73.9723633,
            15.46302
          ],
          [
            73.9725917,
            15.4632117
          ],
          [
            73.9721767,
            15.4627583
          ],
          [
            73.9728267,
            15.4631717
          ],
          [
            73.97273,
            15.46313
          ]
        ]
      },
      "properties": {
        "Vehicle_No": "GA 07 G 4989-KUN(WATER TENDER)",
        "Vehicle_Name": "G-100",
        "Branch": "Fire Station Kundaim",
        "created": "21-12-2025 05:29:31",
        "lastUpdated": "21-12-2025 06:54:41"
      }
    },
    {
      "type": "Feature",
      "geometry": {
        "type": "LineString",
        "coordinates": [
          [
            73.7940656,
            15.5329772
          ]
        ]
      },
      "properties": {
        "Vehicle_No": "GA 07 G 2242-PIL(WATER TENDER)",
        "Vehicle_Name": "5026",
        "Branch": "Fire Station Pilerne",
        "created": "21-12-2025 05:29:44",
        "lastUpdated": "21-12-2025 05:29:44"
      }
    },
    {
      "type": "Feature",
      "geometry": {
        "type": "LineString",
        "coordinates": [
          [
            73.8264083,
            15.603015
          ]
        ]
      },
      "properties": {
        "Vehicle_No": "GA 07 G 0681-MAP(QUICK RESPONSE)",
        "Vehicle_Name": "AT 5036A-4G",
        "Branch": "Fire Station Mapusa",
        "created": "21-12-2025 05:30:23",
        "lastUpdated": "21-12-2025 05:30:23"
      }
    },
    {
      "type": "Feature",
      "geometry": {
        "type": "LineString",
        "coordinates": [
          [
            73.7974239,
            15.7164939
          ]
        ]
      },
      "properties": {
        "Vehicle_No": "GA 07 G 0307-PER(QUICK RESPONSE)",
        "Vehicle_Name": "AT5032-4G",
        "Branch": "Fire Station Pernem",
        "created": "23-10-2025 15:19:09",
        "lastUpdated": "23-10-2025 15:19:09"
      }
    },
    {
      "type": "Feature",
      "geometry": {
        "type": "LineString",
        "coordinates": [
          [
            73.797475,
            15.7164556
          ]
        ]
      },
      "properties": {
        "Vehicle_No": "GA 07 G 2101-PER(MS WATER TENDER)",
        "Vehicle_Name": "AT5032-4G",
        "Branch": "Fire Station Pernem",
        "created": "21-12-2025 05:28:31",
        "lastUpdated": "21-12-2025 05:28:31"
      }
    },
    {
      "type": "Feature",
      "geometry": {
        "type": "LineString",
        "coordinates": [
          [
            73.7975461,
            15.7165344
          ]
        ]
      },
      "properties": {
        "Vehicle_No": "GA 07 G 4600-PER(MINI RESCUE TENDER)",
        "Vehicle_Name": "AT 5032-4G",
        "Branch": "Fire Station Pernem",
        "created": "21-12-2025 05:30:12",
        "lastUpdated": "21-12-2025 05:30:12"
      }
    },
    {
      "type": "Feature",
      "geometry": {
        "type": "LineString",
        "coordinates": [
          [
            73.8174433,
            15.4868461
          ],
          [
            73.817275,
            15.48712
          ],
          [
            73.8174783,
            15.4869333
          ],
          [
            73.8172011,
            15.4865789
          ],
          [
            73.8172017,
            15.48659
          ]
        ]
      },
      "properties": {
        "Vehicle_No": "GA 07 G 7272-PNJ(WATER TENDER)",
        "Vehicle_Name": "AT-5032-4G",
        "Branch": "Fire Station Panaji",
        "created": "21-12-2025 05:28:04",
        "lastUpdated": "21-12-2025 07:14:16"
      }
    },
    {
      "type": "Feature",
      "geometry": {
        "type": "LineString",
        "coordinates": [
          [
            74.021,
            15.1862578
          ]
        ]
      },
      "properties": {
        "Vehicle_No": "GA07G2384- Cuncolim",
        "Vehicle_Name": "AT 5032-4G",
        "Branch": "Fire Station Cuncolim",
        "created": "21-12-2025 05:29:16",
        "lastUpdated": "21-12-2025 05:29:16"
      }
    },
    {
      "type": "Feature",
      "geometry": {
        "type": "LineString",
        "coordinates": [
          [
            73.7975417,
            15.7165067
          ]
        ]
      },
      "properties": {
        "Vehicle_No": "GA07G2507 - Mid Size (Water Tender)",
        "Vehicle_Name": "5035",
        "Branch": "Fire Station Pernem",
        "created": "21-12-2025 05:29:31",
        "lastUpdated": "21-12-2025 05:29:31"
      }
    },
    {
      "type": "Feature",
      "geometry": {
        "type": "LineString",
        "coordinates": [
          [
            74.13868,
            15.530985
          ]
        ]
      },
      "properties": {
        "Vehicle_No": "GA07G2505 - Mid Size (Water Tender)",
        "Vehicle_Name": "5035",
        "Branch": "Fire Station Valpoi",
        "created": "21-12-2025 05:29:42",
        "lastUpdated": "21-12-2025 05:29:42"
      }
    },
    {
      "type": "Feature",
      "geometry": {
        "type": "LineString",
        "coordinates": [
          [
            73.9464117,
            15.58939
          ]
        ]
      },
      "properties": {
        "Vehicle_No": "GA07G2504 - Mid Size (Water Tender)",
        "Vehicle_Name": "5035",
        "Branch": "Fire Station Bicholim",
        "created": "21-12-2025 05:29:29",
        "lastUpdated": "21-12-2025 05:29:29"
      }
    },
    {
      "type": "Feature",
      "geometry": {
        "type": "LineString",
        "coordinates": [
          [
            73.8086667,
            15.5899817
          ]
        ]
      },
      "properties": {
        "Vehicle_No": "GA07G2503-Mid Size (Water Tender)",
        "Vehicle_Name": "5035",
        "Branch": "Fire Station Mapusa",
        "created": "21-12-2025 05:30:24",
        "lastUpdated": "21-12-2025 05:30:24"
      }
    },
    {
      "type": "Feature",
      "geometry": {
        "type": "LineString",
        "coordinates": [
          [
            73.8176517,
            15.48702
          ]
        ]
      },
      "properties": {
        "Vehicle_No": "GA07G2502 - Mid Size (Water Tender)",
        "Vehicle_Name": "5035",
        "Branch": "Fire Force Headquarters",
        "created": "21-12-2025 05:30:01",
        "lastUpdated": "21-12-2025 05:30:01"
      }
    }
  ]
}