{
  "type": "FeatureCollection",
  "metadata": {
    "date": "20251225",
    "source": "Directorate of Fire Emergency Services, Govt. of Goa",
    "description": "Daily GPS tracks of fire trucks",
    "lastUpdated": "2025-12-25T01:25:02.939Z",
    "count": 52
  },
  "features": [
    {
      "type": "Feature",
      "geometry": {
        "type": "LineString",
        "coordinates": [
          [
            73.7939933,
            15.533075
          ]
        ]
      },
      "properties": {
        "Vehicle_No": "GA 07 G 0680-PIL(QUICK RESPONSE VEHICLE)",
        "Vehicle_Name": "4G",
        "Branch": "Fire Station Pilerne",
        "created": "25-12-2025 05:29:46+05:30",
        "lastUpdated": "25-12-2025 05:29:46+05:30"
      }
    },
    {
      "type": "Feature",
      "geometry": {
        "type": "LineString",
        "coordinates": [
          [
            73.914139,
            15.500367
          ],
          [
            73.914024,
            15.500278
          ]
        ]
      },
      "properties": {
        "Vehicle_No": "GA07G2506 - Mid Size (Water Tender)",
        "Vehicle_Name": "TS101",
        "Branch": "Fire Station Old Goa",
        "created": "25-12-2025 05:28:32+05:30",
        "lastUpdated": "25-12-2025 05:30:33+05:30"
      }
    },
    {
      "type": "Feature",
      "geometry": {
        "type": "LineString",
        "coordinates": [
          [
            73.829193,
            15.523317
          ],
          [
            73.829407,
            15.522922
          ]
        ]
      },
      "properties": {
        "Vehicle_No": "GA 07 G 5115-POR(MINI WATER TENDER)",
        "Vehicle_Name": "TS101",
        "Branch": "Fire Station Porvorim",
        "created": "25-12-2025 05:28:11+05:30",
        "lastUpdated": "25-12-2025 05:30:09+05:30"
      }
    },
    {
      "type": "Feature",
      "geometry": {
        "type": "LineString",
        "coordinates": [
          [
            73.970612,
            15.269435
          ],
          [
            73.970634,
            15.269438
          ]
        ]
      },
      "properties": {
        "Vehicle_No": "GA 07 G 0350-MRG(WATER TENDER)",
        "Vehicle_Name": "TS101",
        "Branch": "Fire Station Margao",
        "created": "25-12-2025 05:29:13+05:30",
        "lastUpdated": "25-12-2025 05:31:09+05:30"
      }
    },
    {
      "type": "Feature",
      "geometry": {
        "type": "LineString",
        "coordinates": [
          [
            73.808662,
            15.590055
          ],
          [
            73.808769,
            15.590035
          ]
        ]
      },
      "properties": {
        "Vehicle_No": "GA 07 G 2900-MAP(MINI RESCUE TENDER)",
        "Vehicle_Name": "TS101",
        "Branch": "Fire Station Mapusa",
        "created": "25-12-2025 05:28:09+05:30",
        "lastUpdated": "25-12-2025 05:30:08+05:30"
      }
    },
    {
      "type": "Feature",
      "geometry": {
        "type": "LineString",
        "coordinates": [
          [
            73.817192,
            15.487335
          ],
          [
            73.817238,
            15.4872
          ]
        ]
      },
      "properties": {
        "Vehicle_No": "GA 07 G 7600-FFHQ(WATER BOUSER)",
        "Vehicle_Name": "TS101",
        "Branch": "Fire Force Headquarters",
        "created": "25-12-2025 05:26:37+05:30",
        "lastUpdated": "25-12-2025 05:30:42+05:30"
      }
    },
    {
      "type": "Feature",
      "geometry": {
        "type": "LineString",
        "coordinates": [
          [
            73.817177,
            15.487155
          ],
          [
            73.817307,
            15.487348
          ]
        ]
      },
      "properties": {
        "Vehicle_No": "GA 07 G 2002-FFHQ(TURN TABLE LADDER)",
        "Vehicle_Name": "TS101",
        "Branch": "Fire Force Headquarters",
        "created": "25-12-2025 05:29:01+05:30",
        "lastUpdated": "25-12-2025 05:33:05+05:30"
      }
    },
    {
      "type": "Feature",
      "geometry": {
        "type": "LineString",
        "coordinates": [
          [
            73.816963,
            15.48684
          ],
          [
            73.817085,
            15.486958
          ]
        ]
      },
      "properties": {
        "Vehicle_No": "GA 07 G 7101-FFHQ(WATER TENDER)",
        "Vehicle_Name": "TS101",
        "Branch": "Fire Force Headquarters",
        "created": "25-12-2025 05:29:47+05:30",
        "lastUpdated": "25-12-2025 05:33:50+05:30"
      }
    },
    {
      "type": "Feature",
      "geometry": {
        "type": "LineString",
        "coordinates": [
          [
            73.817345,
            15.486842
          ],
          [
            73.817055,
            15.48711
          ]
        ]
      },
      "properties": {
        "Vehicle_No": "GA 07 G 7677-FFHQ(EMERGENCY RESCUE)",
        "Vehicle_Name": "TS101",
        "Branch": "Fire Force Headquarters",
        "created": "25-12-2025 05:29:31+05:30",
        "lastUpdated": "25-12-2025 05:31:30+05:30"
      }
    },
    {
      "type": "Feature",
      "geometry": {
        "type": "LineString",
        "coordinates": [
          [
            73.817223,
            15.48723
          ],
          [
            73.817314,
            15.487192
          ],
          [
            73.817291,
            15.487247
          ],
          [
            73.817238,
            15.487237
          ],
          [
            73.817184,
            15.487235
          ],
          [
            73.817184,
            15.487233
          ],
          [
            73.817177,
            15.48723
          ],
          [
            73.817177,
            15.487232
          ],
          [
            73.817169,
            15.487218
          ],
          [
            73.817162,
            15.487215
          ],
          [
            73.817169,
            15.487208
          ]
        ]
      },
      "properties": {
        "Vehicle_No": "GA 07 G 1121-PNJ(EMERGENCY RESCUE)",
        "Vehicle_Name": "TS101",
        "Branch": "Fire Station Panaji",
        "created": "25-12-2025 05:26:38+05:30",
        "lastUpdated": "25-12-2025 06:40:07+05:30"
      }
    },
    {
      "type": "Feature",
      "geometry": {
        "type": "LineString",
        "coordinates": [
          [
            73.817635,
            15.486667
          ],
          [
            73.817444,
            15.486555
          ]
        ]
      },
      "properties": {
        "Vehicle_No": "GA 07 G 1571-FFHQ(QUICK RESPONSE)",
        "Vehicle_Name": "TS101",
        "Branch": "Fire Force Headquarters",
        "created": "25-12-2025 05:28:13+05:30",
        "lastUpdated": "25-12-2025 05:30:09+05:30"
      }
    },
    {
      "type": "Feature",
      "geometry": {
        "type": "LineString",
        "coordinates": [
          [
            73.808723,
            15.589888
          ],
          [
            73.808762,
            15.589967
          ]
        ]
      },
      "properties": {
        "Vehicle_No": "GA 07 G 8101-MAP(WATER TENDER)",
        "Vehicle_Name": "TS101",
        "Branch": "Fire Station Mapusa",
        "created": "25-12-2025 05:29:48+05:30",
        "lastUpdated": "25-12-2025 05:31:48+05:30"
      }
    },
    {
      "type": "Feature",
      "geometry": {
        "type": "LineString",
        "coordinates": [
          [
            73.97019,
            15.2693883
          ],
          [
            73.969995,
            15.2694483
          ],
          [
            73.9700766,
            15.269405
          ],
          [
            73.9701083,
            15.2694116
          ],
          [
            73.9702233,
            15.2693733
          ],
          [
            73.9701416,
            15.2693866
          ],
          [
            73.970085,
            15.269415
          ],
          [
            73.9698733,
            15.2696166
          ],
          [
            73.9700433,
            15.2695766
          ],
          [
            73.9700933,
            15.2694383
          ],
          [
            73.97006,
            15.2693216
          ],
          [
            73.9700516,
            15.2693866
          ],
          [
            73.96997,
            15.269385
          ],
          [
            73.9700433,
            15.2694416
          ],
          [
            73.9701816,
            15.2694216
          ],
          [
            73.97015,
            15.2694116
          ],
          [
            73.970125,
            15.2693749
          ],
          [
            73.9701016,
            15.26941
          ],
          [
            73.9700933,
            15.2694033
          ],
          [
            73.970085,
            15.2693933
          ],
          [
            73.9700516,
            15.2693566
          ],
          [
            73.9703783,
            15.269135
          ],
          [
            73.9702066,
            15.2693749
          ],
          [
            73.9700933,
            15.2693566
          ],
          [
            73.9700766,
            15.26944
          ],
          [
            73.9701166,
            15.2694433
          ],
          [
            73.9701016,
            15.269385
          ],
          [
            73.97015,
            15.2694633
          ],
          [
            73.9700516,
            15.2693483
          ],
          [
            73.9701166,
            15.2695033
          ],
          [
            73.9701583,
            15.2694133
          ],
          [
            73.9700683,
            15.2692883
          ],
          [
            73.9701666,
            15.2693983
          ],
          [
            73.9702316,
            15.2693466
          ],
          [
            73.9701983,
            15.2692883
          ],
          [
            73.969865,
            15.269035
          ],
          [
            73.9699383,
            15.2691033
          ],
          [
            73.9700433,
            15.2692683
          ],
          [
            73.9700683,
            15.269365
          ],
          [
            73.9700116,
            15.2694133
          ],
          [
            73.9700433,
            15.2693383
          ],
          [
            73.9699633,
            15.2692916
          ],
          [
            73.9700933,
            15.2693616
          ],
          [
            73.9701583,
            15.2695183
          ],
          [
            73.97002,
            15.2692416
          ],
          [
            73.970085,
            15.269395
          ],
          [
            73.9702316,
            15.2694866
          ],
          [
            73.9701083,
            15.2693616
          ],
          [
            73.9702633,
            15.2692733
          ],
          [
            73.9701816,
            15.2693433
          ],
          [
            73.9700933,
            15.2693616
          ],
          [
            73.9700933,
            15.26934
          ],
          [
            73.969995,
            15.2695683
          ],
          [
            73.9700516,
            15.26949
          ],
          [
            73.9700433,
            15.269675
          ],
          [
            73.9701333,
            15.2693933
          ],
          [
            73.9699866,
            15.2694483
          ],
          [
            73.9700683,
            15.2694116
          ],
          [
            73.9701416,
            15.269425
          ],
          [
            73.9701666,
            15.2692366
          ],
          [
            73.9701416,
            15.2693433
          ],
          [
            73.9698483,
            15.269445
          ],
          [
            73.9700683,
            15.2694349
          ],
          [
            73.970085,
            15.26938
          ],
          [
            73.9700116,
            15.2694483
          ],
          [
            73.9700766,
            15.2694666
          ],
          [
            73.9701983,
            15.2694016
          ],
          [
            73.9701983,
            15.2693733
          ]
        ]
      },
      "properties": {
        "Vehicle_No": "GA 07 G 2317-MRG(EMERGENCY RESCUE TENDER)",
        "Vehicle_Name": "5035",
        "Branch": "Fire Station Margao",
        "created": "25-12-2025 05:29:18+05:30",
        "lastUpdated": "25-12-2025 06:54:04+05:30"
      }
    },
    {
      "type": "Feature",
      "geometry": {
        "type": "LineString",
        "coordinates": [
          [
            73.8513183,
            15.3887733
          ],
          [
            73.8513016,
            15.38878
          ],
          [
            73.851285,
            15.38878
          ]
        ]
      },
      "properties": {
        "Vehicle_No": "GA 07 G 1570-VAS(QUICK RESPONSE FIRE TENDER)",
        "Vehicle_Name": "5035",
        "Branch": "Fire Station Vasco",
        "created": "25-12-2025 05:29:35+05:30",
        "lastUpdated": "25-12-2025 06:35:48+05:30"
      }
    },
    {
      "type": "Feature",
      "geometry": {
        "type": "LineString",
        "coordinates": [
          [
            73.8509516,
            15.3890366
          ]
        ]
      },
      "properties": {
        "Vehicle_No": "GA 07 G 4101-VAS(MS WATER TENDER)",
        "Vehicle_Name": "5035",
        "Branch": "Fire Station Vasco",
        "created": "25-12-2025 05:29:42+05:30",
        "lastUpdated": "25-12-2025 05:29:42+05:30"
      }
    },
    {
      "type": "Feature",
      "geometry": {
        "type": "LineString",
        "coordinates": [
          [
            73.8512783,
            15.3888333
          ]
        ]
      },
      "properties": {
        "Vehicle_No": "GA 07 G 0819-VAS(WATER/FOAM TENDER)",
        "Vehicle_Name": "4G",
        "Branch": "Fire Station Vasco",
        "created": "25-12-2025 05:29:42+05:30",
        "lastUpdated": "25-12-2025 05:29:42+05:30"
      }
    },
    {
      "type": "Feature",
      "geometry": {
        "type": "LineString",
        "coordinates": [
          [
            73.97015,
            15.2695266
          ],
          [
            73.9699783,
            15.2695833
          ],
          [
            73.9701333,
            15.26953
          ],
          [
            73.970215,
            15.2695433
          ]
        ]
      },
      "properties": {
        "Vehicle_No": "GA 07 G 7100-MRG(WATER BOUSER)",
        "Vehicle_Name": "5035",
        "Branch": "Fire Station Margao",
        "created": "25-12-2025 05:29:58+05:30",
        "lastUpdated": "25-12-2025 05:39:10+05:30"
      }
    },
    {
      "type": "Feature",
      "geometry": {
        "type": "LineString",
        "coordinates": [
          [
            73.9705816,
            15.269445
          ],
          [
            73.9705233,
            15.2694266
          ],
          [
            73.9704999,
            15.2694133
          ]
        ]
      },
      "properties": {
        "Vehicle_No": "GA 07 G 1568-MRG(QUICK RESPONSE )",
        "Vehicle_Name": "5035",
        "Branch": "Fire Station Margao",
        "created": "25-12-2025 05:29:29+05:30",
        "lastUpdated": "25-12-2025 06:37:38+05:30"
      }
    },
    {
      "type": "Feature",
      "geometry": {
        "type": "LineString",
        "coordinates": [
          [
            73.97019,
            15.2693583
          ],
          [
            73.9701583,
            15.2693366
          ]
        ]
      },
      "properties": {
        "Vehicle_No": "GA 07 G 6101-MRG(WATER TENDER)",
        "Vehicle_Name": "5035",
        "Branch": "Fire Station Margao",
        "created": "25-12-2025 05:29:14+05:30",
        "lastUpdated": "25-12-2025 05:30:12+05:30"
      }
    },
    {
      "type": "Feature",
      "geometry": {
        "type": "LineString",
        "coordinates": [
          [
            73.9700433,
            15.2694666
          ],
          [
            73.9701583,
            15.2694116
          ]
        ]
      },
      "properties": {
        "Vehicle_No": "GA 07 G 1001-MRG(AERIAL LADDER PLATFORM)",
        "Vehicle_Name": "5035",
        "Branch": "Fire Station Margao",
        "created": "25-12-2025 05:29:41+05:30",
        "lastUpdated": "25-12-2025 05:30:21+05:30"
      }
    },
    {
      "type": "Feature",
      "geometry": {
        "type": "LineString",
        "coordinates": [
          [
            74.0028456,
            15.4028156
          ]
        ]
      },
      "properties": {
        "Vehicle_No": "GA 07 G 0820-BIC(WATER TEDNER)",
        "Vehicle_Name": "5026",
        "Branch": "Fire Station Bicholim",
        "created": "25-12-2025 05:28:01+05:30",
        "lastUpdated": "25-12-2025 05:28:01+05:30"
      }
    },
    {
      "type": "Feature",
      "geometry": {
        "type": "LineString",
        "coordinates": [
          [
            73.9140633,
            15.50027
          ]
        ]
      },
      "properties": {
        "Vehicle_No": "GA 07 G 5101-OLG(MS WATER TENDER)",
        "Vehicle_Name": "5035",
        "Branch": "Fire Station Old Goa",
        "created": "25-12-2025 05:29:16+05:30",
        "lastUpdated": "25-12-2025 05:29:16+05:30"
      }
    },
    {
      "type": "Feature",
      "geometry": {
        "type": "LineString",
        "coordinates": [
          [
            73.9465583,
            15.589235
          ],
          [
            73.9463699,
            15.589125
          ],
          [
            73.9463616,
            15.58916
          ],
          [
            73.946305,
            15.58918
          ],
          [
            73.946305,
            15.5891833
          ],
          [
            73.9465083,
            15.58917
          ],
          [
            73.9465083,
            15.5892166
          ],
          [
            73.9464683,
            15.589235
          ],
          [
            73.9465,
            15.58926
          ],
          [
            73.9465649,
            15.5893166
          ],
          [
            73.9467616,
            15.5892716
          ],
          [
            73.9466716,
            15.5892766
          ],
          [
            73.9463616,
            15.5892666
          ],
          [
            73.9463466,
            15.5892166
          ],
          [
            73.946215,
            15.5891583
          ],
          [
            73.946435,
            15.5892616
          ],
          [
            73.9464599,
            15.5887333
          ],
          [
            73.946305,
            15.588855
          ],
          [
            73.9463216,
            15.5888366
          ],
          [
            73.946435,
            15.5889916
          ]
        ]
      },
      "properties": {
        "Vehicle_No": "GA 07 G 3101-BIC(MS WATER TENDER)",
        "Vehicle_Name": "5035",
        "Branch": "Fire Station Bicholim",
        "created": "25-12-2025 05:29:43+05:30",
        "lastUpdated": "25-12-2025 06:32:32+05:30"
      }
    },
    {
      "type": "Feature",
      "geometry": {
        "type": "LineString",
        "coordinates": [
          [
            73.94672,
            15.5895083
          ]
        ]
      },
      "properties": {
        "Vehicle_No": "GA 07 G 1941-BIC(QUICK RESPONSE)",
        "Vehicle_Name": "5035",
        "Branch": "Fire Station Bicholim",
        "created": "25-12-2025 05:28:50+05:30",
        "lastUpdated": "25-12-2025 05:28:50+05:30"
      }
    },
    {
      "type": "Feature",
      "geometry": {
        "type": "LineString",
        "coordinates": [
          [
            73.8524983,
            15.3901916
          ]
        ]
      },
      "properties": {
        "Vehicle_No": "GA 07 G 2319-VAS (EMERGENCY RESCUE TENDER)",
        "Vehicle_Name": "5035",
        "Branch": "Fire Station Vasco",
        "created": "25-12-2025 05:29:26+05:30",
        "lastUpdated": "25-12-2025 05:29:26+05:30"
      }
    },
    {
      "type": "Feature",
      "geometry": {
        "type": "LineString",
        "coordinates": [
          [
            74.138965,
            15.5310599
          ]
        ]
      },
      "properties": {
        "Vehicle_No": "GA 07 G 3737-VAP(WATER TENDER)",
        "Vehicle_Name": "5035",
        "Branch": "Fire Station Valpoi",
        "created": "25-12-2025 05:29:10+05:30",
        "lastUpdated": "25-12-2025 05:29:10+05:30"
      }
    },
    {
      "type": "Feature",
      "geometry": {
        "type": "LineString",
        "coordinates": [
          [
            74.0029616,
            15.4027166
          ],
          [
            74.0029133,
            15.4028016
          ],
          [
            74.0029216,
            15.4026733
          ],
          [
            74.0029466,
            15.4026516
          ],
          [
            74.002905,
            15.402665
          ],
          [
            74.0028816,
            15.402665
          ],
          [
            74.00284,
            15.4028749
          ],
          [
            74.002865,
            15.4028833
          ]
        ]
      },
      "properties": {
        "Vehicle_No": "GA 07 G 2318-PND(EMERGENCY RESCUE TENDER)",
        "Vehicle_Name": "5035",
        "Branch": "Fire Station Ponda",
        "created": "25-12-2025 05:29:19+05:30",
        "lastUpdated": "25-12-2025 06:50:28+05:30"
      }
    },
    {
      "type": "Feature",
      "geometry": {
        "type": "LineString",
        "coordinates": [
          [
            74.0027999,
            15.402645
          ]
        ]
      },
      "properties": {
        "Vehicle_No": "GA 07 G 2004-PND(QUICK RESPONSE)",
        "Vehicle_Name": "5035",
        "Branch": "Fire Station Ponda",
        "created": "25-12-2025 05:29:58+05:30",
        "lastUpdated": "25-12-2025 05:29:58+05:30"
      }
    },
    {
      "type": "Feature",
      "geometry": {
        "type": "LineString",
        "coordinates": [
          [
            74.003035,
            15.40261
          ],
          [
            74.0028733,
            15.4026816
          ],
          [
            74.0034416,
            15.4031149
          ]
        ]
      },
      "properties": {
        "Vehicle_No": "GA 07 G 9101-PND(WATER TENDER)",
        "Vehicle_Name": "5035",
        "Branch": "Fire Station Ponda",
        "created": "25-12-2025 05:28:50+05:30",
        "lastUpdated": "25-12-2025 06:29:59+05:30"
      }
    },
    {
      "type": "Feature",
      "geometry": {
        "type": "LineString",
        "coordinates": [
          [
            74.0028733,
            15.402765
          ]
        ]
      },
      "properties": {
        "Vehicle_No": "GA 07 G 9797-PND(WATER BOUSER)",
        "Vehicle_Name": "5035",
        "Branch": "Fire Station Ponda",
        "created": "25-12-2025 05:29:50+05:30",
        "lastUpdated": "25-12-2025 05:29:50+05:30"
      }
    },
    {
      "type": "Feature",
      "geometry": {
        "type": "LineString",
        "coordinates": [
          [
            74.0440266,
            15.0236516
          ],
          [
            74.0410799,
            15.026615
          ],
          [
            74.034855,
            15.0255716
          ],
          [
            74.0334316,
            15.0247433
          ],
          [
            74.0370116,
            15.0131766
          ],
          [
            74.0402833,
            15.0007916
          ],
          [
            74.04139,
            14.9965533
          ],
          [
            74.0412916,
            14.9975833
          ],
          [
            74.03903,
            14.99707
          ],
          [
            74.0389966,
            14.9970583
          ],
          [
            74.0389966,
            14.9970133
          ],
          [
            74.039005,
            14.9970166
          ],
          [
            74.03903,
            14.9970033
          ],
          [
            74.0390216,
            14.9969966
          ],
          [
            74.0390216,
            14.9969866
          ],
          [
            74.0389966,
            14.9970016
          ],
          [
            74.0389733,
            14.9970333
          ],
          [
            74.0389816,
            14.9970416
          ],
          [
            74.03899,
            14.9970333
          ],
          [
            74.0389316,
            14.9970283
          ],
          [
            74.0389483,
            14.99704
          ],
          [
            74.0389483,
            14.9970383
          ],
          [
            74.03894,
            14.997015
          ],
          [
            74.03894,
            14.9970333
          ],
          [
            74.038965,
            14.9970233
          ],
          [
            74.0389233,
            14.9971799
          ],
          [
            74.0389316,
            14.9972983
          ],
          [
            74.0389316,
            14.9974383
          ],
          [
            74.0348066,
            14.99908
          ],
          [
            74.0327066,
            15.0031516
          ],
          [
            74.0315916,
            15.0052916
          ],
          [
            74.02933,
            15.00965
          ],
          [
            74.0314216,
            15.0111
          ],
          [
            74.0353683,
            15.01095
          ],
          [
            74.03501,
            15.0165866
          ],
          [
            74.0332283,
            15.0240033
          ],
          [
            74.0369716,
            15.0264483
          ],
          [
            74.0438966,
            15.0235783
          ],
          [
            74.0440266,
            15.0236166
          ],
          [
            74.0440266,
            15.0236233
          ]
        ]
      },
      "properties": {
        "Vehicle_No": "GA 07 G 6363-CAN(WATER TENDER)",
        "Vehicle_Name": "5035",
        "Branch": "Fire Station Canacona",
        "created": "24-12-2025 11:50:34+05:30",
        "lastUpdated": "25-12-2025 06:46:33+05:30"
      }
    },
    {
      "type": "Feature",
      "geometry": {
        "type": "LineString",
        "coordinates": [
          [
            74.044075,
            15.0236333
          ]
        ]
      },
      "properties": {
        "Vehicle_No": "GA 07 G 1567-CAN(QUICK RESPONSE FT)",
        "Vehicle_Name": "5035",
        "Branch": "Fire Station Canacona",
        "created": "24-12-2025 21:55:41+05:30",
        "lastUpdated": "24-12-2025 21:55:41+05:30"
      }
    },
    {
      "type": "Feature",
      "geometry": {
        "type": "LineString",
        "coordinates": [
          [
            73.935425,
            15.3696716
          ]
        ]
      },
      "properties": {
        "Vehicle_No": "GA 07 G 1569-VRN(QUICK RESPONSE)",
        "Vehicle_Name": "5035",
        "Branch": "Fire Station Verna",
        "created": "25-12-2025 05:29:35+05:30",
        "lastUpdated": "25-12-2025 05:29:35+05:30"
      }
    },
    {
      "type": "Feature",
      "geometry": {
        "type": "LineString",
        "coordinates": [
          [
            73.93588,
            15.3695616
          ],
          [
            73.935815,
            15.36959
          ]
        ]
      },
      "properties": {
        "Vehicle_No": "GA 07 G 9909-VRN(ADVANCE MULTI-PURPOSE)",
        "Vehicle_Name": "5035",
        "Branch": "Fire Station Verna",
        "created": "25-12-2025 05:30:04+05:30",
        "lastUpdated": "25-12-2025 05:31:02+05:30"
      }
    },
    {
      "type": "Feature",
      "geometry": {
        "type": "LineString",
        "coordinates": [
          [
            74.1388183,
            15.5311233
          ]
        ]
      },
      "properties": {
        "Vehicle_No": "GA 07 G 1942-VAP(QUICK RESPONSE)",
        "Vehicle_Name": "5035",
        "Branch": "Fire Station Valpoi",
        "created": "25-12-2025 05:29:56+05:30",
        "lastUpdated": "25-12-2025 05:29:56+05:30"
      }
    },
    {
      "type": "Feature",
      "geometry": {
        "type": "LineString",
        "coordinates": [
          [
            74.1037183,
            15.2601983
          ],
          [
            74.10363,
            15.2605216
          ]
        ]
      },
      "properties": {
        "Vehicle_No": "GA 07 G 2003-CUR(QUICK RESPONSE)",
        "Vehicle_Name": "5035",
        "Branch": "Fire Station Curchorem",
        "created": "25-12-2025 05:29:38+05:30",
        "lastUpdated": "25-12-2025 05:30:36+05:30"
      }
    },
    {
      "type": "Feature",
      "geometry": {
        "type": "LineString",
        "coordinates": [
          [
            74.1037033,
            15.26048
          ]
        ]
      },
      "properties": {
        "Vehicle_No": "GA 07 G 7447-CUR(EMERGENCY RESCUE)",
        "Vehicle_Name": "5035",
        "Branch": "Fire Station Curchorem",
        "created": "25-12-2025 05:29:46+05:30",
        "lastUpdated": "25-12-2025 05:29:46+05:30"
      }
    },
    {
      "type": "Feature",
      "geometry": {
        "type": "LineString",
        "coordinates": [
          [
            74.1037266,
            15.260395
          ]
        ]
      },
      "properties": {
        "Vehicle_No": "GA 07 G 7557-CUR(WATER TENDER)",
        "Vehicle_Name": "5035",
        "Branch": "Fire Station Curchorem",
        "created": "25-12-2025 05:29:49+05:30",
        "lastUpdated": "25-12-2025 05:29:49+05:30"
      }
    },
    {
      "type": "Feature",
      "geometry": {
        "type": "LineString",
        "coordinates": [
          [
            73.9910883,
            15.1453883
          ]
        ]
      },
      "properties": {
        "Vehicle_No": "GA 07 G 7667-CUR(WATER BOUSER)",
        "Vehicle_Name": "5035",
        "Branch": "Fire Station Curchorem",
        "created": "25-12-2025 05:29:52+05:30",
        "lastUpdated": "25-12-2025 05:29:52+05:30"
      }
    },
    {
      "type": "Feature",
      "geometry": {
        "type": "LineString",
        "coordinates": [
          [
            73.9724033,
            15.4630317
          ],
          [
            73.9727217,
            15.463115
          ],
          [
            73.97238,
            15.4629117
          ],
          [
            73.9727617,
            15.463195
          ],
          [
            73.9725917,
            15.4630683
          ]
        ]
      },
      "properties": {
        "Vehicle_No": "GA 07 G 4989-KUN(WATER TENDER)",
        "Vehicle_Name": "G-100",
        "Branch": "Fire Station Kundaim",
        "created": "25-12-2025 05:28:41+05:30",
        "lastUpdated": "25-12-2025 06:07:40+05:30"
      }
    },
    {
      "type": "Feature",
      "geometry": {
        "type": "LineString",
        "coordinates": [
          [
            73.7940967,
            15.5328456
          ]
        ]
      },
      "properties": {
        "Vehicle_No": "GA 07 G 2242-PIL(WATER TENDER)",
        "Vehicle_Name": "5026",
        "Branch": "Fire Station Pilerne",
        "created": "25-12-2025 05:29:13+05:30",
        "lastUpdated": "25-12-2025 05:29:13+05:30"
      }
    },
    {
      "type": "Feature",
      "geometry": {
        "type": "LineString",
        "coordinates": [
          [
            73.808585,
            15.589935
          ],
          [
            73.8085933,
            15.58993
          ]
        ]
      },
      "properties": {
        "Vehicle_No": "GA 07 G 0681-MAP(QUICK RESPONSE)",
        "Vehicle_Name": "AT 5036A-4G",
        "Branch": "Fire Station Mapusa",
        "created": "25-12-2025 05:30:00+05:30",
        "lastUpdated": "25-12-2025 05:30:50+05:30"
      }
    },
    {
      "type": "Feature",
      "geometry": {
        "type": "LineString",
        "coordinates": [
          [
            73.7974239,
            15.7164939
          ]
        ]
      },
      "properties": {
        "Vehicle_No": "GA 07 G 0307-PER(QUICK RESPONSE)",
        "Vehicle_Name": "AT5032-4G",
        "Branch": "Fire Station Pernem",
        "created": "23-10-2025 15:19:09+05:30",
        "lastUpdated": "23-10-2025 15:19:09+05:30"
      }
    },
    {
      "type": "Feature",
      "geometry": {
        "type": "LineString",
        "coordinates": [
          [
            73.7977217,
            15.7164683
          ]
        ]
      },
      "properties": {
        "Vehicle_No": "GA 07 G 2101-PER(MS WATER TENDER)",
        "Vehicle_Name": "AT5032-4G",
        "Branch": "Fire Station Pernem",
        "created": "25-12-2025 05:28:16+05:30",
        "lastUpdated": "25-12-2025 05:28:16+05:30"
      }
    },
    {
      "type": "Feature",
      "geometry": {
        "type": "LineString",
        "coordinates": [
          [
            73.7975628,
            15.7165178
          ]
        ]
      },
      "properties": {
        "Vehicle_No": "GA 07 G 4600-PER(MINI RESCUE TENDER)",
        "Vehicle_Name": "AT 5032-4G",
        "Branch": "Fire Station Pernem",
        "created": "25-12-2025 05:29:56+05:30",
        "lastUpdated": "25-12-2025 05:29:56+05:30"
      }
    },
    {
      "type": "Feature",
      "geometry": {
        "type": "LineString",
        "coordinates": [
          [
            73.8173972,
            15.4872872
          ]
        ]
      },
      "properties": {
        "Vehicle_No": "GA 07 G 7272-PNJ(WATER TENDER)",
        "Vehicle_Name": "AT-5032-4G",
        "Branch": "Fire Station Panaji",
        "created": "25-12-2025 05:27:45+05:30",
        "lastUpdated": "25-12-2025 05:27:45+05:30"
      }
    },
    {
      "type": "Feature",
      "geometry": {
        "type": "LineString",
        "coordinates": [
          [
            74.0210489,
            15.1862283
          ]
        ]
      },
      "properties": {
        "Vehicle_No": "GA07G2384- Cuncolim",
        "Vehicle_Name": "AT 5032-4G",
        "Branch": "Fire Station Cuncolim",
        "created": "25-12-2025 05:29:22+05:30",
        "lastUpdated": "25-12-2025 05:29:22+05:30"
      }
    },
    {
      "type": "Feature",
      "geometry": {
        "type": "LineString",
        "coordinates": [
          [
            73.797615,
            15.71643
          ]
        ]
      },
      "properties": {
        "Vehicle_No": "GA07G2507 - Mid Size (Water Tender)",
        "Vehicle_Name": "5035",
        "Branch": "Fire Station Pernem",
        "created": "25-12-2025 05:29:42+05:30",
        "lastUpdated": "25-12-2025 05:29:42+05:30"
      }
    },
    {
      "type": "Feature",
      "geometry": {
        "type": "LineString",
        "coordinates": [
          [
            74.1386067,
            15.5309583
          ]
        ]
      },
      "properties": {
        "Vehicle_No": "GA07G2505 - Mid Size (Water Tender)",
        "Vehicle_Name": "5035",
        "Branch": "Fire Station Valpoi",
        "created": "25-12-2025 05:29:22+05:30",
        "lastUpdated": "25-12-2025 05:29:22+05:30"
      }
    },
    {
      "type": "Feature",
      "geometry": {
        "type": "LineString",
        "coordinates": [
          [
            73.946655,
            15.589535
          ]
        ]
      },
      "properties": {
        "Vehicle_No": "GA07G2504 - Mid Size (Water Tender)",
        "Vehicle_Name": "5035",
        "Branch": "Fire Station Bicholim",
        "created": "25-12-2025 05:29:45+05:30",
        "lastUpdated": "25-12-2025 05:29:45+05:30"
      }
    },
    {
      "type": "Feature",
      "geometry": {
        "type": "LineString",
        "coordinates": [
          [
            73.8087567,
            15.5898983
          ]
        ]
      },
      "properties": {
        "Vehicle_No": "GA07G2503-Mid Size (Water Tender)",
        "Vehicle_Name": "5035",
        "Branch": "Fire Station Mapusa",
        "created": "25-12-2025 05:29:54+05:30",
        "lastUpdated": "25-12-2025 05:29:54+05:30"
      }
    },
    {
      "type": "Feature",
      "geometry": {
        "type": "LineString",
        "coordinates": [
          [
            73.8171383,
            15.4870867
          ]
        ]
      },
      "properties": {
        "Vehicle_No": "GA07G2502 - Mid Size (Water Tender)",
        "Vehicle_Name": "5035",
        "Branch": "Fire Force Headquarters",
        "created": "25-12-2025 05:29:11+05:30",
        "lastUpdated": "25-12-2025 05:29:11+05:30"
      }
    }
  ]
}