{
  "type": "FeatureCollection",
  "metadata": {
    "date": "20251208",
    "source": "Directorate of Fire Emergency Services, Govt. of Goa",
    "description": "Daily GPS tracks of fire trucks",
    "lastUpdated": "2025-12-08T04:22:02.236Z",
    "count": 52
  },
  "features": [
    {
      "type": "Feature",
      "geometry": {
        "type": "LineString",
        "coordinates": [
          [
            73.7938483,
            15.533005
          ]
        ]
      },
      "properties": {
        "Vehicle_No": "GA 07 G 0680-PIL(QUICK RESPONSE VEHICLE)",
        "Vehicle_Name": "4G",
        "Branch": "Fire Station Pilerne",
        "created": "08-12-2025 06:23:11",
        "lastUpdated": "08-12-2025 06:23:11"
      }
    },
    {
      "type": "Feature",
      "geometry": {
        "type": "LineString",
        "coordinates": [
          [
            73.914108,
            15.500302
          ],
          [
            73.914101,
            15.50031
          ]
        ]
      },
      "properties": {
        "Vehicle_No": "GA07G2506 - Mid Size (Water Tender)",
        "Vehicle_Name": "TS101",
        "Branch": "Fire Station Old Goa",
        "created": "08-12-2025 06:20:44",
        "lastUpdated": "08-12-2025 09:17:01"
      }
    },
    {
      "type": "Feature",
      "geometry": {
        "type": "LineString",
        "coordinates": [
          [
            73.829384,
            15.523243
          ]
        ]
      },
      "properties": {
        "Vehicle_No": "GA 07 G 5115-POR(MINI WATER TENDER)",
        "Vehicle_Name": "TS101",
        "Branch": "Fire Station Porvorim",
        "created": "08-12-2025 06:22:54",
        "lastUpdated": "08-12-2025 06:22:54"
      }
    },
    {
      "type": "Feature",
      "geometry": {
        "type": "LineString",
        "coordinates": [
          [
            73.970634,
            15.269438
          ]
        ]
      },
      "properties": {
        "Vehicle_No": "GA 07 G 0350-MRG(WATER TENDER)",
        "Vehicle_Name": "TS101",
        "Branch": "Fire Station Margao",
        "created": "08-12-2025 06:22:25",
        "lastUpdated": "08-12-2025 06:22:25"
      }
    },
    {
      "type": "Feature",
      "geometry": {
        "type": "LineString",
        "coordinates": [
          [
            73.808601,
            15.589963
          ],
          [
            73.808914,
            15.590155
          ],
          [
            73.808853,
            15.58985
          ]
        ]
      },
      "properties": {
        "Vehicle_No": "GA 07 G 2900-MAP(MINI RESCUE TENDER)",
        "Vehicle_Name": "TS101",
        "Branch": "Fire Station Mapusa",
        "created": "08-12-2025 06:20:55",
        "lastUpdated": "08-12-2025 09:15:51"
      }
    },
    {
      "type": "Feature",
      "geometry": {
        "type": "LineString",
        "coordinates": [
          [
            73.817307,
            15.48699
          ],
          [
            73.817184,
            15.487095
          ]
        ]
      },
      "properties": {
        "Vehicle_No": "GA 07 G 7600-FFHQ(WATER BOUSER)",
        "Vehicle_Name": "TS101",
        "Branch": "Fire Force Headquarters",
        "created": "08-12-2025 06:21:11",
        "lastUpdated": "08-12-2025 08:16:41"
      }
    },
    {
      "type": "Feature",
      "geometry": {
        "type": "LineString",
        "coordinates": [
          [
            73.817261,
            15.487445
          ]
        ]
      },
      "properties": {
        "Vehicle_No": "GA 07 G 2002-FFHQ(TURN TABLE LADDER)",
        "Vehicle_Name": "TS101",
        "Branch": "Fire Force Headquarters",
        "created": "08-12-2025 06:19:25",
        "lastUpdated": "08-12-2025 06:19:25"
      }
    },
    {
      "type": "Feature",
      "geometry": {
        "type": "LineString",
        "coordinates": [
          [
            73.817101,
            15.486812
          ]
        ]
      },
      "properties": {
        "Vehicle_No": "GA 07 G 7101-FFHQ(WATER TENDER)",
        "Vehicle_Name": "TS101",
        "Branch": "Fire Force Headquarters",
        "created": "08-12-2025 06:21:42",
        "lastUpdated": "08-12-2025 06:21:42"
      }
    },
    {
      "type": "Feature",
      "geometry": {
        "type": "LineString",
        "coordinates": [
          [
            73.817108,
            15.487073
          ],
          [
            73.817307,
            15.486982
          ]
        ]
      },
      "properties": {
        "Vehicle_No": "GA 07 G 7677-FFHQ(EMERGENCY RESCUE)",
        "Vehicle_Name": "TS101",
        "Branch": "Fire Force Headquarters",
        "created": "08-12-2025 06:23:21",
        "lastUpdated": "08-12-2025 08:14:34"
      }
    },
    {
      "type": "Feature",
      "geometry": {
        "type": "LineString",
        "coordinates": [
          [
            73.817245,
            15.487253
          ],
          [
            73.817253,
            15.48728
          ],
          [
            73.81723,
            15.48728
          ]
        ]
      },
      "properties": {
        "Vehicle_No": "GA 07 G 1121-PNJ(EMERGENCY RESCUE)",
        "Vehicle_Name": "TS101",
        "Branch": "Fire Station Panaji",
        "created": "08-12-2025 06:22:49",
        "lastUpdated": "08-12-2025 09:50:53"
      }
    },
    {
      "type": "Feature",
      "geometry": {
        "type": "LineString",
        "coordinates": [
          [
            73.817596,
            15.4866
          ],
          [
            73.817482,
            15.486733
          ],
          [
            73.817558,
            15.486702
          ]
        ]
      },
      "properties": {
        "Vehicle_No": "GA 07 G 1571-FFHQ(QUICK RESPONSE)",
        "Vehicle_Name": "TS101",
        "Branch": "Fire Force Headquarters",
        "created": "08-12-2025 06:23:02",
        "lastUpdated": "08-12-2025 09:51:19"
      }
    },
    {
      "type": "Feature",
      "geometry": {
        "type": "LineString",
        "coordinates": [
          [
            73.808617,
            15.589853
          ],
          [
            73.808754,
            15.590237
          ],
          [
            73.808708,
            15.589838
          ]
        ]
      },
      "properties": {
        "Vehicle_No": "GA 07 G 8101-MAP(WATER TENDER)",
        "Vehicle_Name": "TS101",
        "Branch": "Fire Station Mapusa",
        "created": "08-12-2025 06:23:12",
        "lastUpdated": "08-12-2025 09:15:34"
      }
    },
    {
      "type": "Feature",
      "geometry": {
        "type": "LineString",
        "coordinates": [
          [
            73.96989,
            15.2695416
          ],
          [
            73.9700933,
            15.2693916
          ],
          [
            73.96993,
            15.26945
          ],
          [
            73.9705899,
            15.26934
          ]
        ]
      },
      "properties": {
        "Vehicle_No": "GA 07 G 2317-MRG(EMERGENCY RESCUE TENDER)",
        "Vehicle_Name": "5035",
        "Branch": "Fire Station Margao",
        "created": "08-12-2025 06:23:18",
        "lastUpdated": "08-12-2025 09:51:59"
      }
    },
    {
      "type": "Feature",
      "geometry": {
        "type": "LineString",
        "coordinates": [
          [
            73.8509516,
            15.3890916
          ]
        ]
      },
      "properties": {
        "Vehicle_No": "GA 07 G 1570-VAS(QUICK RESPONSE FIRE TENDER)",
        "Vehicle_Name": "5035",
        "Branch": "Fire Station Vasco",
        "created": "08-12-2025 06:23:12",
        "lastUpdated": "08-12-2025 06:23:12"
      }
    },
    {
      "type": "Feature",
      "geometry": {
        "type": "LineString",
        "coordinates": [
          [
            73.85122,
            15.3888349
          ]
        ]
      },
      "properties": {
        "Vehicle_No": "GA 07 G 4101-VAS(MS WATER TENDER)",
        "Vehicle_Name": "5035",
        "Branch": "Fire Station Vasco",
        "created": "08-12-2025 06:22:25",
        "lastUpdated": "08-12-2025 06:22:25"
      }
    },
    {
      "type": "Feature",
      "geometry": {
        "type": "LineString",
        "coordinates": [
          [
            73.8512133,
            15.3887633
          ],
          [
            73.8512933,
            15.3888217
          ]
        ]
      },
      "properties": {
        "Vehicle_No": "GA 07 G 0819-VAS(WATER/FOAM TENDER)",
        "Vehicle_Name": "4G",
        "Branch": "Fire Station Vasco",
        "created": "08-12-2025 06:23:13",
        "lastUpdated": "08-12-2025 08:16:47"
      }
    },
    {
      "type": "Feature",
      "geometry": {
        "type": "LineString",
        "coordinates": [
          [
            73.9701583,
            15.26945
          ]
        ]
      },
      "properties": {
        "Vehicle_No": "GA 07 G 7100-MRG(WATER BOUSER)",
        "Vehicle_Name": "5035",
        "Branch": "Fire Station Margao",
        "created": "08-12-2025 06:22:37",
        "lastUpdated": "08-12-2025 06:22:37"
      }
    },
    {
      "type": "Feature",
      "geometry": {
        "type": "LineString",
        "coordinates": [
          [
            73.9704833,
            15.2693683
          ]
        ]
      },
      "properties": {
        "Vehicle_No": "GA 07 G 1568-MRG(QUICK RESPONSE )",
        "Vehicle_Name": "5035",
        "Branch": "Fire Station Margao",
        "created": "08-12-2025 06:23:16",
        "lastUpdated": "08-12-2025 06:23:16"
      }
    },
    {
      "type": "Feature",
      "geometry": {
        "type": "LineString",
        "coordinates": [
          [
            73.9700116,
            15.2692766
          ],
          [
            73.97015,
            15.2694033
          ]
        ]
      },
      "properties": {
        "Vehicle_No": "GA 07 G 6101-MRG(WATER TENDER)",
        "Vehicle_Name": "5035",
        "Branch": "Fire Station Margao",
        "created": "08-12-2025 06:22:48",
        "lastUpdated": "08-12-2025 08:16:53"
      }
    },
    {
      "type": "Feature",
      "geometry": {
        "type": "LineString",
        "coordinates": [
          [
            73.9700033,
            15.2693566
          ]
        ]
      },
      "properties": {
        "Vehicle_No": "GA 07 G 1001-MRG(AERIAL LADDER PLATFORM)",
        "Vehicle_Name": "5035",
        "Branch": "Fire Station Margao",
        "created": "08-12-2025 06:22:17",
        "lastUpdated": "08-12-2025 06:22:17"
      }
    },
    {
      "type": "Feature",
      "geometry": {
        "type": "LineString",
        "coordinates": [
          [
            74.0027117,
            15.4028694
          ]
        ]
      },
      "properties": {
        "Vehicle_No": "GA 07 G 0820-BIC(WATER TEDNER)",
        "Vehicle_Name": "5026",
        "Branch": "Fire Station Bicholim",
        "created": "08-12-2025 06:20:41",
        "lastUpdated": "08-12-2025 06:20:41"
      }
    },
    {
      "type": "Feature",
      "geometry": {
        "type": "LineString",
        "coordinates": [
          [
            73.9140133,
            15.5002983
          ]
        ]
      },
      "properties": {
        "Vehicle_No": "GA 07 G 5101-OLG(MS WATER TENDER)",
        "Vehicle_Name": "5035",
        "Branch": "Fire Station Old Goa",
        "created": "08-12-2025 06:22:17",
        "lastUpdated": "08-12-2025 06:22:17"
      }
    },
    {
      "type": "Feature",
      "geometry": {
        "type": "LineString",
        "coordinates": [
          [
            73.9464266,
            15.5882033
          ],
          [
            73.94668,
            15.5893816
          ],
          [
            73.9467033,
            15.5891116
          ],
          [
            73.9464766,
            15.5889916
          ]
        ]
      },
      "properties": {
        "Vehicle_No": "GA 07 G 3101-BIC(MS WATER TENDER)",
        "Vehicle_Name": "5035",
        "Branch": "Fire Station Bicholim",
        "created": "08-12-2025 06:22:34",
        "lastUpdated": "08-12-2025 09:51:06"
      }
    },
    {
      "type": "Feature",
      "geometry": {
        "type": "LineString",
        "coordinates": [
          [
            73.9467033,
            15.589435
          ]
        ]
      },
      "properties": {
        "Vehicle_No": "GA 07 G 1941-BIC(QUICK RESPONSE)",
        "Vehicle_Name": "5035",
        "Branch": "Fire Station Bicholim",
        "created": "08-12-2025 06:22:17",
        "lastUpdated": "08-12-2025 06:22:17"
      }
    },
    {
      "type": "Feature",
      "geometry": {
        "type": "LineString",
        "coordinates": [
          [
            73.851245,
            15.3888516
          ]
        ]
      },
      "properties": {
        "Vehicle_No": "GA 07 G 2319-VAS (EMERGENCY RESCUE TENDER)",
        "Vehicle_Name": "5035",
        "Branch": "Fire Station Vasco",
        "created": "08-12-2025 06:23:10",
        "lastUpdated": "08-12-2025 06:23:10"
      }
    },
    {
      "type": "Feature",
      "geometry": {
        "type": "LineString",
        "coordinates": [
          [
            74.1387933,
            15.5310216
          ]
        ]
      },
      "properties": {
        "Vehicle_No": "GA 07 G 3737-VAP(WATER TENDER)",
        "Vehicle_Name": "5035",
        "Branch": "Fire Station Valpoi",
        "created": "08-12-2025 06:22:32",
        "lastUpdated": "08-12-2025 06:22:32"
      }
    },
    {
      "type": "Feature",
      "geometry": {
        "type": "LineString",
        "coordinates": [
          [
            74.0028483,
            15.402865
          ],
          [
            73.98029,
            15.4064833
          ],
          [
            73.982235,
            15.40724
          ]
        ]
      },
      "properties": {
        "Vehicle_No": "GA 07 G 2318-PND(EMERGENCY RESCUE TENDER)",
        "Vehicle_Name": "5035",
        "Branch": "Fire Station Ponda",
        "created": "08-12-2025 06:22:32",
        "lastUpdated": "08-12-2025 09:16:42"
      }
    },
    {
      "type": "Feature",
      "geometry": {
        "type": "LineString",
        "coordinates": [
          [
            74.0030766,
            15.4026183
          ]
        ]
      },
      "properties": {
        "Vehicle_No": "GA 07 G 2004-PND(QUICK RESPONSE)",
        "Vehicle_Name": "5035",
        "Branch": "Fire Station Ponda",
        "created": "08-12-2025 06:23:04",
        "lastUpdated": "08-12-2025 06:23:04"
      }
    },
    {
      "type": "Feature",
      "geometry": {
        "type": "LineString",
        "coordinates": [
          [
            74.0027833,
            15.4027283
          ]
        ]
      },
      "properties": {
        "Vehicle_No": "GA 07 G 9101-PND(WATER TENDER)",
        "Vehicle_Name": "5035",
        "Branch": "Fire Station Ponda",
        "created": "08-12-2025 06:22:31",
        "lastUpdated": "08-12-2025 06:22:31"
      }
    },
    {
      "type": "Feature",
      "geometry": {
        "type": "LineString",
        "coordinates": [
          [
            74.00275,
            15.4027133
          ]
        ]
      },
      "properties": {
        "Vehicle_No": "GA 07 G 9797-PND(WATER BOUSER)",
        "Vehicle_Name": "5035",
        "Branch": "Fire Station Ponda",
        "created": "07-12-2025 13:16:30",
        "lastUpdated": "07-12-2025 13:16:30"
      }
    },
    {
      "type": "Feature",
      "geometry": {
        "type": "LineString",
        "coordinates": [
          [
            74.0440433,
            15.023635
          ]
        ]
      },
      "properties": {
        "Vehicle_No": "GA 07 G 6363-CAN(WATER TENDER)",
        "Vehicle_Name": "5035",
        "Branch": "Fire Station Canacona",
        "created": "07-12-2025 15:28:52",
        "lastUpdated": "07-12-2025 15:28:52"
      }
    },
    {
      "type": "Feature",
      "geometry": {
        "type": "LineString",
        "coordinates": [
          [
            74.0440666,
            15.0236283
          ]
        ]
      },
      "properties": {
        "Vehicle_No": "GA 07 G 1567-CAN(QUICK RESPONSE FT)",
        "Vehicle_Name": "5035",
        "Branch": "Fire Station Canacona",
        "created": "07-12-2025 22:30:51",
        "lastUpdated": "07-12-2025 22:30:51"
      }
    },
    {
      "type": "Feature",
      "geometry": {
        "type": "LineString",
        "coordinates": [
          [
            74.0441166,
            15.0236633
          ]
        ]
      },
      "properties": {
        "Vehicle_No": "GA 07 G 1569-VRN(QUICK RESPONSE)",
        "Vehicle_Name": "5035",
        "Branch": "Fire Station Verna",
        "created": "08-12-2025 01:38:28",
        "lastUpdated": "08-12-2025 01:38:28"
      }
    },
    {
      "type": "Feature",
      "geometry": {
        "type": "LineString",
        "coordinates": [
          [
            73.9356766,
            15.3695266
          ],
          [
            73.9354166,
            15.3698133
          ]
        ]
      },
      "properties": {
        "Vehicle_No": "GA 07 G 9909-VRN(ADVANCE MULTI-PURPOSE)",
        "Vehicle_Name": "5035",
        "Branch": "Fire Station Verna",
        "created": "08-12-2025 06:22:39",
        "lastUpdated": "08-12-2025 08:16:58"
      }
    },
    {
      "type": "Feature",
      "geometry": {
        "type": "LineString",
        "coordinates": [
          [
            74.1386716,
            15.530995
          ]
        ]
      },
      "properties": {
        "Vehicle_No": "GA 07 G 1942-VAP(QUICK RESPONSE)",
        "Vehicle_Name": "5035",
        "Branch": "Fire Station Valpoi",
        "created": "08-12-2025 06:22:35",
        "lastUpdated": "08-12-2025 06:22:35"
      }
    },
    {
      "type": "Feature",
      "geometry": {
        "type": "LineString",
        "coordinates": [
          [
            74.103785,
            15.2605733
          ]
        ]
      },
      "properties": {
        "Vehicle_No": "GA 07 G 2003-CUR(QUICK RESPONSE)",
        "Vehicle_Name": "5035",
        "Branch": "Fire Station Curchorem",
        "created": "08-12-2025 06:22:24",
        "lastUpdated": "08-12-2025 06:22:24"
      }
    },
    {
      "type": "Feature",
      "geometry": {
        "type": "LineString",
        "coordinates": [
          [
            74.10376,
            15.260455
          ]
        ]
      },
      "properties": {
        "Vehicle_No": "GA 07 G 7447-CUR(EMERGENCY RESCUE)",
        "Vehicle_Name": "5035",
        "Branch": "Fire Station Curchorem",
        "created": "08-12-2025 06:22:49",
        "lastUpdated": "08-12-2025 06:22:49"
      }
    },
    {
      "type": "Feature",
      "geometry": {
        "type": "LineString",
        "coordinates": [
          [
            74.1037916,
            15.2603716
          ]
        ]
      },
      "properties": {
        "Vehicle_No": "GA 07 G 7557-CUR(WATER TENDER)",
        "Vehicle_Name": "5035",
        "Branch": "Fire Station Curchorem",
        "created": "08-12-2025 06:23:02",
        "lastUpdated": "08-12-2025 06:23:02"
      }
    },
    {
      "type": "Feature",
      "geometry": {
        "type": "LineString",
        "coordinates": [
          [
            74.1038416,
            15.2603416
          ]
        ]
      },
      "properties": {
        "Vehicle_No": "GA 07 G 7667-CUR(WATER BOUSER)",
        "Vehicle_Name": "5035",
        "Branch": "Fire Station Curchorem",
        "created": "01-12-2025 11:39:29",
        "lastUpdated": "01-12-2025 11:39:29"
      }
    },
    {
      "type": "Feature",
      "geometry": {
        "type": "LineString",
        "coordinates": [
          [
            73.97369,
            15.4621833
          ],
          [
            73.9728267,
            15.4633133
          ]
        ]
      },
      "properties": {
        "Vehicle_No": "GA 07 G 4989-KUN(WATER TENDER)",
        "Vehicle_Name": "G-100",
        "Branch": "Fire Station Kundaim",
        "created": "08-12-2025 06:22:30",
        "lastUpdated": "08-12-2025 08:15:37"
      }
    },
    {
      "type": "Feature",
      "geometry": {
        "type": "LineString",
        "coordinates": [
          [
            73.794045,
            15.5329394
          ],
          [
            73.7940033,
            15.5332283
          ],
          [
            73.794085,
            15.5329778
          ]
        ]
      },
      "properties": {
        "Vehicle_No": "GA 07 G 2242-PIL(WATER TENDER)",
        "Vehicle_Name": "5026",
        "Branch": "Fire Station Pilerne",
        "created": "08-12-2025 06:22:04",
        "lastUpdated": "08-12-2025 09:16:22"
      }
    },
    {
      "type": "Feature",
      "geometry": {
        "type": "LineString",
        "coordinates": [
          [
            73.808805,
            15.5897583
          ]
        ]
      },
      "properties": {
        "Vehicle_No": "GA 07 G 0681-MAP(QUICK RESPONSE)",
        "Vehicle_Name": "AT 5036A-4G",
        "Branch": "Fire Station Mapusa",
        "created": "08-12-2025 06:23:24",
        "lastUpdated": "08-12-2025 06:23:24"
      }
    },
    {
      "type": "Feature",
      "geometry": {
        "type": "LineString",
        "coordinates": [
          [
            73.7974239,
            15.7164939
          ]
        ]
      },
      "properties": {
        "Vehicle_No": "GA 07 G 0307-PER(QUICK RESPONSE)",
        "Vehicle_Name": "AT5032-4G",
        "Branch": "Fire Station Pernem",
        "created": "23-10-2025 15:19:09",
        "lastUpdated": "23-10-2025 15:19:09"
      }
    },
    {
      "type": "Feature",
      "geometry": {
        "type": "LineString",
        "coordinates": [
          [
            73.7974661,
            15.7164661
          ],
          [
            73.797455,
            15.716445
          ]
        ]
      },
      "properties": {
        "Vehicle_No": "GA 07 G 2101-PER(MS WATER TENDER)",
        "Vehicle_Name": "AT5032-4G",
        "Branch": "Fire Station Pernem",
        "created": "08-12-2025 06:22:27",
        "lastUpdated": "08-12-2025 09:14:20"
      }
    },
    {
      "type": "Feature",
      "geometry": {
        "type": "LineString",
        "coordinates": [
          [
            73.7975278,
            15.7165339
          ],
          [
            73.7974678,
            15.7165672
          ],
          [
            73.7974822,
            15.716555
          ]
        ]
      },
      "properties": {
        "Vehicle_No": "GA 07 G 4600-PER(MINI RESCUE TENDER)",
        "Vehicle_Name": "AT 5032-4G",
        "Branch": "Fire Station Pernem",
        "created": "08-12-2025 06:21:11",
        "lastUpdated": "08-12-2025 09:15:35"
      }
    },
    {
      "type": "Feature",
      "geometry": {
        "type": "LineString",
        "coordinates": [
          [
            73.8171789,
            15.4871683
          ],
          [
            73.8174767,
            15.4871256
          ]
        ]
      },
      "properties": {
        "Vehicle_No": "GA 07 G 7272-PNJ(WATER TENDER)",
        "Vehicle_Name": "AT-5032-4G",
        "Branch": "Fire Station Panaji",
        "created": "08-12-2025 06:19:43",
        "lastUpdated": "08-12-2025 08:14:30"
      }
    },
    {
      "type": "Feature",
      "geometry": {
        "type": "LineString",
        "coordinates": [
          [
            74.0209906,
            15.1862783
          ],
          [
            74.0209889,
            15.1863606
          ]
        ]
      },
      "properties": {
        "Vehicle_No": "GA07G2384- Cuncolim",
        "Vehicle_Name": "AT 5032-4G",
        "Branch": "Fire Station Cuncolim",
        "created": "08-12-2025 06:21:54",
        "lastUpdated": "08-12-2025 09:16:50"
      }
    },
    {
      "type": "Feature",
      "geometry": {
        "type": "LineString",
        "coordinates": [
          [
            73.7975417,
            15.7163683
          ]
        ]
      },
      "properties": {
        "Vehicle_No": "GA07G2507 - Mid Size (Water Tender)",
        "Vehicle_Name": "5035",
        "Branch": "Fire Station Pernem",
        "created": "08-12-2025 06:22:27",
        "lastUpdated": "08-12-2025 06:22:27"
      }
    },
    {
      "type": "Feature",
      "geometry": {
        "type": "LineString",
        "coordinates": [
          [
            74.0442383,
            15.02355
          ],
          [
            74.0725667,
            15.0116917
          ]
        ]
      },
      "properties": {
        "Vehicle_No": "GA07G2505 - Mid Size (Water Tender)",
        "Vehicle_Name": "5035",
        "Branch": "Fire Station Valpoi",
        "created": "08-12-2025 02:26:12",
        "lastUpdated": "08-12-2025 09:51:03"
      }
    },
    {
      "type": "Feature",
      "geometry": {
        "type": "LineString",
        "coordinates": [
          [
            73.9464933,
            15.5893433
          ],
          [
            73.940585,
            15.6048417
          ],
          [
            73.9466383,
            15.5894617
          ]
        ]
      },
      "properties": {
        "Vehicle_No": "GA07G2504 - Mid Size (Water Tender)",
        "Vehicle_Name": "5035",
        "Branch": "Fire Station Bicholim",
        "created": "08-12-2025 06:23:19",
        "lastUpdated": "08-12-2025 09:51:15"
      }
    },
    {
      "type": "Feature",
      "geometry": {
        "type": "LineString",
        "coordinates": [
          [
            73.808635,
            15.5900183
          ],
          [
            73.8086183,
            15.5899783
          ]
        ]
      },
      "properties": {
        "Vehicle_No": "GA07G2503-Mid Size (Water Tender)",
        "Vehicle_Name": "5035",
        "Branch": "Fire Station Mapusa",
        "created": "08-12-2025 06:23:17",
        "lastUpdated": "08-12-2025 08:16:46"
      }
    },
    {
      "type": "Feature",
      "geometry": {
        "type": "LineString",
        "coordinates": [
          [
            73.81722,
            15.4872683
          ]
        ]
      },
      "properties": {
        "Vehicle_No": "GA07G2502 - Mid Size (Water Tender)",
        "Vehicle_Name": "5035",
        "Branch": "Fire Force Headquarters",
        "created": "08-12-2025 06:22:25",
        "lastUpdated": "08-12-2025 06:22:25"
      }
    }
  ]
}