{
  "type": "FeatureCollection",
  "metadata": {
    "date": "20260113",
    "source": "Directorate of Fire Emergency Services, Govt. of Goa",
    "description": "Daily GPS tracks of fire trucks",
    "lastUpdated": "2026-01-13T02:20:03.924Z",
    "count": 52
  },
  "features": [
    {
      "type": "Feature",
      "geometry": {
        "type": "LineString",
        "coordinates": [
          [
            73.8294267,
            15.52289
          ]
        ]
      },
      "properties": {
        "Vehicle_No": "GA 07 G 0680-PIL(QUICK RESPONSE VEHICLE)",
        "Vehicle_Name": "4G",
        "Branch": "Fire Station Pilerne",
        "created": "13-01-2026 05:29:29+05:30",
        "lastUpdated": "13-01-2026 05:29:29+05:30"
      }
    },
    {
      "type": "Feature",
      "geometry": {
        "type": "LineString",
        "coordinates": [
          [
            73.914032,
            15.500393
          ],
          [
            73.91404,
            15.500245
          ]
        ]
      },
      "properties": {
        "Vehicle_No": "GA07G2506 - OLG Mid Size (Water Tender)",
        "Vehicle_Name": "TS101",
        "Branch": "Fire Station Old Goa",
        "created": "13-01-2026 05:28:51+05:30",
        "lastUpdated": "13-01-2026 05:30:50+05:30"
      }
    },
    {
      "type": "Feature",
      "geometry": {
        "type": "LineString",
        "coordinates": [
          [
            73.829605,
            15.522875
          ],
          [
            73.829422,
            15.522978
          ]
        ]
      },
      "properties": {
        "Vehicle_No": "GA 07 G 5115-POR(MINI WATER TENDER)",
        "Vehicle_Name": "TS101",
        "Branch": "Fire Station Porvorim",
        "created": "13-01-2026 05:29:43+05:30",
        "lastUpdated": "13-01-2026 05:31:43+05:30"
      }
    },
    {
      "type": "Feature",
      "geometry": {
        "type": "LineString",
        "coordinates": [
          [
            73.970146,
            15.269493
          ],
          [
            73.970139,
            15.269383
          ],
          [
            73.971443,
            15.268295
          ]
        ]
      },
      "properties": {
        "Vehicle_No": "GA 07 G 0350-MRG(WATER TENDER)",
        "Vehicle_Name": "TS101",
        "Branch": "Fire Station Margao",
        "created": "13-01-2026 05:27:52+05:30",
        "lastUpdated": "13-01-2026 07:48:01+05:30"
      }
    },
    {
      "type": "Feature",
      "geometry": {
        "type": "LineString",
        "coordinates": [
          [
            73.808838,
            15.589993
          ],
          [
            73.808907,
            15.589957
          ]
        ]
      },
      "properties": {
        "Vehicle_No": "GA 07 G 2900-MAP(MINI RESCUE TENDER)",
        "Vehicle_Name": "TS101",
        "Branch": "Fire Station Mapusa",
        "created": "13-01-2026 05:28:21+05:30",
        "lastUpdated": "13-01-2026 05:30:20+05:30"
      }
    },
    {
      "type": "Feature",
      "geometry": {
        "type": "LineString",
        "coordinates": [
          [
            73.81723,
            15.487187
          ],
          [
            73.817215,
            15.487233
          ],
          [
            73.817299,
            15.487302
          ],
          [
            73.817383,
            15.487298
          ],
          [
            73.817245,
            15.48732
          ],
          [
            73.815575,
            15.48857
          ],
          [
            73.812943,
            15.487445
          ],
          [
            73.808945,
            15.482433
          ],
          [
            73.808296,
            15.475993
          ],
          [
            73.805847,
            15.464802
          ],
          [
            73.80381,
            15.461362
          ],
          [
            73.803413,
            15.457198
          ],
          [
            73.803673,
            15.460985
          ],
          [
            73.806908,
            15.467342
          ],
          [
            73.808296,
            15.476953
          ],
          [
            73.808922,
            15.483137
          ],
          [
            73.81263,
            15.487222
          ],
          [
            73.815224,
            15.488848
          ],
          [
            73.817719,
            15.48652
          ],
          [
            73.817261,
            15.486345
          ],
          [
            73.817329,
            15.48631
          ],
          [
            73.817245,
            15.486353
          ],
          [
            73.81707,
            15.486418
          ],
          [
            73.817741,
            15.486708
          ],
          [
            73.817078,
            15.487307
          ],
          [
            73.817162,
            15.487247
          ],
          [
            73.8172,
            15.487293
          ]
        ]
      },
      "properties": {
        "Vehicle_No": "GA 07 G 7600-FFHQ(WATER BOUSER)",
        "Vehicle_Name": "TS101",
        "Branch": "Fire Force Headquarters",
        "created": "13-01-2026 05:28:05+05:30",
        "lastUpdated": "13-01-2026 07:18:55+05:30"
      }
    },
    {
      "type": "Feature",
      "geometry": {
        "type": "LineString",
        "coordinates": [
          [
            73.817398,
            15.487383
          ],
          [
            73.817291,
            15.487393
          ],
          [
            73.817245,
            15.48742
          ],
          [
            73.817245,
            15.487392
          ],
          [
            73.817162,
            15.487285
          ],
          [
            73.81723,
            15.487345
          ],
          [
            73.817215,
            15.487405
          ],
          [
            73.814568,
            15.489388
          ],
          [
            73.819382,
            15.497493
          ],
          [
            73.820328,
            15.499103
          ],
          [
            73.822922,
            15.500608
          ],
          [
            73.829086,
            15.501132
          ],
          [
            73.836945,
            15.499407
          ],
          [
            73.834755,
            15.499478
          ],
          [
            73.828957,
            15.50101
          ],
          [
            73.826881,
            15.501138
          ],
          [
            73.825104,
            15.500973
          ],
          [
            73.824242,
            15.500857
          ],
          [
            73.816422,
            15.491343
          ],
          [
            73.816071,
            15.488203
          ],
          [
            73.817253,
            15.486853
          ],
          [
            73.817337,
            15.486367
          ],
          [
            73.817497,
            15.48636
          ],
          [
            73.817505,
            15.486342
          ],
          [
            73.817513,
            15.486327
          ],
          [
            73.817513,
            15.486322
          ],
          [
            73.817505,
            15.486318
          ],
          [
            73.817497,
            15.486317
          ],
          [
            73.817245,
            15.48655
          ],
          [
            73.817123,
            15.487125
          ]
        ]
      },
      "properties": {
        "Vehicle_No": "GA 07 G 2002-FFHQ(TURN TABLE LADDER)",
        "Vehicle_Name": "TS101",
        "Branch": "Fire Force Headquarters",
        "created": "13-01-2026 05:29:07+05:30",
        "lastUpdated": "13-01-2026 07:48:43+05:30"
      }
    },
    {
      "type": "Feature",
      "geometry": {
        "type": "LineString",
        "coordinates": [
          [
            73.817047,
            15.486828
          ],
          [
            73.817101,
            15.48689
          ]
        ]
      },
      "properties": {
        "Vehicle_No": "GA 07 G 7101-FFHQ(WATER TENDER)",
        "Vehicle_Name": "TS101",
        "Branch": "Fire Force Headquarters",
        "created": "13-01-2026 05:29:02+05:30",
        "lastUpdated": "13-01-2026 05:31:02+05:30"
      }
    },
    {
      "type": "Feature",
      "geometry": {
        "type": "LineString",
        "coordinates": [
          [
            73.817245,
            15.486992
          ],
          [
            73.817223,
            15.486965
          ],
          [
            73.817039,
            15.487087
          ],
          [
            73.817131,
            15.487328
          ],
          [
            73.814644,
            15.489307
          ],
          [
            73.810913,
            15.485382
          ]
        ]
      },
      "properties": {
        "Vehicle_No": "GA 07 G 7677-FFHQ(EMERGENCY RESCUE)",
        "Vehicle_Name": "TS101",
        "Branch": "Fire Force Headquarters",
        "created": "13-01-2026 05:29:24+05:30",
        "lastUpdated": "13-01-2026 07:49:57+05:30"
      }
    },
    {
      "type": "Feature",
      "geometry": {
        "type": "LineString",
        "coordinates": [
          [
            73.817253,
            15.487158
          ],
          [
            73.817245,
            15.48718
          ],
          [
            73.817146,
            15.487118
          ],
          [
            73.817467,
            15.486682
          ],
          [
            73.81694,
            15.48636
          ],
          [
            73.817207,
            15.486333
          ],
          [
            73.817223,
            15.486368
          ],
          [
            73.81723,
            15.486378
          ],
          [
            73.817253,
            15.48639
          ],
          [
            73.817291,
            15.486418
          ],
          [
            73.817268,
            15.486352
          ],
          [
            73.817268,
            15.486355
          ],
          [
            73.817261,
            15.486357
          ],
          [
            73.817261,
            15.486352
          ],
          [
            73.817055,
            15.486435
          ],
          [
            73.817116,
            15.48721
          ],
          [
            73.817223,
            15.487183
          ],
          [
            73.817215,
            15.487182
          ]
        ]
      },
      "properties": {
        "Vehicle_No": "GA 07 G 1121-PNJ(EMERGENCY RESCUE)",
        "Vehicle_Name": "TS101",
        "Branch": "Fire Station Panaji",
        "created": "13-01-2026 05:28:25+05:30",
        "lastUpdated": "13-01-2026 07:49:16+05:30"
      }
    },
    {
      "type": "Feature",
      "geometry": {
        "type": "LineString",
        "coordinates": [
          [
            73.817711,
            15.486767
          ],
          [
            73.81749,
            15.486593
          ],
          [
            73.817345,
            15.486338
          ]
        ]
      },
      "properties": {
        "Vehicle_No": "GA 07 G 1571-FFHQ(QUICK RESPONSE)",
        "Vehicle_Name": "TS101",
        "Branch": "Fire Force Headquarters",
        "created": "13-01-2026 05:29:57+05:30",
        "lastUpdated": "13-01-2026 06:15:59+05:30"
      }
    },
    {
      "type": "Feature",
      "geometry": {
        "type": "LineString",
        "coordinates": [
          [
            73.808731,
            15.589845
          ],
          [
            73.808617,
            15.589902
          ]
        ]
      },
      "properties": {
        "Vehicle_No": "GA 07 G 8101-MAP(WATER TENDER)",
        "Vehicle_Name": "TS101",
        "Branch": "Fire Station Mapusa",
        "created": "13-01-2026 05:29:29+05:30",
        "lastUpdated": "13-01-2026 05:33:32+05:30"
      }
    },
    {
      "type": "Feature",
      "geometry": {
        "type": "LineString",
        "coordinates": [
          [
            73.9701666,
            15.2694766
          ],
          [
            73.9701583,
            15.2694166
          ],
          [
            73.9703199,
            15.26938
          ],
          [
            73.9702316,
            15.2693866
          ],
          [
            73.9702883,
            15.26956
          ],
          [
            73.9701416,
            15.2694516
          ],
          [
            73.97002,
            15.2694566
          ],
          [
            73.9701166,
            15.269405
          ],
          [
            73.970125,
            15.2693733
          ],
          [
            73.9700933,
            15.2697216
          ],
          [
            73.9701733,
            15.2694433
          ],
          [
            73.9701083,
            15.269415
          ],
          [
            73.9699216,
            15.2694066
          ],
          [
            73.9702966,
            15.2694033
          ],
          [
            73.9703283,
            15.2693983
          ],
          [
            73.9701016,
            15.26941
          ],
          [
            73.9702466,
            15.2693966
          ],
          [
            73.9701816,
            15.2693433
          ],
          [
            73.970085,
            15.26938
          ],
          [
            73.9700933,
            15.2693683
          ],
          [
            73.97015,
            15.2693433
          ],
          [
            73.9701983,
            15.2693766
          ],
          [
            73.9702316,
            15.26934
          ],
          [
            73.9704916,
            15.26919
          ],
          [
            73.9703366,
            15.26937
          ],
          [
            73.970215,
            15.2691466
          ],
          [
            73.9701666,
            15.269295
          ],
          [
            73.9702066,
            15.2693966
          ],
          [
            73.9698733,
            15.2692466
          ],
          [
            73.9701333,
            15.2692383
          ],
          [
            73.9701333,
            15.2692783
          ],
          [
            73.9701416,
            15.2692683
          ],
          [
            73.9700116,
            15.2693616
          ],
          [
            73.9701666,
            15.2693233
          ],
          [
            73.9701333,
            15.269405
          ],
          [
            73.9701666,
            15.2694216
          ],
          [
            73.9699216,
            15.2694133
          ],
          [
            73.96993,
            15.2694233
          ],
          [
            73.9700683,
            15.2694233
          ],
          [
            73.97024,
            15.2693933
          ],
          [
            73.9701416,
            15.2694016
          ],
          [
            73.9701333,
            15.2694316
          ],
          [
            73.9701016,
            15.2694166
          ],
          [
            73.9700283,
            15.26938
          ],
          [
            73.9700683,
            15.2693766
          ],
          [
            73.970035,
            15.2693183
          ],
          [
            73.970345,
            15.2694333
          ],
          [
            73.9703283,
            15.2694416
          ],
          [
            73.97024,
            15.2693133
          ],
          [
            73.9701083,
            15.2693033
          ],
          [
            73.9700683,
            15.2693183
          ],
          [
            73.9700516,
            15.2693583
          ],
          [
            73.9702316,
            15.269325
          ],
          [
            73.9701816,
            15.2694116
          ],
          [
            73.9701416,
            15.2693666
          ],
          [
            73.970035,
            15.26949
          ],
          [
            73.970215,
            15.269405
          ],
          [
            73.97006,
            15.2694983
          ],
          [
            73.9701416,
            15.2694133
          ],
          [
            73.970215,
            15.26923
          ],
          [
            73.9700433,
            15.2693283
          ],
          [
            73.9700766,
            15.269415
          ],
          [
            73.970085,
            15.2694199
          ],
          [
            73.969825,
            15.26956
          ],
          [
            73.9698566,
            15.2694633
          ],
          [
            73.97037,
            15.269385
          ],
          [
            73.9701816,
            15.26934
          ],
          [
            73.970085,
            15.2694583
          ],
          [
            73.9700683,
            15.26944
          ],
          [
            73.9702966,
            15.2693383
          ],
          [
            73.970125,
            15.2693233
          ],
          [
            73.9703616,
            15.26913
          ],
          [
            73.9701733,
            15.2692583
          ],
          [
            73.9699633,
            15.26944
          ],
          [
            73.9699133,
            15.2693783
          ],
          [
            73.9699783,
            15.2693383
          ],
          [
            73.9699866,
            15.269385
          ],
          [
            73.9699783,
            15.26947
          ],
          [
            73.9700283,
            15.2693883
          ],
          [
            73.970125,
            15.2694233
          ],
          [
            73.9699466,
            15.2694416
          ],
          [
            73.9701733,
            15.269315
          ],
          [
            73.9701666,
            15.26936
          ],
          [
            73.97015,
            15.2692916
          ],
          [
            73.970125,
            15.2693766
          ],
          [
            73.9700933,
            15.2694166
          ],
          [
            73.970035,
            15.269275
          ],
          [
            73.97002,
            15.2692733
          ],
          [
            73.9700516,
            15.2694116
          ],
          [
            73.9700116,
            15.26946
          ],
          [
            73.9702066,
            15.2693866
          ],
          [
            73.9701983,
            15.2695333
          ],
          [
            73.9701333,
            15.2694316
          ],
          [
            73.9699866,
            15.2693966
          ],
          [
            73.9702233,
            15.2694333
          ],
          [
            73.9703199,
            15.26934
          ],
          [
            73.9702633,
            15.2693383
          ],
          [
            73.9703133,
            15.2693666
          ],
          [
            73.9701083,
            15.2693366
          ],
          [
            73.9703933,
            15.2691166
          ],
          [
            73.970125,
            15.2692266
          ],
          [
            73.97002,
            15.2691499
          ],
          [
            73.970035,
            15.2694483
          ],
          [
            73.9701333,
            15.2694883
          ],
          [
            73.97015,
            15.269415
          ],
          [
            73.9699633,
            15.26944
          ],
          [
            73.970255,
            15.269425
          ],
          [
            73.9702066,
            15.2695416
          ]
        ]
      },
      "properties": {
        "Vehicle_No": "GA 07 G 2317-MRG(EMERGENCY RESCUE TENDER)",
        "Vehicle_Name": "5035",
        "Branch": "Fire Station Margao",
        "created": "13-01-2026 05:29:07+05:30",
        "lastUpdated": "13-01-2026 07:50:02+05:30"
      }
    },
    {
      "type": "Feature",
      "geometry": {
        "type": "LineString",
        "coordinates": [
          [
            73.8512366,
            15.3888433
          ],
          [
            73.8481116,
            15.3892783
          ],
          [
            73.8494133,
            15.3910683
          ],
          [
            73.84602,
            15.3939533
          ],
          [
            73.8477133,
            15.3980533
          ],
          [
            73.8517666,
            15.4008566
          ],
          [
            73.8716466,
            15.3959466
          ],
          [
            73.8797283,
            15.3974716
          ],
          [
            73.8872799,
            15.4005416
          ],
          [
            73.8931483,
            15.40538
          ],
          [
            73.8931483,
            15.4053816
          ],
          [
            73.8931566,
            15.4054083
          ],
          [
            73.893115,
            15.4053649
          ]
        ]
      },
      "properties": {
        "Vehicle_No": "GA 07 G 1570-VAS(QUICK RESPONSE FIRE TENDER)",
        "Vehicle_Name": "5035",
        "Branch": "Fire Station Vasco",
        "created": "13-01-2026 05:29:38+05:30",
        "lastUpdated": "13-01-2026 07:24:31+05:30"
      }
    },
    {
      "type": "Feature",
      "geometry": {
        "type": "LineString",
        "coordinates": [
          [
            73.851285,
            15.3887899
          ]
        ]
      },
      "properties": {
        "Vehicle_No": "GA 07 G 4101-VAS(MS WATER TENDER)",
        "Vehicle_Name": "5035",
        "Branch": "Fire Station Vasco",
        "created": "13-01-2026 05:29:37+05:30",
        "lastUpdated": "13-01-2026 05:29:37+05:30"
      }
    },
    {
      "type": "Feature",
      "geometry": {
        "type": "LineString",
        "coordinates": [
          [
            73.851375,
            15.3887733
          ]
        ]
      },
      "properties": {
        "Vehicle_No": "GA 07 G 0819-VAS(WATER/FOAM TENDER)",
        "Vehicle_Name": "4G",
        "Branch": "Fire Station Vasco",
        "created": "13-01-2026 05:29:55+05:30",
        "lastUpdated": "13-01-2026 05:29:55+05:30"
      }
    },
    {
      "type": "Feature",
      "geometry": {
        "type": "LineString",
        "coordinates": [
          [
            73.970215,
            15.2695
          ]
        ]
      },
      "properties": {
        "Vehicle_No": "GA 07 G 7100-MRG(WATER BOUSER)",
        "Vehicle_Name": "5035",
        "Branch": "Fire Station Margao",
        "created": "13-01-2026 05:28:48+05:30",
        "lastUpdated": "13-01-2026 05:28:48+05:30"
      }
    },
    {
      "type": "Feature",
      "geometry": {
        "type": "LineString",
        "coordinates": [
          [
            73.9704999,
            15.2693299
          ]
        ]
      },
      "properties": {
        "Vehicle_No": "GA 07 G 1568-MRG(QUICK RESPONSE )",
        "Vehicle_Name": "5035",
        "Branch": "Fire Station Margao",
        "created": "13-01-2026 05:29:25+05:30",
        "lastUpdated": "13-01-2026 05:29:25+05:30"
      }
    },
    {
      "type": "Feature",
      "geometry": {
        "type": "LineString",
        "coordinates": [
          [
            74.0423333,
            15.5467066
          ]
        ]
      },
      "properties": {
        "Vehicle_No": "GA 07 G 6101-MRG(WATER TENDER)",
        "Vehicle_Name": "5035",
        "Branch": "Fire Station Margao",
        "created": "10-01-2026 09:43:08+05:30",
        "lastUpdated": "10-01-2026 09:43:08+05:30"
      }
    },
    {
      "type": "Feature",
      "geometry": {
        "type": "LineString",
        "coordinates": [
          [
            73.9697916,
            15.2695766
          ],
          [
            73.9699133,
            15.2695066
          ]
        ]
      },
      "properties": {
        "Vehicle_No": "GA 07 G 1001-MRG(AERIAL LADDER PLATFORM)",
        "Vehicle_Name": "5035",
        "Branch": "Fire Station Margao",
        "created": "13-01-2026 05:29:12+05:30",
        "lastUpdated": "13-01-2026 05:30:10+05:30"
      }
    },
    {
      "type": "Feature",
      "geometry": {
        "type": "LineString",
        "coordinates": [
          [
            74.0028939,
            15.4027517
          ]
        ]
      },
      "properties": {
        "Vehicle_No": "GA 07 G 0820-BIC(WATER TEDNER)",
        "Vehicle_Name": "5026",
        "Branch": "Fire Station Bicholim",
        "created": "13-01-2026 05:27:35+05:30",
        "lastUpdated": "13-01-2026 05:27:35+05:30"
      }
    },
    {
      "type": "Feature",
      "geometry": {
        "type": "LineString",
        "coordinates": [
          [
            73.9139966,
            15.5002916
          ]
        ]
      },
      "properties": {
        "Vehicle_No": "GA 07 G 5101-OLG(MS WATER TENDER)",
        "Vehicle_Name": "5035",
        "Branch": "Fire Station Old Goa",
        "created": "13-01-2026 05:29:49+05:30",
        "lastUpdated": "13-01-2026 05:29:49+05:30"
      }
    },
    {
      "type": "Feature",
      "geometry": {
        "type": "LineString",
        "coordinates": [
          [
            73.94672,
            15.5893633
          ],
          [
            73.9464933,
            15.58869
          ],
          [
            73.946525,
            15.5887916
          ],
          [
            73.946525,
            15.5887933
          ],
          [
            73.9465166,
            15.5889483
          ],
          [
            73.94729,
            15.5890583
          ],
          [
            73.9465416,
            15.589655
          ],
          [
            73.9465333,
            15.5893133
          ],
          [
            73.9465649,
            15.5893033
          ],
          [
            73.946525,
            15.5893816
          ],
          [
            73.9467766,
            15.5893033
          ],
          [
            73.94698,
            15.5892433
          ],
          [
            73.94698,
            15.5891983
          ],
          [
            73.9466316,
            15.588955
          ],
          [
            73.9468666,
            15.5894333
          ],
          [
            73.9465083,
            15.589065
          ],
          [
            73.9464933,
            15.5890566
          ],
          [
            73.9464116,
            15.588895
          ],
          [
            73.9466383,
            15.58911
          ],
          [
            73.9468183,
            15.5894566
          ],
          [
            73.946915,
            15.5892666
          ],
          [
            73.9468666,
            15.58911
          ],
          [
            73.9469,
            15.589085
          ],
          [
            73.9468183,
            15.5891316
          ],
          [
            73.9467366,
            15.5890583
          ],
          [
            73.9468183,
            15.589045
          ],
          [
            73.9468583,
            15.589305
          ],
          [
            73.946485,
            15.589225
          ],
          [
            73.9462566,
            15.589055
          ],
          [
            73.94633,
            15.5890666
          ],
          [
            73.9463533,
            15.5890766
          ],
          [
            73.9461666,
            15.5888366
          ],
          [
            73.94633,
            15.5888016
          ],
          [
            73.9463866,
            15.588825
          ],
          [
            73.9464266,
            15.5890316
          ],
          [
            73.9465816,
            15.5892733
          ],
          [
            73.9467766,
            15.5895766
          ],
          [
            73.9469966,
            15.5896883
          ],
          [
            73.9466466,
            15.5895016
          ],
          [
            73.9466233,
            15.5894733
          ],
          [
            73.9464933,
            15.58929
          ],
          [
            73.9467766,
            15.5896383
          ],
          [
            73.9468833,
            15.5893866
          ],
          [
            73.9468016,
            15.5893316
          ],
          [
            73.9463383,
            15.5892849
          ],
          [
            73.9465,
            15.5893183
          ],
          [
            73.9463216,
            15.5893033
          ]
        ]
      },
      "properties": {
        "Vehicle_No": "GA 07 G 3101-BIC(MS WATER TENDER)",
        "Vehicle_Name": "5035",
        "Branch": "Fire Station Bicholim",
        "created": "13-01-2026 05:29:54+05:30",
        "lastUpdated": "13-01-2026 07:49:48+05:30"
      }
    },
    {
      "type": "Feature",
      "geometry": {
        "type": "LineString",
        "coordinates": [
          [
            73.9466883,
            15.58947
          ]
        ]
      },
      "properties": {
        "Vehicle_No": "GA 07 G 1941-BIC(QUICK RESPONSE)",
        "Vehicle_Name": "5035",
        "Branch": "Fire Station Bicholim",
        "created": "13-01-2026 05:29:36+05:30",
        "lastUpdated": "13-01-2026 05:29:36+05:30"
      }
    },
    {
      "type": "Feature",
      "geometry": {
        "type": "LineString",
        "coordinates": [
          [
            73.8478433,
            15.3892083
          ]
        ]
      },
      "properties": {
        "Vehicle_No": "GA 07 G 2319-VAS (EMERGENCY RESCUE TENDER)",
        "Vehicle_Name": "5035",
        "Branch": "Fire Station Vasco",
        "created": "13-01-2026 05:29:41+05:30",
        "lastUpdated": "13-01-2026 05:29:41+05:30"
      }
    },
    {
      "type": "Feature",
      "geometry": {
        "type": "LineString",
        "coordinates": [
          [
            74.1389166,
            15.5310599
          ],
          [
            74.1386716,
            15.5310966
          ],
          [
            74.13868,
            15.531095
          ],
          [
            74.1386883,
            15.5311133
          ]
        ]
      },
      "properties": {
        "Vehicle_No": "GA 07 G 3737-VAP(WATER TENDER)",
        "Vehicle_Name": "5035",
        "Branch": "Fire Station Valpoi",
        "created": "13-01-2026 05:29:21+05:30",
        "lastUpdated": "13-01-2026 07:49:48+05:30"
      }
    },
    {
      "type": "Feature",
      "geometry": {
        "type": "LineString",
        "coordinates": [
          [
            74.0028816,
            15.4027183
          ]
        ]
      },
      "properties": {
        "Vehicle_No": "GA 07 G 2318-PND(EMERGENCY RESCUE TENDER)",
        "Vehicle_Name": "5035",
        "Branch": "Fire Station Ponda",
        "created": "13-01-2026 05:29:32+05:30",
        "lastUpdated": "13-01-2026 05:29:32+05:30"
      }
    },
    {
      "type": "Feature",
      "geometry": {
        "type": "LineString",
        "coordinates": [
          [
            73.9073083,
            15.4141016
          ]
        ]
      },
      "properties": {
        "Vehicle_No": "GA 07 G 2004-PND(QUICK RESPONSE)",
        "Vehicle_Name": "5035",
        "Branch": "Fire Station Ponda",
        "created": "30-12-2025 13:47:09+05:30",
        "lastUpdated": "30-12-2025 13:47:09+05:30"
      }
    },
    {
      "type": "Feature",
      "geometry": {
        "type": "LineString",
        "coordinates": [
          [
            74.003085,
            15.4025183
          ]
        ]
      },
      "properties": {
        "Vehicle_No": "GA 07 G 9101-PND(WATER TENDER)",
        "Vehicle_Name": "5035",
        "Branch": "Fire Station Ponda",
        "created": "13-01-2026 01:56:03+05:30",
        "lastUpdated": "13-01-2026 01:56:03+05:30"
      }
    },
    {
      "type": "Feature",
      "geometry": {
        "type": "LineString",
        "coordinates": [
          [
            74.0028233,
            15.402765
          ]
        ]
      },
      "properties": {
        "Vehicle_No": "GA 07 G 9797-PND(WATER BOUSER)",
        "Vehicle_Name": "5035",
        "Branch": "Fire Station Ponda",
        "created": "13-01-2026 05:29:56+05:30",
        "lastUpdated": "13-01-2026 05:29:56+05:30"
      }
    },
    {
      "type": "Feature",
      "geometry": {
        "type": "LineString",
        "coordinates": [
          [
            74.0440433,
            15.0236533
          ]
        ]
      },
      "properties": {
        "Vehicle_No": "GA 07 G 6363-CAN(WATER TENDER)",
        "Vehicle_Name": "5035",
        "Branch": "Fire Station Canacona",
        "created": "13-01-2026 05:00:02+05:30",
        "lastUpdated": "13-01-2026 05:00:02+05:30"
      }
    },
    {
      "type": "Feature",
      "geometry": {
        "type": "LineString",
        "coordinates": [
          [
            74.03986,
            15.017525
          ]
        ]
      },
      "properties": {
        "Vehicle_No": "GA 07 G 1567-CAN(QUICK RESPONSE FT)",
        "Vehicle_Name": "5035",
        "Branch": "Fire Station Canacona",
        "created": "11-01-2026 20:54:02+05:30",
        "lastUpdated": "11-01-2026 20:54:02+05:30"
      }
    },
    {
      "type": "Feature",
      "geometry": {
        "type": "LineString",
        "coordinates": [
          [
            73.93553,
            15.369715
          ],
          [
            73.9355466,
            15.3695533
          ]
        ]
      },
      "properties": {
        "Vehicle_No": "GA 07 G 1569-VRN(QUICK RESPONSE)",
        "Vehicle_Name": "5035",
        "Branch": "Fire Station Verna",
        "created": "13-01-2026 05:29:27+05:30",
        "lastUpdated": "13-01-2026 05:31:23+05:30"
      }
    },
    {
      "type": "Feature",
      "geometry": {
        "type": "LineString",
        "coordinates": [
          [
            73.9355883,
            15.3698966
          ]
        ]
      },
      "properties": {
        "Vehicle_No": "GA 07 G 9909-VRN(ADVANCE MULTI-PURPOSE)",
        "Vehicle_Name": "5035",
        "Branch": "Fire Station Verna",
        "created": "13-01-2026 05:29:50+05:30",
        "lastUpdated": "13-01-2026 05:29:50+05:30"
      }
    },
    {
      "type": "Feature",
      "geometry": {
        "type": "LineString",
        "coordinates": [
          [
            74.1388016,
            15.5311983
          ]
        ]
      },
      "properties": {
        "Vehicle_No": "GA 07 G 1942-VAP(QUICK RESPONSE)",
        "Vehicle_Name": "5035",
        "Branch": "Fire Station Valpoi",
        "created": "13-01-2026 05:28:38+05:30",
        "lastUpdated": "13-01-2026 05:28:38+05:30"
      }
    },
    {
      "type": "Feature",
      "geometry": {
        "type": "LineString",
        "coordinates": [
          [
            74.1037766,
            15.2604916
          ],
          [
            74.1038166,
            15.2604283
          ]
        ]
      },
      "properties": {
        "Vehicle_No": "GA 07 G 2003-CUR(QUICK RESPONSE)",
        "Vehicle_Name": "5035",
        "Branch": "Fire Station Curchorem",
        "created": "13-01-2026 05:28:58+05:30",
        "lastUpdated": "13-01-2026 05:30:59+05:30"
      }
    },
    {
      "type": "Feature",
      "geometry": {
        "type": "LineString",
        "coordinates": [
          [
            74.1035316,
            15.2604233
          ]
        ]
      },
      "properties": {
        "Vehicle_No": "GA 07 G 7447-CUR(EMERGENCY RESCUE)",
        "Vehicle_Name": "5035",
        "Branch": "Fire Station Curchorem",
        "created": "13-01-2026 05:29:04+05:30",
        "lastUpdated": "13-01-2026 05:29:04+05:30"
      }
    },
    {
      "type": "Feature",
      "geometry": {
        "type": "LineString",
        "coordinates": [
          [
            74.1034583,
            15.2604366
          ]
        ]
      },
      "properties": {
        "Vehicle_No": "GA 07 G 7557-CUR(WATER TENDER)",
        "Vehicle_Name": "5035",
        "Branch": "Fire Station Curchorem",
        "created": "13-01-2026 05:29:36+05:30",
        "lastUpdated": "13-01-2026 05:29:36+05:30"
      }
    },
    {
      "type": "Feature",
      "geometry": {
        "type": "LineString",
        "coordinates": [
          [
            74.1038,
            15.260335
          ]
        ]
      },
      "properties": {
        "Vehicle_No": "GA 07 G 7667-CUR(WATER BOUSER)",
        "Vehicle_Name": "5035",
        "Branch": "Fire Station Curchorem",
        "created": "13-01-2026 05:29:49+05:30",
        "lastUpdated": "13-01-2026 05:29:49+05:30"
      }
    },
    {
      "type": "Feature",
      "geometry": {
        "type": "LineString",
        "coordinates": [
          [
            73.972665,
            15.4623317
          ],
          [
            73.972705,
            15.4623583
          ],
          [
            73.97299,
            15.46276
          ],
          [
            73.97295,
            15.462765
          ],
          [
            73.9726883,
            15.46305
          ],
          [
            73.97268,
            15.4630683
          ],
          [
            73.972705,
            15.4630417
          ],
          [
            73.972665,
            15.4630717
          ]
        ]
      },
      "properties": {
        "Vehicle_No": "GA 07 G 4989-KUN(WATER TENDER)",
        "Vehicle_Name": "G-100",
        "Branch": "Fire Station Kundaim",
        "created": "13-01-2026 05:29:42+05:30",
        "lastUpdated": "13-01-2026 07:24:58+05:30"
      }
    },
    {
      "type": "Feature",
      "geometry": {
        "type": "LineString",
        "coordinates": [
          [
            73.7940667,
            15.5329761
          ]
        ]
      },
      "properties": {
        "Vehicle_No": "GA 07 G 2242-PIL(WATER TENDER)",
        "Vehicle_Name": "5026",
        "Branch": "Fire Station Pilerne",
        "created": "13-01-2026 05:28:14+05:30",
        "lastUpdated": "13-01-2026 05:28:14+05:30"
      }
    },
    {
      "type": "Feature",
      "geometry": {
        "type": "LineString",
        "coordinates": [
          [
            73.8088533,
            15.5897733
          ]
        ]
      },
      "properties": {
        "Vehicle_No": "GA 07 G 0681-MAP(QUICK RESPONSE)",
        "Vehicle_Name": "AT 5036A-4G",
        "Branch": "Fire Station Mapusa",
        "created": "13-01-2026 05:29:50+05:30",
        "lastUpdated": "13-01-2026 05:29:50+05:30"
      }
    },
    {
      "type": "Feature",
      "geometry": {
        "type": "LineString",
        "coordinates": [
          [
            73.7974239,
            15.7164939
          ]
        ]
      },
      "properties": {
        "Vehicle_No": "GA 07 G 0307-PER(QUICK RESPONSE)",
        "Vehicle_Name": "AT5032-4G",
        "Branch": "Fire Station Pernem",
        "created": "23-10-2025 15:19:09+05:30",
        "lastUpdated": "23-10-2025 15:19:09+05:30"
      }
    },
    {
      "type": "Feature",
      "geometry": {
        "type": "LineString",
        "coordinates": [
          [
            73.7974506,
            15.7164839
          ]
        ]
      },
      "properties": {
        "Vehicle_No": "GA 07 G 2101-PER(MS WATER TENDER)",
        "Vehicle_Name": "AT5032-4G",
        "Branch": "Fire Station Pernem",
        "created": "13-01-2026 05:29:55+05:30",
        "lastUpdated": "13-01-2026 05:29:55+05:30"
      }
    },
    {
      "type": "Feature",
      "geometry": {
        "type": "LineString",
        "coordinates": [
          [
            73.7975306,
            15.7165667
          ]
        ]
      },
      "properties": {
        "Vehicle_No": "GA 07 G 4600-PER(MINI RESCUE TENDER)",
        "Vehicle_Name": "AT 5032-4G",
        "Branch": "Fire Station Pernem",
        "created": "13-01-2026 05:29:54+05:30",
        "lastUpdated": "13-01-2026 05:29:54+05:30"
      }
    },
    {
      "type": "Feature",
      "geometry": {
        "type": "LineString",
        "coordinates": [
          [
            73.8175111,
            15.4865217
          ],
          [
            73.8172161,
            15.4871956
          ],
          [
            73.8172356,
            15.4863733
          ],
          [
            73.8173211,
            15.486365
          ],
          [
            73.81726,
            15.4864667
          ],
          [
            73.8177172,
            15.4870267
          ]
        ]
      },
      "properties": {
        "Vehicle_No": "GA 07 G 7272-PNJ(WATER TENDER)",
        "Vehicle_Name": "AT-5032-4G",
        "Branch": "Fire Station Panaji",
        "created": "13-01-2026 05:26:24+05:30",
        "lastUpdated": "13-01-2026 07:32:58+05:30"
      }
    },
    {
      "type": "Feature",
      "geometry": {
        "type": "LineString",
        "coordinates": [
          [
            74.0210667,
            15.1862544
          ]
        ]
      },
      "properties": {
        "Vehicle_No": "GA07G2384- Cuncolim",
        "Vehicle_Name": "AT 5032-4G",
        "Branch": "Fire Station Cuncolim",
        "created": "13-01-2026 05:27:45+05:30",
        "lastUpdated": "13-01-2026 05:27:45+05:30"
      }
    },
    {
      "type": "Feature",
      "geometry": {
        "type": "LineString",
        "coordinates": [
          [
            73.7976483,
            15.7164417
          ]
        ]
      },
      "properties": {
        "Vehicle_No": "GA07G2507 - PER Mid Size (Water Tender)",
        "Vehicle_Name": "5035",
        "Branch": "Fire Station Pernem",
        "created": "13-01-2026 05:29:25+05:30",
        "lastUpdated": "13-01-2026 05:29:25+05:30"
      }
    },
    {
      "type": "Feature",
      "geometry": {
        "type": "LineString",
        "coordinates": [
          [
            74.1389,
            15.5310317
          ]
        ]
      },
      "properties": {
        "Vehicle_No": "GA07G2505 - VAP Mid Size (Water Tender)",
        "Vehicle_Name": "5035",
        "Branch": "Fire Station Valpoi",
        "created": "13-01-2026 05:29:12+05:30",
        "lastUpdated": "13-01-2026 05:29:12+05:30"
      }
    },
    {
      "type": "Feature",
      "geometry": {
        "type": "LineString",
        "coordinates": [
          [
            73.94707,
            15.5899517
          ],
          [
            73.9469567,
            15.58977
          ]
        ]
      },
      "properties": {
        "Vehicle_No": "GA07G2504 - BIC Mid Size (Water Tender)",
        "Vehicle_Name": "5035",
        "Branch": "Fire Station Bicholim",
        "created": "13-01-2026 05:29:09+05:30",
        "lastUpdated": "13-01-2026 05:30:06+05:30"
      }
    },
    {
      "type": "Feature",
      "geometry": {
        "type": "LineString",
        "coordinates": [
          [
            73.808715,
            15.5900167
          ]
        ]
      },
      "properties": {
        "Vehicle_No": "GA07G2503- MAP Mid Size (Water Tender)",
        "Vehicle_Name": "5035",
        "Branch": "Fire Station Mapusa",
        "created": "13-01-2026 05:29:28+05:30",
        "lastUpdated": "13-01-2026 05:29:28+05:30"
      }
    },
    {
      "type": "Feature",
      "geometry": {
        "type": "LineString",
        "coordinates": [
          [
            73.816715,
            15.4872067
          ],
          [
            73.817155,
            15.4863633
          ],
          [
            73.8173183,
            15.48632
          ],
          [
            73.8173267,
            15.4863133
          ]
        ]
      },
      "properties": {
        "Vehicle_No": "GA07G2502 - FFHQ Mid Size (Water Tender)",
        "Vehicle_Name": "5035",
        "Branch": "Fire Force Headquarters",
        "created": "13-01-2026 05:29:16+05:30",
        "lastUpdated": "13-01-2026 07:21:01+05:30"
      }
    }
  ]
}