{
  "type": "FeatureCollection",
  "metadata": {
    "date": "20260109",
    "source": "Directorate of Fire Emergency Services, Govt. of Goa",
    "description": "Daily GPS tracks of fire trucks",
    "lastUpdated": "2026-01-09T01:45:34.264Z",
    "count": 52
  },
  "features": [
    {
      "type": "Feature",
      "geometry": {
        "type": "LineString",
        "coordinates": [
          [
            73.7935783,
            15.5327617
          ]
        ]
      },
      "properties": {
        "Vehicle_No": "GA 07 G 0680-PIL(QUICK RESPONSE VEHICLE)",
        "Vehicle_Name": "4G",
        "Branch": "Fire Station Pilerne",
        "created": "09-01-2026 05:30:23+05:30",
        "lastUpdated": "09-01-2026 05:30:23+05:30"
      }
    },
    {
      "type": "Feature",
      "geometry": {
        "type": "LineString",
        "coordinates": [
          [
            73.914078,
            15.500318
          ]
        ]
      },
      "properties": {
        "Vehicle_No": "GA07G2506 - OLG Mid Size (Water Tender)",
        "Vehicle_Name": "TS101",
        "Branch": "Fire Station Old Goa",
        "created": "09-01-2026 05:30:20+05:30",
        "lastUpdated": "09-01-2026 05:30:20+05:30"
      }
    },
    {
      "type": "Feature",
      "geometry": {
        "type": "LineString",
        "coordinates": [
          [
            73.829391,
            15.523037
          ]
        ]
      },
      "properties": {
        "Vehicle_No": "GA 07 G 5115-POR(MINI WATER TENDER)",
        "Vehicle_Name": "TS101",
        "Branch": "Fire Station Porvorim",
        "created": "09-01-2026 05:30:18+05:30",
        "lastUpdated": "09-01-2026 05:30:18+05:30"
      }
    },
    {
      "type": "Feature",
      "geometry": {
        "type": "LineString",
        "coordinates": [
          [
            73.97068,
            15.269435
          ],
          [
            73.970642,
            15.26947
          ]
        ]
      },
      "properties": {
        "Vehicle_No": "GA 07 G 0350-MRG(WATER TENDER)",
        "Vehicle_Name": "TS101",
        "Branch": "Fire Station Margao",
        "created": "09-01-2026 05:26:40+05:30",
        "lastUpdated": "09-01-2026 05:30:45+05:30"
      }
    },
    {
      "type": "Feature",
      "geometry": {
        "type": "LineString",
        "coordinates": [
          [
            73.80883,
            15.589855
          ],
          [
            73.80864,
            15.589927
          ]
        ]
      },
      "properties": {
        "Vehicle_No": "GA 07 G 2900-MAP(MINI RESCUE TENDER)",
        "Vehicle_Name": "TS101",
        "Branch": "Fire Station Mapusa",
        "created": "09-01-2026 05:29:25+05:30",
        "lastUpdated": "09-01-2026 05:33:29+05:30"
      }
    },
    {
      "type": "Feature",
      "geometry": {
        "type": "LineString",
        "coordinates": [
          [
            73.817245,
            15.487262
          ],
          [
            73.81736,
            15.487338
          ],
          [
            73.817253,
            15.487255
          ],
          [
            73.817139,
            15.48713
          ],
          [
            73.814804,
            15.48924
          ],
          [
            73.812675,
            15.487293
          ],
          [
            73.811523,
            15.486035
          ],
          [
            73.808937,
            15.48232
          ],
          [
            73.808311,
            15.476933
          ],
          [
            73.807816,
            15.47045
          ],
          [
            73.805542,
            15.464292
          ],
          [
            73.803581,
            15.458413
          ],
          [
            73.803474,
            15.457457
          ],
          [
            73.804077,
            15.461805
          ],
          [
            73.806679,
            15.466492
          ],
          [
            73.808533,
            15.474272
          ],
          [
            73.808662,
            15.481138
          ],
          [
            73.810883,
            15.485355
          ],
          [
            73.814636,
            15.489478
          ],
          [
            73.817581,
            15.487028
          ],
          [
            73.817223,
            15.486722
          ],
          [
            73.817223,
            15.48635
          ],
          [
            73.817383,
            15.486337
          ],
          [
            73.817123,
            15.48656
          ],
          [
            73.817116,
            15.487027
          ],
          [
            73.817131,
            15.48713
          ],
          [
            73.817139,
            15.48714
          ]
        ]
      },
      "properties": {
        "Vehicle_No": "GA 07 G 7600-FFHQ(WATER BOUSER)",
        "Vehicle_Name": "TS101",
        "Branch": "Fire Force Headquarters",
        "created": "09-01-2026 05:29:30+05:30",
        "lastUpdated": "09-01-2026 07:11:46+05:30"
      }
    },
    {
      "type": "Feature",
      "geometry": {
        "type": "LineString",
        "coordinates": [
          [
            73.817238,
            15.487452
          ]
        ]
      },
      "properties": {
        "Vehicle_No": "GA 07 G 2002-FFHQ(TURN TABLE LADDER)",
        "Vehicle_Name": "TS101",
        "Branch": "Fire Force Headquarters",
        "created": "09-01-2026 05:30:32+05:30",
        "lastUpdated": "09-01-2026 05:30:32+05:30"
      }
    },
    {
      "type": "Feature",
      "geometry": {
        "type": "LineString",
        "coordinates": [
          [
            73.817123,
            15.486768
          ],
          [
            73.816902,
            15.486882
          ],
          [
            73.816986,
            15.486787
          ],
          [
            73.817169,
            15.486782
          ],
          [
            73.815773,
            15.488432
          ],
          [
            73.813148,
            15.487807
          ],
          [
            73.810059,
            15.484173
          ],
          [
            73.808479,
            15.478838
          ],
          [
            73.808121,
            15.471643
          ],
          [
            73.803566,
            15.458448
          ],
          [
            73.80294,
            15.457178
          ]
        ]
      },
      "properties": {
        "Vehicle_No": "GA 07 G 7101-FFHQ(WATER TENDER)",
        "Vehicle_Name": "TS101",
        "Branch": "Fire Force Headquarters",
        "created": "09-01-2026 05:26:47+05:30",
        "lastUpdated": "09-01-2026 07:15:26+05:30"
      }
    },
    {
      "type": "Feature",
      "geometry": {
        "type": "LineString",
        "coordinates": [
          [
            73.817055,
            15.486987
          ],
          [
            73.817268,
            15.48704
          ],
          [
            73.817131,
            15.486975
          ],
          [
            73.817123,
            15.487022
          ],
          [
            73.8172,
            15.486982
          ],
          [
            73.817177,
            15.48703
          ],
          [
            73.817116,
            15.487002
          ],
          [
            73.817123,
            15.487037
          ],
          [
            73.817139,
            15.48704
          ],
          [
            73.817177,
            15.487042
          ],
          [
            73.817062,
            15.487087
          ],
          [
            73.817451,
            15.48676
          ],
          [
            73.814674,
            15.48928
          ],
          [
            73.81826,
            15.493615
          ],
          [
            73.820221,
            15.498955
          ],
          [
            73.823334,
            15.500673
          ],
          [
            73.829475,
            15.501038
          ],
          [
            73.837959,
            15.499023
          ],
          [
            73.834229,
            15.499632
          ],
          [
            73.827415,
            15.501207
          ],
          [
            73.819267,
            15.497068
          ],
          [
            73.816956,
            15.491943
          ],
          [
            73.816063,
            15.48817
          ],
          [
            73.817444,
            15.486738
          ],
          [
            73.817268,
            15.486383
          ],
          [
            73.817268,
            15.48638
          ],
          [
            73.817375,
            15.486288
          ]
        ]
      },
      "properties": {
        "Vehicle_No": "GA 07 G 7677-FFHQ(EMERGENCY RESCUE)",
        "Vehicle_Name": "TS101",
        "Branch": "Fire Force Headquarters",
        "created": "09-01-2026 05:26:51+05:30",
        "lastUpdated": "09-01-2026 07:15:29+05:30"
      }
    },
    {
      "type": "Feature",
      "geometry": {
        "type": "LineString",
        "coordinates": [
          [
            73.817139,
            15.487145
          ],
          [
            73.817398,
            15.487247
          ],
          [
            73.817245,
            15.487267
          ],
          [
            73.817207,
            15.487177
          ],
          [
            73.817207,
            15.487192
          ],
          [
            73.817215,
            15.48719
          ],
          [
            73.817238,
            15.48718
          ],
          [
            73.81723,
            15.487208
          ],
          [
            73.817223,
            15.487148
          ],
          [
            73.817192,
            15.487148
          ],
          [
            73.817177,
            15.487168
          ],
          [
            73.817184,
            15.487235
          ],
          [
            73.817184,
            15.487192
          ],
          [
            73.8172,
            15.487177
          ]
        ]
      },
      "properties": {
        "Vehicle_No": "GA 07 G 1121-PNJ(EMERGENCY RESCUE)",
        "Vehicle_Name": "TS101",
        "Branch": "Fire Station Panaji",
        "created": "09-01-2026 05:26:45+05:30",
        "lastUpdated": "09-01-2026 07:05:30+05:30"
      }
    },
    {
      "type": "Feature",
      "geometry": {
        "type": "LineString",
        "coordinates": [
          [
            73.817444,
            15.486623
          ],
          [
            73.817589,
            15.486692
          ],
          [
            73.817436,
            15.486608
          ]
        ]
      },
      "properties": {
        "Vehicle_No": "GA 07 G 1571-FFHQ(QUICK RESPONSE)",
        "Vehicle_Name": "TS101",
        "Branch": "Fire Force Headquarters",
        "created": "09-01-2026 05:28:49+05:30",
        "lastUpdated": "09-01-2026 07:15:31+05:30"
      }
    },
    {
      "type": "Feature",
      "geometry": {
        "type": "LineString",
        "coordinates": [
          [
            73.808792,
            15.590107
          ],
          [
            73.808678,
            15.589948
          ]
        ]
      },
      "properties": {
        "Vehicle_No": "GA 07 G 8101-MAP(WATER TENDER)",
        "Vehicle_Name": "TS101",
        "Branch": "Fire Station Mapusa",
        "created": "09-01-2026 05:27:24+05:30",
        "lastUpdated": "09-01-2026 05:31:28+05:30"
      }
    },
    {
      "type": "Feature",
      "geometry": {
        "type": "LineString",
        "coordinates": [
          [
            73.9701416,
            15.2693666
          ],
          [
            73.9702316,
            15.2693733
          ],
          [
            73.969995,
            15.26931
          ],
          [
            73.9701983,
            15.269405
          ],
          [
            73.9701416,
            15.269315
          ],
          [
            73.970125,
            15.2693483
          ],
          [
            73.9702233,
            15.2692033
          ],
          [
            73.9701816,
            15.269385
          ],
          [
            73.9704916,
            15.269365
          ],
          [
            73.9702316,
            15.26937
          ],
          [
            73.9700766,
            15.2693666
          ],
          [
            73.9702316,
            15.2693916
          ],
          [
            73.970255,
            15.2692783
          ],
          [
            73.9702066,
            15.2692999
          ],
          [
            73.9700933,
            15.26946
          ],
          [
            73.9701816,
            15.26941
          ],
          [
            73.9701983,
            15.2694199
          ],
          [
            73.97019,
            15.269385
          ],
          [
            73.9701816,
            15.2693966
          ],
          [
            73.9702066,
            15.2692766
          ],
          [
            73.9702316,
            15.2693033
          ],
          [
            73.970215,
            15.2693416
          ],
          [
            73.970215,
            15.2693683
          ],
          [
            73.9702233,
            15.26941
          ],
          [
            73.9701733,
            15.2693783
          ],
          [
            73.9702066,
            15.2693299
          ],
          [
            73.9701416,
            15.2693283
          ],
          [
            73.9702066,
            15.269265
          ],
          [
            73.97028,
            15.269275
          ],
          [
            73.970305,
            15.2693183
          ],
          [
            73.9702466,
            15.2693516
          ],
          [
            73.970125,
            15.2693683
          ],
          [
            73.9703133,
            15.2692866
          ],
          [
            73.9701016,
            15.2693183
          ],
          [
            73.97019,
            15.2693383
          ],
          [
            73.970085,
            15.2693733
          ],
          [
            73.970475,
            15.2693283
          ],
          [
            73.9704099,
            15.269305
          ],
          [
            73.970215,
            15.26923
          ],
          [
            73.9701416,
            15.2694116
          ],
          [
            73.9700283,
            15.2693583
          ],
          [
            73.9703783,
            15.269395
          ],
          [
            73.97002,
            15.2693733
          ],
          [
            73.9700933,
            15.26937
          ],
          [
            73.9702066,
            15.2693283
          ],
          [
            73.9702233,
            15.2694216
          ],
          [
            73.97015,
            15.26937
          ],
          [
            73.970085,
            15.269365
          ],
          [
            73.9701333,
            15.2693433
          ],
          [
            73.9701416,
            15.269265
          ],
          [
            73.9701816,
            15.2693733
          ],
          [
            73.9700516,
            15.2693216
          ],
          [
            73.97006,
            15.2694166
          ],
          [
            73.9700516,
            15.2694766
          ],
          [
            73.9703366,
            15.2693749
          ],
          [
            73.9702883,
            15.2693416
          ],
          [
            73.97006,
            15.2694266
          ],
          [
            73.9703199,
            15.269365
          ],
          [
            73.970215,
            15.2693416
          ],
          [
            73.9701666,
            15.2691866
          ],
          [
            73.9702633,
            15.2693616
          ],
          [
            73.9702966,
            15.2693283
          ],
          [
            73.9702633,
            15.2693433
          ],
          [
            73.9703199,
            15.2693433
          ],
          [
            73.96989,
            15.2693483
          ],
          [
            73.9699383,
            15.2693566
          ],
          [
            73.9704099,
            15.269535
          ],
          [
            73.9701733,
            15.2693916
          ],
          [
            73.970435,
            15.2692966
          ],
          [
            73.9703199,
            15.2693866
          ],
          [
            73.9700516,
            15.2693299
          ],
          [
            73.9701583,
            15.2693333
          ],
          [
            73.9701166,
            15.2693033
          ],
          [
            73.970125,
            15.26935
          ],
          [
            73.9699866,
            15.269425
          ],
          [
            73.9702233,
            15.2691833
          ],
          [
            73.9700933,
            15.2693583
          ],
          [
            73.9700283,
            15.2694616
          ],
          [
            73.9701666,
            15.269405
          ],
          [
            73.970085,
            15.2694666
          ],
          [
            73.9701583,
            15.2693733
          ],
          [
            73.9702633,
            15.2692166
          ],
          [
            73.9702633,
            15.2692549
          ],
          [
            73.9702233,
            15.2693183
          ],
          [
            73.970215,
            15.2693466
          ],
          [
            73.97037,
            15.2693983
          ]
        ]
      },
      "properties": {
        "Vehicle_No": "GA 07 G 2317-MRG(EMERGENCY RESCUE TENDER)",
        "Vehicle_Name": "5035",
        "Branch": "Fire Station Margao",
        "created": "09-01-2026 05:29:53+05:30",
        "lastUpdated": "09-01-2026 07:14:38+05:30"
      }
    },
    {
      "type": "Feature",
      "geometry": {
        "type": "LineString",
        "coordinates": [
          [
            73.872005,
            15.3958733
          ],
          [
            73.8818433,
            15.3979066
          ],
          [
            73.8884116,
            15.401025
          ],
          [
            73.8932533,
            15.4051733
          ],
          [
            73.8931399,
            15.4053916
          ],
          [
            73.8931483,
            15.4053866
          ],
          [
            73.8931233,
            15.4053916
          ]
        ]
      },
      "properties": {
        "Vehicle_No": "GA 07 G 1570-VAS(QUICK RESPONSE FIRE TENDER)",
        "Vehicle_Name": "5035",
        "Branch": "Fire Station Vasco",
        "created": "09-01-2026 05:30:24+05:30",
        "lastUpdated": "09-01-2026 06:05:12+05:30"
      }
    },
    {
      "type": "Feature",
      "geometry": {
        "type": "LineString",
        "coordinates": [
          [
            73.8512533,
            15.3888383
          ]
        ]
      },
      "properties": {
        "Vehicle_No": "GA 07 G 4101-VAS(MS WATER TENDER)",
        "Vehicle_Name": "5035",
        "Branch": "Fire Station Vasco",
        "created": "09-01-2026 05:29:50+05:30",
        "lastUpdated": "09-01-2026 05:29:50+05:30"
      }
    },
    {
      "type": "Feature",
      "geometry": {
        "type": "LineString",
        "coordinates": [
          [
            73.8513667,
            15.3888367
          ],
          [
            73.8512533,
            15.388825
          ],
          [
            73.851245,
            15.388885
          ],
          [
            73.8512617,
            15.3888833
          ]
        ]
      },
      "properties": {
        "Vehicle_No": "GA 07 G 0819-VAS(WATER/FOAM TENDER)",
        "Vehicle_Name": "4G",
        "Branch": "Fire Station Vasco",
        "created": "09-01-2026 05:30:18+05:30",
        "lastUpdated": "09-01-2026 06:54:21+05:30"
      }
    },
    {
      "type": "Feature",
      "geometry": {
        "type": "LineString",
        "coordinates": [
          [
            73.97015,
            15.2694533
          ]
        ]
      },
      "properties": {
        "Vehicle_No": "GA 07 G 7100-MRG(WATER BOUSER)",
        "Vehicle_Name": "5035",
        "Branch": "Fire Station Margao",
        "created": "09-01-2026 05:29:58+05:30",
        "lastUpdated": "09-01-2026 05:29:58+05:30"
      }
    },
    {
      "type": "Feature",
      "geometry": {
        "type": "LineString",
        "coordinates": [
          [
            73.9704183,
            15.269415
          ]
        ]
      },
      "properties": {
        "Vehicle_No": "GA 07 G 1568-MRG(QUICK RESPONSE )",
        "Vehicle_Name": "5035",
        "Branch": "Fire Station Margao",
        "created": "09-01-2026 05:30:12+05:30",
        "lastUpdated": "09-01-2026 05:30:12+05:30"
      }
    },
    {
      "type": "Feature",
      "geometry": {
        "type": "LineString",
        "coordinates": [
          [
            73.9700933,
            15.2693916
          ]
        ]
      },
      "properties": {
        "Vehicle_No": "GA 07 G 6101-MRG(WATER TENDER)",
        "Vehicle_Name": "5035",
        "Branch": "Fire Station Margao",
        "created": "09-01-2026 05:30:29+05:30",
        "lastUpdated": "09-01-2026 05:30:29+05:30"
      }
    },
    {
      "type": "Feature",
      "geometry": {
        "type": "LineString",
        "coordinates": [
          [
            73.9701083,
            15.2694383
          ],
          [
            73.9695233,
            15.272545
          ]
        ]
      },
      "properties": {
        "Vehicle_No": "GA 07 G 1001-MRG(AERIAL LADDER PLATFORM)",
        "Vehicle_Name": "5035",
        "Branch": "Fire Station Margao",
        "created": "09-01-2026 05:29:52+05:30",
        "lastUpdated": "09-01-2026 07:00:42+05:30"
      }
    },
    {
      "type": "Feature",
      "geometry": {
        "type": "LineString",
        "coordinates": [
          [
            74.0028789,
            15.4028
          ]
        ]
      },
      "properties": {
        "Vehicle_No": "GA 07 G 0820-BIC(WATER TEDNER)",
        "Vehicle_Name": "5026",
        "Branch": "Fire Station Bicholim",
        "created": "09-01-2026 05:29:17+05:30",
        "lastUpdated": "09-01-2026 05:29:17+05:30"
      }
    },
    {
      "type": "Feature",
      "geometry": {
        "type": "LineString",
        "coordinates": [
          [
            73.914055,
            15.5001633
          ]
        ]
      },
      "properties": {
        "Vehicle_No": "GA 07 G 5101-OLG(MS WATER TENDER)",
        "Vehicle_Name": "5035",
        "Branch": "Fire Station Old Goa",
        "created": "09-01-2026 05:30:32+05:30",
        "lastUpdated": "09-01-2026 05:30:32+05:30"
      }
    },
    {
      "type": "Feature",
      "geometry": {
        "type": "LineString",
        "coordinates": [
          [
            73.9465733,
            15.5891983
          ],
          [
            73.946615,
            15.589045
          ],
          [
            73.9467283,
            15.58907
          ],
          [
            73.94668,
            15.5891583
          ],
          [
            73.9464116,
            15.5887783
          ],
          [
            73.9468349,
            15.58937
          ],
          [
            73.9464766,
            15.5891333
          ],
          [
            73.9466316,
            15.5894433
          ],
          [
            73.9468183,
            15.5893716
          ],
          [
            73.946785,
            15.5893516
          ],
          [
            73.9467283,
            15.5891666
          ],
          [
            73.9467116,
            15.58916
          ],
          [
            73.94672,
            15.589225
          ],
          [
            73.9467033,
            15.5893583
          ],
          [
            73.94677,
            15.5895316
          ],
          [
            73.94677,
            15.5895749
          ],
          [
            73.9467449,
            15.58948
          ],
          [
            73.9464933,
            15.5893683
          ],
          [
            73.9465649,
            15.5893933
          ],
          [
            73.9466549,
            15.5893716
          ],
          [
            73.94672,
            15.589305
          ],
          [
            73.9467616,
            15.589225
          ],
          [
            73.9467033,
            15.5892433
          ],
          [
            73.9467449,
            15.5892516
          ]
        ]
      },
      "properties": {
        "Vehicle_No": "GA 07 G 3101-BIC(MS WATER TENDER)",
        "Vehicle_Name": "5035",
        "Branch": "Fire Station Bicholim",
        "created": "09-01-2026 05:29:47+05:30",
        "lastUpdated": "09-01-2026 07:15:26+05:30"
      }
    },
    {
      "type": "Feature",
      "geometry": {
        "type": "LineString",
        "coordinates": [
          [
            73.9467033,
            15.5894333
          ]
        ]
      },
      "properties": {
        "Vehicle_No": "GA 07 G 1941-BIC(QUICK RESPONSE)",
        "Vehicle_Name": "5035",
        "Branch": "Fire Station Bicholim",
        "created": "09-01-2026 05:30:35+05:30",
        "lastUpdated": "09-01-2026 05:30:35+05:30"
      }
    },
    {
      "type": "Feature",
      "geometry": {
        "type": "LineString",
        "coordinates": [
          [
            73.8478433,
            15.3892083
          ]
        ]
      },
      "properties": {
        "Vehicle_No": "GA 07 G 2319-VAS (EMERGENCY RESCUE TENDER)",
        "Vehicle_Name": "5035",
        "Branch": "Fire Station Vasco",
        "created": "09-01-2026 05:29:09+05:30",
        "lastUpdated": "09-01-2026 05:29:09+05:30"
      }
    },
    {
      "type": "Feature",
      "geometry": {
        "type": "LineString",
        "coordinates": [
          [
            74.1389566,
            15.53102
          ]
        ]
      },
      "properties": {
        "Vehicle_No": "GA 07 G 3737-VAP(WATER TENDER)",
        "Vehicle_Name": "5035",
        "Branch": "Fire Station Valpoi",
        "created": "09-01-2026 05:30:24+05:30",
        "lastUpdated": "09-01-2026 05:30:24+05:30"
      }
    },
    {
      "type": "Feature",
      "geometry": {
        "type": "LineString",
        "coordinates": [
          [
            74.0028566,
            15.4028366
          ]
        ]
      },
      "properties": {
        "Vehicle_No": "GA 07 G 2318-PND(EMERGENCY RESCUE TENDER)",
        "Vehicle_Name": "5035",
        "Branch": "Fire Station Ponda",
        "created": "09-01-2026 05:29:50+05:30",
        "lastUpdated": "09-01-2026 05:29:50+05:30"
      }
    },
    {
      "type": "Feature",
      "geometry": {
        "type": "LineString",
        "coordinates": [
          [
            73.9073083,
            15.4141016
          ]
        ]
      },
      "properties": {
        "Vehicle_No": "GA 07 G 2004-PND(QUICK RESPONSE)",
        "Vehicle_Name": "5035",
        "Branch": "Fire Station Ponda",
        "created": "30-12-2025 13:47:09+05:30",
        "lastUpdated": "30-12-2025 13:47:09+05:30"
      }
    },
    {
      "type": "Feature",
      "geometry": {
        "type": "LineString",
        "coordinates": [
          [
            74.0034016,
            15.4023983
          ],
          [
            74.003435,
            15.4024083
          ]
        ]
      },
      "properties": {
        "Vehicle_No": "GA 07 G 9101-PND(WATER TENDER)",
        "Vehicle_Name": "5035",
        "Branch": "Fire Station Ponda",
        "created": "09-01-2026 05:30:22+05:30",
        "lastUpdated": "09-01-2026 07:02:16+05:30"
      }
    },
    {
      "type": "Feature",
      "geometry": {
        "type": "LineString",
        "coordinates": [
          [
            73.95428,
            15.419715
          ]
        ]
      },
      "properties": {
        "Vehicle_No": "GA 07 G 9797-PND(WATER BOUSER)",
        "Vehicle_Name": "5035",
        "Branch": "Fire Station Ponda",
        "created": "08-01-2026 15:17:01+05:30",
        "lastUpdated": "08-01-2026 15:17:01+05:30"
      }
    },
    {
      "type": "Feature",
      "geometry": {
        "type": "LineString",
        "coordinates": [
          [
            74.0440666,
            15.0236383
          ]
        ]
      },
      "properties": {
        "Vehicle_No": "GA 07 G 6363-CAN(WATER TENDER)",
        "Vehicle_Name": "5035",
        "Branch": "Fire Station Canacona",
        "created": "09-01-2026 05:29:42+05:30",
        "lastUpdated": "09-01-2026 05:29:42+05:30"
      }
    },
    {
      "type": "Feature",
      "geometry": {
        "type": "LineString",
        "coordinates": [
          [
            74.044075,
            15.0236533
          ]
        ]
      },
      "properties": {
        "Vehicle_No": "GA 07 G 1567-CAN(QUICK RESPONSE FT)",
        "Vehicle_Name": "5035",
        "Branch": "Fire Station Canacona",
        "created": "09-01-2026 05:29:55+05:30",
        "lastUpdated": "09-01-2026 05:29:55+05:30"
      }
    },
    {
      "type": "Feature",
      "geometry": {
        "type": "LineString",
        "coordinates": [
          [
            73.9356933,
            15.3697366
          ],
          [
            73.9354733,
            15.3697116
          ]
        ]
      },
      "properties": {
        "Vehicle_No": "GA 07 G 1569-VRN(QUICK RESPONSE)",
        "Vehicle_Name": "5035",
        "Branch": "Fire Station Verna",
        "created": "09-01-2026 05:30:04+05:30",
        "lastUpdated": "09-01-2026 05:30:49+05:30"
      }
    },
    {
      "type": "Feature",
      "geometry": {
        "type": "LineString",
        "coordinates": [
          [
            73.9361416,
            15.3695733
          ]
        ]
      },
      "properties": {
        "Vehicle_No": "GA 07 G 9909-VRN(ADVANCE MULTI-PURPOSE)",
        "Vehicle_Name": "5035",
        "Branch": "Fire Station Verna",
        "created": "09-01-2026 05:30:33+05:30",
        "lastUpdated": "09-01-2026 05:30:33+05:30"
      }
    },
    {
      "type": "Feature",
      "geometry": {
        "type": "LineString",
        "coordinates": [
          [
            74.1388183,
            15.5310816
          ]
        ]
      },
      "properties": {
        "Vehicle_No": "GA 07 G 1942-VAP(QUICK RESPONSE)",
        "Vehicle_Name": "5035",
        "Branch": "Fire Station Valpoi",
        "created": "09-01-2026 05:30:35+05:30",
        "lastUpdated": "09-01-2026 05:30:35+05:30"
      }
    },
    {
      "type": "Feature",
      "geometry": {
        "type": "LineString",
        "coordinates": [
          [
            74.101905,
            15.2610066
          ]
        ]
      },
      "properties": {
        "Vehicle_No": "GA 07 G 2003-CUR(QUICK RESPONSE)",
        "Vehicle_Name": "5035",
        "Branch": "Fire Station Curchorem",
        "created": "09-01-2026 05:29:21+05:30",
        "lastUpdated": "09-01-2026 05:29:21+05:30"
      }
    },
    {
      "type": "Feature",
      "geometry": {
        "type": "LineString",
        "coordinates": [
          [
            74.1037683,
            15.2604566
          ]
        ]
      },
      "properties": {
        "Vehicle_No": "GA 07 G 7447-CUR(EMERGENCY RESCUE)",
        "Vehicle_Name": "5035",
        "Branch": "Fire Station Curchorem",
        "created": "09-01-2026 05:30:06+05:30",
        "lastUpdated": "09-01-2026 05:30:06+05:30"
      }
    },
    {
      "type": "Feature",
      "geometry": {
        "type": "LineString",
        "coordinates": [
          [
            74.1034266,
            15.2604416
          ]
        ]
      },
      "properties": {
        "Vehicle_No": "GA 07 G 7557-CUR(WATER TENDER)",
        "Vehicle_Name": "5035",
        "Branch": "Fire Station Curchorem",
        "created": "09-01-2026 05:30:22+05:30",
        "lastUpdated": "09-01-2026 05:30:22+05:30"
      }
    },
    {
      "type": "Feature",
      "geometry": {
        "type": "LineString",
        "coordinates": [
          [
            74.1037433,
            15.2603333
          ]
        ]
      },
      "properties": {
        "Vehicle_No": "GA 07 G 7667-CUR(WATER BOUSER)",
        "Vehicle_Name": "5035",
        "Branch": "Fire Station Curchorem",
        "created": "09-01-2026 05:29:39+05:30",
        "lastUpdated": "09-01-2026 05:29:39+05:30"
      }
    },
    {
      "type": "Feature",
      "geometry": {
        "type": "LineString",
        "coordinates": [
          [
            73.9725417,
            15.4630933
          ],
          [
            73.9723233,
            15.4634433
          ],
          [
            73.9728183,
            15.4629183
          ]
        ]
      },
      "properties": {
        "Vehicle_No": "GA 07 G 4989-KUN(WATER TENDER)",
        "Vehicle_Name": "G-100",
        "Branch": "Fire Station Kundaim",
        "created": "09-01-2026 05:29:21+05:30",
        "lastUpdated": "09-01-2026 06:10:24+05:30"
      }
    },
    {
      "type": "Feature",
      "geometry": {
        "type": "LineString",
        "coordinates": [
          [
            73.7941972,
            15.5329156
          ],
          [
            73.7939206,
            15.53295
          ]
        ]
      },
      "properties": {
        "Vehicle_No": "GA 07 G 2242-PIL(WATER TENDER)",
        "Vehicle_Name": "5026",
        "Branch": "Fire Station Pilerne",
        "created": "09-01-2026 05:29:58+05:30",
        "lastUpdated": "09-01-2026 05:32:37+05:30"
      }
    },
    {
      "type": "Feature",
      "geometry": {
        "type": "LineString",
        "coordinates": [
          [
            73.8087483,
            15.5897567
          ]
        ]
      },
      "properties": {
        "Vehicle_No": "GA 07 G 0681-MAP(QUICK RESPONSE)",
        "Vehicle_Name": "AT 5036A-4G",
        "Branch": "Fire Station Mapusa",
        "created": "09-01-2026 05:30:26+05:30",
        "lastUpdated": "09-01-2026 05:30:26+05:30"
      }
    },
    {
      "type": "Feature",
      "geometry": {
        "type": "LineString",
        "coordinates": [
          [
            73.7974239,
            15.7164939
          ]
        ]
      },
      "properties": {
        "Vehicle_No": "GA 07 G 0307-PER(QUICK RESPONSE)",
        "Vehicle_Name": "AT5032-4G",
        "Branch": "Fire Station Pernem",
        "created": "23-10-2025 15:19:09+05:30",
        "lastUpdated": "23-10-2025 15:19:09+05:30"
      }
    },
    {
      "type": "Feature",
      "geometry": {
        "type": "LineString",
        "coordinates": [
          [
            73.7976139,
            15.7164994
          ]
        ]
      },
      "properties": {
        "Vehicle_No": "GA 07 G 2101-PER(MS WATER TENDER)",
        "Vehicle_Name": "AT5032-4G",
        "Branch": "Fire Station Pernem",
        "created": "09-01-2026 05:29:10+05:30",
        "lastUpdated": "09-01-2026 05:29:10+05:30"
      }
    },
    {
      "type": "Feature",
      "geometry": {
        "type": "LineString",
        "coordinates": [
          [
            73.7975489,
            15.7165044
          ]
        ]
      },
      "properties": {
        "Vehicle_No": "GA 07 G 4600-PER(MINI RESCUE TENDER)",
        "Vehicle_Name": "AT 5032-4G",
        "Branch": "Fire Station Pernem",
        "created": "09-01-2026 05:27:59+05:30",
        "lastUpdated": "09-01-2026 05:27:59+05:30"
      }
    },
    {
      "type": "Feature",
      "geometry": {
        "type": "LineString",
        "coordinates": [
          [
            73.8176589,
            15.4874906
          ],
          [
            73.8170811,
            15.4869839
          ],
          [
            73.8174233,
            15.4868917
          ],
          [
            73.8176517,
            15.4870267
          ]
        ]
      },
      "properties": {
        "Vehicle_No": "GA 07 G 7272-PNJ(WATER TENDER)",
        "Vehicle_Name": "AT-5032-4G",
        "Branch": "Fire Station Panaji",
        "created": "09-01-2026 05:29:29+05:30",
        "lastUpdated": "09-01-2026 07:15:30+05:30"
      }
    },
    {
      "type": "Feature",
      "geometry": {
        "type": "LineString",
        "coordinates": [
          [
            74.0210633,
            15.1862844
          ]
        ]
      },
      "properties": {
        "Vehicle_No": "GA07G2384- Cuncolim",
        "Vehicle_Name": "AT 5032-4G",
        "Branch": "Fire Station Cuncolim",
        "created": "09-01-2026 05:28:21+05:30",
        "lastUpdated": "09-01-2026 05:28:21+05:30"
      }
    },
    {
      "type": "Feature",
      "geometry": {
        "type": "LineString",
        "coordinates": [
          [
            73.7976483,
            15.7164517
          ]
        ]
      },
      "properties": {
        "Vehicle_No": "GA07G2507 - PER Mid Size (Water Tender)",
        "Vehicle_Name": "5035",
        "Branch": "Fire Station Pernem",
        "created": "09-01-2026 05:29:40+05:30",
        "lastUpdated": "09-01-2026 05:29:40+05:30"
      }
    },
    {
      "type": "Feature",
      "geometry": {
        "type": "LineString",
        "coordinates": [
          [
            74.1386067,
            15.5309367
          ]
        ]
      },
      "properties": {
        "Vehicle_No": "GA07G2505 - VAP Mid Size (Water Tender)",
        "Vehicle_Name": "5035",
        "Branch": "Fire Station Valpoi",
        "created": "09-01-2026 05:29:44+05:30",
        "lastUpdated": "09-01-2026 05:29:44+05:30"
      }
    },
    {
      "type": "Feature",
      "geometry": {
        "type": "LineString",
        "coordinates": [
          [
            73.9466717,
            15.5895433
          ],
          [
            73.9465583,
            15.58949
          ]
        ]
      },
      "properties": {
        "Vehicle_No": "GA07G2504 - BIC Mid Size (Water Tender)",
        "Vehicle_Name": "5035",
        "Branch": "Fire Station Bicholim",
        "created": "09-01-2026 05:30:03+05:30",
        "lastUpdated": "09-01-2026 05:31:01+05:30"
      }
    },
    {
      "type": "Feature",
      "geometry": {
        "type": "LineString",
        "coordinates": [
          [
            73.8086183,
            15.5900833
          ]
        ]
      },
      "properties": {
        "Vehicle_No": "GA07G2503- MAP Mid Size (Water Tender)",
        "Vehicle_Name": "5035",
        "Branch": "Fire Station Mapusa",
        "created": "09-01-2026 05:30:33+05:30",
        "lastUpdated": "09-01-2026 05:30:33+05:30"
      }
    },
    {
      "type": "Feature",
      "geometry": {
        "type": "LineString",
        "coordinates": [
          [
            73.8170817,
            15.48678
          ],
          [
            73.817065,
            15.486995
          ],
          [
            73.8146967,
            15.489355
          ],
          [
            73.8165117,
            15.49148
          ],
          [
            73.8191733,
            15.4964233
          ],
          [
            73.821395,
            15.500075
          ],
          [
            73.8312417,
            15.5004233
          ],
          [
            73.83663,
            15.4995183
          ],
          [
            73.83676,
            15.4995233
          ],
          [
            73.8302333,
            15.5009283
          ],
          [
            73.82491,
            15.5010417
          ],
          [
            73.82308,
            15.5006983
          ],
          [
            73.81809,
            15.493465
          ],
          [
            73.8146317,
            15.48958
          ],
          [
            73.8177167,
            15.48683
          ],
          [
            73.81722,
            15.4863567
          ]
        ]
      },
      "properties": {
        "Vehicle_No": "GA07G2502 - FFHQ Mid Size (Water Tender)",
        "Vehicle_Name": "5035",
        "Branch": "Fire Force Headquarters",
        "created": "09-01-2026 05:29:39+05:30",
        "lastUpdated": "09-01-2026 07:14:53+05:30"
      }
    }
  ]
}